{"type":"FeatureCollection","name":"syria_provinces","crs":{"type":"name","properties":{"name":"urn:ogc:def:crs:OGC:1.3:CRS84"}},"features":[{"type":"Feature","geometry":{"type":"Polygon","coordinates":[[[36.5806,34.2775],[36.5817,34.2647],[36.5869,34.2519],[36.5922,34.2294],[36.595,34.2269],[36.6033,34.225],[36.6142,34.2125],[36.625,34.2039],[36.6442,34.2161],[36.6519,34.2189],[36.6669,34.218],[36.6783,34.22],[36.6911,34.2194],[36.7192,34.2246],[36.7357,34.2312],[36.8256,34.2489],[36.8594,34.2294],[36.8669,34.23],[36.8758,34.2236],[36.8919,34.2028],[36.9092,34.1847],[36.9292,34.1672],[36.9411,34.135],[36.953,34.1252],[36.9731,34.1169],[37.0083,34.1076],[37.0028,34.1051],[36.9865,34.0783],[36.9593,34.0465],[37.0093,34.0251],[37.0285,34.0221],[37.0523,34.0108],[37.0653,34.0115],[37.0614,33.9659],[37.0851,33.9665],[37.1283,33.9628],[37.1531,33.9546],[37.1765,33.9504],[37.2019,33.9489],[37.2447,33.9514],[37.2795,33.9366],[37.2859,33.932],[37.34,33.9263],[37.3837,33.9448],[37.3942,33.9447],[37.4689,33.9566],[37.5325,33.9755],[37.5722,33.982],[37.5794,33.98],[37.588,33.9684],[37.5875,33.9526],[37.5978,33.939],[37.6192,33.928],[37.7574,33.9305],[37.7697,33.921],[37.8871,33.9168],[39.009,33.7488],[39.1339,33.5519],[39.6764,33.8315],[40.1624,34.0764],[40.0,34.2796],[39.9055,34.3928],[39.4328,34.9506],[39.4433,35.0303],[39.36,35.1739],[39.3506,35.1831],[39.3142,35.2056],[39.2933,35.2211],[39.242,35.2493],[39.2002,35.2607],[39.2007,35.2667],[39.1968,35.274],[39.1828,35.278],[39.1696,35.2808],[39.1555,35.2781],[39.125,35.2869],[39.0689,35.2975],[39.0194,35.3028],[38.9597,35.3183],[38.9214,35.3311],[38.8975,35.3372],[38.825,35.3481],[38.7758,35.3586],[38.7286,35.3642],[38.6828,35.3728],[38.5711,35.3819],[38.5228,35.3881],[38.4556,35.3908],[38.395,35.3911],[38.3525,35.3886],[38.3013,35.3822],[38.303,35.3692],[38.3017,35.348],[38.3036,35.3128],[38.3022,35.2714],[38.2989,35.2489],[38.295,35.2369],[38.2825,35.2128],[38.2764,35.2033],[38.2503,35.1722],[38.2417,35.1547],[38.2375,35.1375],[38.2372,35.1292],[38.243,35.0961],[38.2428,35.0878],[38.2286,35.0817],[38.1733,35.0661],[38.093,35.035],[38.0769,35.0255],[38.0528,35.0042],[38.0505,34.9897],[38.0422,34.9805],[38.0303,34.9597],[38.0297,34.9386],[38.0208,34.9205],[38.0014,34.9022],[37.9903,34.8978],[37.9836,34.8989],[37.9805,34.9014],[37.9592,34.9269],[37.9447,34.9403],[37.93,34.9578],[37.8975,34.9814],[37.8639,35.0019],[37.8514,35.0122],[37.8469,35.0289],[37.8458,35.0414],[37.84,35.0594],[37.8311,35.068],[37.8267,35.0778],[37.8172,35.0883],[37.8122,35.0911],[37.8025,35.0925],[37.7875,35.0922],[37.778,35.0939],[37.7711,35.0972],[37.7525,35.1142],[37.7436,35.1183],[37.7386,35.1189],[37.7061,35.1147],[37.6861,35.108],[37.6542,35.1028],[37.6047,35.0883],[37.5894,35.0861],[37.5741,35.0867],[37.565,35.0825],[37.5369,35.0642],[37.5119,35.0528],[37.5039,35.0455],[37.4992,35.0355],[37.4964,35.0178],[37.5147,34.9626],[37.4981,34.9605],[37.4935,34.9729],[37.4889,34.976],[37.4712,34.9797],[37.4389,34.9814],[37.4325,34.9805],[37.4196,34.9835],[37.4081,34.9806],[37.4032,34.9728],[37.395,34.9734],[37.3737,34.9704],[37.3712,34.9708],[37.3619,34.9834],[37.3521,34.9842],[37.3521,34.9734],[37.3503,34.971],[37.351,34.9636],[37.3483,34.9629],[37.3486,34.9615],[37.342,34.9626],[37.3344,34.9663],[37.3252,34.9666],[37.3108,34.9657],[37.304,34.9611],[37.303,34.9556],[37.3076,34.9469],[37.2906,34.9432],[37.2855,34.9383],[37.2896,34.9351],[37.293,34.9272],[37.2885,34.9258],[37.2907,34.9191],[37.2692,34.9075],[37.2566,34.9044],[37.2533,34.9068],[37.2489,34.9075],[37.2434,34.9161],[37.2368,34.916],[37.2335,34.9207],[37.2311,34.9308],[37.2278,34.9364],[37.2248,34.9371],[37.2158,34.9455],[37.2079,34.9394],[37.1913,34.9449],[37.1806,34.9434],[37.1672,34.9239],[37.1734,34.912],[37.1634,34.9093],[37.1583,34.9151],[37.1531,34.9169],[37.1492,34.9245],[37.1445,34.9254],[37.1307,34.9248],[37.1146,34.9197],[37.1107,34.91],[37.112,34.9023],[37.0706,34.9043],[37.0706,34.8974],[37.0689,34.897],[37.0649,34.8858],[37.0451,34.8878],[37.0157,34.8641],[37.0025,34.8577],[36.978,34.8546],[36.9708,34.8811],[36.9721,34.8821],[36.9711,34.892],[36.9642,34.8968],[36.957,34.9077],[36.9559,34.9114],[36.9591,34.9199],[36.9577,34.9234],[36.9545,34.9256],[36.941,34.9564],[36.922,34.9753],[36.9106,34.9776],[36.8928,34.9755],[36.878,34.978],[36.8644,34.9778],[36.8536,34.9705],[36.8414,34.965],[36.8264,34.9658],[36.8153,34.9636],[36.8025,34.9517],[36.795,34.9486],[36.7686,34.9483],[36.7578,34.9503],[36.7536,34.9492],[36.7492,34.9455],[36.7444,34.945],[36.7375,34.9486],[36.7333,34.9489],[36.7294,34.9475],[36.7236,34.9408],[36.7153,34.9361],[36.6958,34.9342],[36.6792,34.9272],[36.6708,34.9255],[36.6489,34.9125],[36.618,34.9092],[36.5969,34.9167],[36.5897,34.9158],[36.5619,34.9022],[36.5519,34.9011],[36.5442,34.9014],[36.5386,34.9036],[36.535,34.9075],[36.5344,34.9183],[36.5328,34.9214],[36.5272,34.9239],[36.5175,34.9242],[36.5142,34.9258],[36.5139,34.9303],[36.5155,34.9336],[36.5225,34.9417],[36.5228,34.9461],[36.5211,34.9492],[36.5086,34.955],[36.4989,34.9544],[36.4869,34.948],[36.4753,34.928],[36.4594,34.9205],[36.453,34.9144],[36.4489,34.9039],[36.4505,34.8897],[36.4395,34.8975],[36.4244,34.8968],[36.4237,34.8912],[36.4165,34.873],[36.4121,34.8662],[36.4019,34.8604],[36.3909,34.8573],[36.3825,34.8633],[36.3792,34.8697],[36.3722,34.873],[36.3675,34.8725],[36.3611,34.8689],[36.3494,34.8555],[36.3451,34.8531],[36.3408,34.8541],[36.3369,34.8648],[36.3304,34.8643],[36.3247,34.88],[36.3291,34.8829],[36.3272,34.887],[36.3234,34.8836],[36.3221,34.8867],[36.3233,34.8916],[36.3224,34.8927],[36.3198,34.8907],[36.3176,34.8915],[36.3192,34.8969],[36.305,34.9078],[36.3047,34.9129],[36.3009,34.9175],[36.304,34.9206],[36.3012,34.9232],[36.2945,34.9208],[36.2893,34.9021],[36.2836,34.8917],[36.275,34.8814],[36.273,34.8664],[36.2761,34.8616],[36.2898,34.8562],[36.2986,34.8567],[36.3072,34.8639],[36.3195,34.871],[36.3238,34.8694],[36.3243,34.8648],[36.3114,34.8562],[36.2804,34.8394],[36.275,34.8301],[36.27,34.826],[36.2516,34.8191],[36.24,34.8178],[36.2361,34.8117],[36.2347,34.8061],[36.2253,34.8],[36.2174,34.7829],[36.2045,34.7792],[36.1845,34.7672],[36.177,34.7579],[36.1636,34.7522],[36.1619,34.746],[36.1551,34.7431],[36.1518,34.7367],[36.1455,34.7366],[36.1432,34.735],[36.146,34.7319],[36.1442,34.6943],[36.1284,34.6885],[36.126,34.6862],[36.1317,34.6703],[36.109,34.6505],[36.1054,34.6441],[36.107,34.6401],[36.1142,34.6336],[36.1218,34.6417],[36.1271,34.6422],[36.1284,34.6398],[36.1351,34.6382],[36.1401,34.6344],[36.1464,34.6355],[36.1494,34.633],[36.1618,34.6335],[36.1712,34.6285],[36.1755,34.6291],[36.1769,34.6329],[36.1894,34.6374],[36.2049,34.6356],[36.2102,34.6313],[36.2192,34.6304],[36.2262,34.6257],[36.2277,34.6297],[36.2374,34.6273],[36.2368,34.6324],[36.2408,34.6315],[36.2437,34.6363],[36.2471,34.6332],[36.2619,34.6303],[36.2652,34.6269],[36.2715,34.6297],[36.278,34.6283],[36.2837,34.6325],[36.288,34.6301],[36.2919,34.6336],[36.2976,34.635],[36.2984,34.6391],[36.3009,34.6403],[36.3038,34.6451],[36.3053,34.6527],[36.3086,34.6549],[36.303,34.6675],[36.3062,34.6712],[36.3111,34.6828],[36.3166,34.6834],[36.3167,34.6855],[36.3196,34.6866],[36.3214,34.6897],[36.329,34.6891],[36.3382,34.6921],[36.3396,34.6919],[36.3406,34.6885],[36.344,34.6896],[36.3501,34.6844],[36.3556,34.6832],[36.3537,34.6795],[36.3549,34.6748],[36.3502,34.6711],[36.3513,34.6662],[36.3493,34.6637],[36.3507,34.6602],[36.355,34.6575],[36.3547,34.6551],[36.3569,34.6536],[36.3596,34.6472],[36.3618,34.6474],[36.3655,34.6425],[36.371,34.6417],[36.3731,34.6389],[36.3836,34.6321],[36.3914,34.6301],[36.402,34.6376],[36.4095,34.6324],[36.4107,34.6299],[36.4171,34.6265],[36.4256,34.6255],[36.4301,34.6276],[36.4338,34.6275],[36.4386,34.6317],[36.4504,34.6369],[36.4584,34.638],[36.4649,34.6365],[36.4594,34.6301],[36.4611,34.6261],[36.4573,34.6245],[36.4569,34.6208],[36.4605,34.616],[36.4586,34.6135],[36.4607,34.6111],[36.4577,34.6054],[36.4588,34.6045],[36.4575,34.5988],[36.4541,34.5969],[36.4522,34.5917],[36.4323,34.5921],[36.4306,34.5997],[36.4256,34.6044],[36.4145,34.6059],[36.4147,34.6114],[36.4083,34.6108],[36.4037,34.6075],[36.4048,34.6052],[36.4038,34.6035],[36.4072,34.6006],[36.402,34.5921],[36.4024,34.582],[36.3983,34.5777],[36.4002,34.5762],[36.3992,34.5744],[36.4018,34.5707],[36.4133,34.5627],[36.4148,34.558],[36.4087,34.5545],[36.4075,34.5507],[36.3936,34.5463],[36.3883,34.5419],[36.3748,34.5396],[36.369,34.5335],[36.3642,34.5311],[36.336,34.5241],[36.3337,34.5185],[36.3367,34.5127],[36.3352,34.5025],[36.351,34.5018],[36.3598,34.498],[36.3728,34.5013],[36.3737,34.499],[36.3766,34.4994],[36.3808,34.5039],[36.3932,34.4994],[36.402,34.5004],[36.4139,34.5097],[36.4486,34.5069],[36.4493,34.4954],[36.4598,34.4794],[36.4617,34.4692],[36.4697,34.4629],[36.4877,34.457],[36.4978,34.4488],[36.508,34.4492],[36.5139,34.4438],[36.5096,34.4412],[36.5094,34.4393],[36.5129,34.4406],[36.512,34.4392],[36.5145,34.4377],[36.5128,34.436],[36.515,34.434],[36.517,34.4369],[36.522,34.4348],[36.5241,34.4268],[36.5272,34.4281],[36.5288,34.4331],[36.531,34.4323],[36.5336,34.4299],[36.5326,34.4266],[36.5365,34.4258],[36.5419,34.4218],[36.5455,34.4224],[36.5484,34.4175],[36.5496,34.4183],[36.5553,34.4131],[36.5719,34.4051],[36.5655,34.4008],[36.5507,34.3858],[36.539,34.3788],[36.537,34.3754],[36.5285,34.3696],[36.5332,34.3597],[36.5388,34.3562],[36.543,34.3428],[36.5472,34.3364],[36.5545,34.3311],[36.5533,34.3278],[36.5584,34.327],[36.5591,34.3232],[36.5619,34.3203],[36.5672,34.3181],[36.5728,34.3183],[36.5783,34.315],[36.5922,34.3158],[36.595,34.315],[36.6006,34.3094],[36.6031,34.3019],[36.6003,34.2944],[36.5806,34.2775]]]},"properties":{"province_name":"Homs"}},{"type":"Feature","geometry":{"type":"Polygon","coordinates":[[[35.978,33.5423],[35.9714,33.5419],[35.9667,33.5358],[35.9547,33.535],[35.9411,33.5278],[35.9389,33.5208],[35.9417,33.5161],[35.9525,33.5064],[35.9553,33.5],[35.9533,33.4881],[35.9425,33.4744],[35.9314,33.4644],[35.9067,33.4478],[35.8875,33.4314],[35.8764,33.4258],[35.8544,33.4189],[35.8269,33.405],[35.8217,33.3969],[35.8189,33.3889],[35.8161,33.3708],[35.8125,33.3629],[35.8295,33.3556],[35.8714,33.3187],[35.8718,33.3129],[35.885,33.3081],[35.8942,33.3019],[35.8956,33.2986],[35.885,33.2847],[35.9189,33.2561],[35.935,33.2533],[35.9536,33.2533],[35.9603,33.2519],[35.9636,33.2478],[35.9642,33.2439],[35.9633,33.2117],[35.9617,33.2047],[35.9703,33.2006],[35.9872,33.1964],[35.9942,33.1817],[35.9975,33.1797],[36.0133,33.1769],[36.0311,33.1781],[36.0456,33.1842],[36.0681,33.2],[36.0853,33.2061],[36.103,33.2069],[36.1255,33.2028],[36.1405,33.2022],[36.1508,33.205],[36.1661,33.2128],[36.1758,33.2158],[36.2064,33.22],[36.2122,33.2242],[36.2261,33.2514],[36.2258,33.2578],[36.2206,33.2742],[36.2222,33.2839],[36.2253,33.2883],[36.2303,33.2908],[36.235,33.2911],[36.24,33.2883],[36.2539,33.2703],[36.2736,33.2592],[36.2764,33.2433],[36.28,33.2394],[36.2872,33.2364],[36.3111,33.2333],[36.3164,33.2286],[36.3211,33.2189],[36.3328,33.2128],[36.3414,33.2039],[36.3719,33.1972],[36.3836,33.1986],[36.3875,33.2022],[36.3905,33.2206],[36.4133,33.2406],[36.4289,33.2505],[36.4747,33.2739],[36.4928,33.2908],[36.5056,33.2964],[36.5117,33.2947],[36.5167,33.29],[36.5297,33.2622],[36.5644,33.2292],[36.5681,33.2208],[36.5678,33.2017],[36.5689,33.1981],[36.5736,33.1925],[36.5831,33.1961],[36.5903,33.1969],[36.635,33.1992],[36.685,33.2078],[36.74,33.2117],[36.8036,33.2272],[36.8136,33.2278],[36.8222,33.2256],[36.855,33.2],[36.8869,33.1856],[36.8997,33.1736],[36.9036,33.1675],[36.908,33.1486],[36.9497,33.1122],[36.9536,33.1042],[36.9561,33.0833],[36.9578,33.0803],[36.97,33.0697],[36.9783,33.0653],[36.9867,33.063],[37.0467,33.0581],[37.0653,33.0528],[37.0778,33.0472],[37.0872,33.0389],[37.0972,33.0358],[37.1044,33.0305],[37.1067,33.0233],[37.1053,33.0178],[37.1061,33.0094],[37.1114,33.0022],[37.1186,32.9969],[37.1231,32.9869],[37.1306,32.9819],[37.133,32.9728],[37.1353,32.97],[37.1436,32.9656],[37.1622,32.9605],[37.1744,32.9522],[37.1853,32.9475],[37.1928,32.9447],[37.2,32.9455],[37.2053,32.9481],[37.2189,32.9592],[37.2256,32.9605],[37.2344,32.9589],[37.2505,32.9517],[37.2642,32.94],[37.2717,32.9281],[37.275,32.9164],[37.2794,32.8703],[37.2892,32.8556],[37.3175,32.8336],[37.3253,32.8242],[37.3769,32.7833],[37.4058,32.7639],[37.4203,32.7464],[37.4294,32.7381],[37.4542,32.7242],[37.4656,32.72],[37.4853,32.7025],[37.494,32.6926],[37.5043,32.6971],[37.5094,32.7013],[37.5205,32.7176],[37.55,32.7243],[37.5622,32.7243],[37.5667,32.7332],[37.5939,32.7352],[37.646,32.7443],[37.6578,32.7435],[37.6869,32.7475],[37.7075,32.7579],[37.7176,32.7576],[37.7241,32.7603],[37.7404,32.7618],[37.7461,32.7659],[37.7526,32.7743],[37.7636,32.7785],[37.7729,32.791],[37.7855,32.8128],[37.7958,32.8422],[37.8437,32.8695],[37.8472,32.8733],[37.852,32.8739],[37.888,32.8938],[37.9001,32.8977],[38.2104,33.0656],[38.2369,33.0813],[38.2636,33.0932],[38.2988,33.1119],[38.3503,33.1416],[38.3633,33.1631],[38.3758,33.1668],[38.397,33.1695],[38.4276,33.1801],[38.6816,33.3146],[38.7282,33.3377],[38.7581,33.3559],[38.7683,33.3572],[38.793,33.3734],[38.7936,33.3752],[38.8047,33.381],[39.1339,33.5519],[39.009,33.7488],[37.8871,33.9168],[37.7697,33.921],[37.7574,33.9305],[37.6192,33.928],[37.5978,33.939],[37.5875,33.9526],[37.588,33.9684],[37.5794,33.98],[37.5722,33.982],[37.5325,33.9755],[37.4689,33.9566],[37.3942,33.9447],[37.3837,33.9448],[37.34,33.9263],[37.2859,33.932],[37.2795,33.9366],[37.2447,33.9514],[37.2019,33.9489],[37.1765,33.9504],[37.1531,33.9546],[37.1283,33.9628],[37.0851,33.9665],[37.0614,33.9659],[37.0653,34.0115],[37.0523,34.0108],[37.0285,34.0221],[37.0093,34.0251],[36.9593,34.0465],[36.9865,34.0783],[37.0028,34.1051],[37.0083,34.1076],[36.9731,34.1169],[36.953,34.1252],[36.9411,34.135],[36.9292,34.1672],[36.9092,34.1847],[36.8919,34.2028],[36.8758,34.2236],[36.8669,34.23],[36.8594,34.2294],[36.8256,34.2489],[36.7357,34.2312],[36.7192,34.2246],[36.6911,34.2194],[36.6783,34.22],[36.6669,34.218],[36.6519,34.2189],[36.6442,34.2161],[36.625,34.2039],[36.6219,34.1983],[36.6117,34.1956],[36.6061,34.1964],[36.6033,34.1925],[36.595,34.1894],[36.5864,34.1647],[36.5725,34.1569],[36.5697,34.1419],[36.5669,34.1367],[36.5642,34.1347],[36.5503,34.1331],[36.5419,34.1294],[36.5308,34.1147],[36.5253,34.1106],[36.5169,34.1072],[36.5111,34.1017],[36.5083,34.0944],[36.5092,34.0725],[36.5036,34.0636],[36.4953,34.0633],[36.4925,34.0592],[36.4842,34.0575],[36.4758,34.0506],[36.4675,34.0483],[36.4539,34.0486],[36.4403,34.0586],[36.4347,34.0597],[36.4292,34.0586],[36.4181,34.0506],[36.4069,34.0508],[36.4042,34.0492],[36.4047,34.0389],[36.4031,34.0342],[36.3975,34.0339],[36.3919,34.0308],[36.3864,34.0206],[36.3806,34.0153],[36.3503,33.9972],[36.3281,33.9778],[36.3222,33.9681],[36.3083,33.9522],[36.3,33.9367],[36.2833,33.9178],[36.2817,33.9108],[36.2844,33.9075],[36.3092,33.8964],[36.3144,33.8914],[36.32,33.8828],[36.3253,33.8789],[36.3336,33.8778],[36.3558,33.8814],[36.3667,33.8775],[36.3722,33.8678],[36.3858,33.8611],[36.3911,33.8544],[36.3898,33.8451],[36.3964,33.8336],[36.3934,33.8306],[36.3875,33.8286],[36.3718,33.8325],[36.3603,33.8292],[36.3515,33.8292],[36.3342,33.8328],[36.3231,33.8331],[36.3094,33.8408],[36.2983,33.8439],[36.2875,33.8408],[36.2711,33.8556],[36.2572,33.8547],[36.2517,33.8583],[36.2468,33.8544],[36.2408,33.8564],[36.235,33.8439],[36.2214,33.8417],[36.2158,33.8364],[36.1992,33.8331],[36.1744,33.8389],[36.1636,33.8533],[36.1553,33.8564],[36.1497,33.8528],[36.1389,33.84],[36.1136,33.8365],[36.1028,33.8244],[36.0973,33.8219],[36.0892,33.8197],[36.0808,33.8261],[36.0763,33.8267],[36.0655,33.82],[36.0617,33.815],[36.0558,33.8008],[36.0367,33.7731],[36.0311,33.7708],[36.0256,33.7719],[36.0207,33.7695],[36.0128,33.7708],[36.0101,33.7694],[36.0084,33.7665],[36.0117,33.7633],[36.0006,33.7503],[35.9931,33.7342],[35.985,33.7267],[35.9739,33.7214],[35.9683,33.715],[35.9694,33.7014],[35.9719,33.6933],[35.967,33.6815],[35.9639,33.6794],[35.9586,33.6786],[35.9394,33.6628],[35.9339,33.6547],[35.935,33.6461],[35.9458,33.6375],[35.9514,33.6369],[35.9653,33.6414],[35.9733,33.6417],[35.9723,33.6375],[35.9735,33.6306],[35.9842,33.6195],[35.989,33.618],[35.9947,33.6211],[36.0149,33.6166],[36.0191,33.6137],[36.0228,33.6082],[36.0258,33.5976],[36.0311,33.5939],[36.035,33.5934],[36.0351,33.5899],[36.0466,33.5879],[36.054,33.5912],[36.0611,33.5878],[36.0592,33.5794],[36.0289,33.5492],[36.0125,33.5464],[35.9958,33.5381],[35.9906,33.5381],[35.978,33.5423]],[[36.28,33.4741],[36.2789,33.4758],[36.272,33.47],[36.2663,33.4685],[36.2471,33.4761],[36.2433,33.48],[36.238,33.4783],[36.238,33.4757],[36.2318,33.4744],[36.2323,33.4733],[36.2299,33.4716],[36.2252,33.4719],[36.2263,33.47],[36.2223,33.4683],[36.2188,33.4724],[36.207,33.4693],[36.2059,33.4732],[36.2097,33.479],[36.2051,33.4856],[36.2102,33.4859],[36.2087,33.516],[36.1992,33.5146],[36.1971,33.5251],[36.2049,33.5296],[36.2028,33.5306],[36.204,33.5339],[36.209,33.535],[36.2124,33.5393],[36.2149,33.5369],[36.2226,33.5396],[36.2231,33.545],[36.2253,33.5446],[36.227,33.5464],[36.2308,33.5445],[36.2315,33.5419],[36.2699,33.5579],[36.2737,33.5558],[36.2804,33.5636],[36.2837,33.5624],[36.2873,33.564],[36.3152,33.5651],[36.3137,33.5674],[36.3158,33.569],[36.3141,33.5702],[36.3173,33.5715],[36.3226,33.5713],[36.3202,33.569],[36.3208,33.568],[36.3238,33.5692],[36.327,33.5671],[36.3252,33.5641],[36.3304,33.5651],[36.3305,33.5633],[36.3344,33.5648],[36.3362,33.5589],[36.3559,33.5567],[36.3531,33.5456],[36.3437,33.5257],[36.3482,33.5268],[36.3505,33.5209],[36.3402,33.5185],[36.328,33.4933],[36.3274,33.489],[36.3238,33.49],[36.3251,33.4858],[36.3175,33.4845],[36.3173,33.4808],[36.3145,33.4806],[36.3157,33.4783],[36.3218,33.4779],[36.3214,33.474],[36.3174,33.4737],[36.3187,33.4693],[36.3137,33.4716],[36.3154,33.4704],[36.3137,33.4619],[36.3106,33.4614],[36.3071,33.4652],[36.3037,33.4647],[36.3032,33.4674],[36.2984,33.4681],[36.296,33.4651],[36.2991,33.4613],[36.2974,33.4624],[36.2828,33.4586],[36.2832,33.4612],[36.2802,33.462],[36.2775,33.4652],[36.28,33.4741]]]},"properties":{"province_name":"Rif Dimashq"}},{"type":"Feature","geometry":{"type":"Polygon","coordinates":[[[36.9067,33.1519],[36.9036,33.1675],[36.8997,33.1736],[36.8869,33.1856],[36.855,33.2],[36.8256,33.2236],[36.8136,33.2278],[36.7817,33.2228],[36.74,33.2117],[36.685,33.2078],[36.635,33.1992],[36.5903,33.1969],[36.5831,33.1961],[36.5736,33.1925],[36.5708,33.1953],[36.5578,33.1856],[36.5486,33.1839],[36.5408,33.1842],[36.5247,33.1892],[36.51,33.1889],[36.4819,33.1708],[36.475,33.1628],[36.4703,33.1506],[36.475,33.1361],[36.4719,33.118],[36.4767,33.1039],[36.4858,33.0864],[36.4872,33.0628],[36.4886,33.0592],[36.4922,33.0556],[36.4981,33.0536],[36.5186,33.0592],[36.5261,33.0594],[36.5314,33.0569],[36.5344,33.0506],[36.5356,33.0264],[36.54,33.0164],[36.5456,33.0097],[36.5469,33.0039],[36.5417,33.0014],[36.5339,33.0011],[36.4725,33.0047],[36.4306,33.0011],[36.4158,32.9953],[36.3883,32.9772],[36.3747,32.9658],[36.3503,32.9544],[36.3414,32.9461],[36.3411,32.9394],[36.3461,32.93],[36.3472,32.9242],[36.3455,32.9186],[36.3367,32.9033],[36.3369,32.8931],[36.3453,32.8614],[36.3639,32.8314],[36.3625,32.8256],[36.3528,32.8108],[36.3578,32.7742],[36.3661,32.7561],[36.3692,32.7447],[36.3677,32.7396],[36.358,32.7365],[36.3553,32.7308],[36.3542,32.7158],[36.3553,32.7078],[36.3605,32.6983],[36.3656,32.6958],[36.3775,32.695],[36.3992,32.6878],[36.4386,32.6842],[36.4453,32.6806],[36.4506,32.6711],[36.4506,32.6622],[36.4464,32.6519],[36.4406,32.6475],[36.43,32.6428],[36.4208,32.6344],[36.4042,32.63],[36.3975,32.6264],[36.3964,32.6208],[36.4067,32.6044],[36.4047,32.5967],[36.3983,32.5839],[36.398,32.58],[36.4,32.5772],[36.4264,32.5739],[36.453,32.5769],[36.4603,32.5764],[36.4672,32.5683],[36.4758,32.5642],[36.495,32.5661],[36.5058,32.5592],[36.5086,32.5525],[36.5083,32.5444],[36.4961,32.5317],[36.4936,32.5269],[36.4933,32.5225],[36.5014,32.5114],[36.5236,32.4914],[36.5272,32.4831],[36.5261,32.468],[36.5186,32.4469],[36.5164,32.4325],[36.5217,32.398],[36.5147,32.3739],[36.5133,32.357],[36.5464,32.3552],[36.5858,32.3478],[36.5936,32.3491],[36.6322,32.3448],[36.6889,32.3349],[36.6928,32.3253],[36.7015,32.3219],[36.708,32.3161],[36.7216,32.3131],[36.7239,32.3157],[36.7408,32.3211],[36.7523,32.3212],[36.7603,32.3199],[36.7855,32.3207],[36.8393,32.3118],[36.8685,32.3405],[36.915,32.3668],[36.9258,32.3777],[36.937,32.3783],[37.0202,32.4251],[37.0372,32.4283],[37.0635,32.4285],[37.0771,32.4338],[37.0768,32.4353],[37.1111,32.4605],[37.1609,32.5157],[37.184,32.5304],[37.1897,32.5401],[37.2067,32.5581],[37.2237,32.5611],[37.2557,32.5719],[37.2614,32.5707],[37.2686,32.5667],[37.2695,32.5647],[37.302,32.5654],[37.3142,32.558],[37.3234,32.5585],[37.3255,32.5621],[37.3302,32.5649],[37.3326,32.5646],[37.3342,32.5624],[37.341,32.5643],[37.3619,32.5633],[37.3679,32.5772],[37.3795,32.5921],[37.3917,32.5971],[37.4183,32.6037],[37.4245,32.607],[37.444,32.6362],[37.4444,32.6433],[37.4566,32.654],[37.4652,32.6581],[37.4726,32.6651],[37.4854,32.6896],[37.494,32.6926],[37.4853,32.7025],[37.4656,32.72],[37.4542,32.7242],[37.4294,32.7381],[37.4203,32.7464],[37.4058,32.7639],[37.3769,32.7833],[37.3253,32.8242],[37.3175,32.8336],[37.2892,32.8556],[37.2794,32.8703],[37.275,32.9164],[37.2717,32.9281],[37.2642,32.94],[37.2505,32.9517],[37.2344,32.9589],[37.2256,32.9605],[37.2189,32.9592],[37.2053,32.9481],[37.2,32.9455],[37.1928,32.9447],[37.1744,32.9522],[37.1622,32.9605],[37.1397,32.9669],[37.133,32.9728],[37.1306,32.9819],[37.1231,32.9869],[37.1186,32.9969],[37.1114,33.0022],[37.1061,33.0094],[37.1061,33.0272],[37.1019,33.0331],[37.0872,33.0389],[37.0778,33.0472],[37.0653,33.0528],[37.0467,33.0581],[36.9867,33.063],[36.9783,33.0653],[36.97,33.0697],[36.9578,33.0803],[36.9561,33.0833],[36.9536,33.1042],[36.9497,33.1122],[36.9225,33.1353],[36.908,33.1486],[36.9067,33.1519]]]},"properties":{"province_name":"As Suwayda"}},{"type":"Feature","geometry":{"type":"MultiPolygon","coordinates":[[[[35.8444,32.8702],[35.8457,32.8531],[35.8377,32.8282],[35.8167,32.8061],[35.8003,32.7823],[35.7948,32.7819],[35.7826,32.7743],[35.7565,32.7453],[35.7607,32.7474],[35.7661,32.7467],[35.7744,32.7622],[35.7858,32.7746],[35.806,32.7827],[35.8485,32.8245],[35.8467,32.8365],[35.8523,32.8434],[35.869,32.8514],[35.8786,32.8591],[35.885,32.8697],[35.892,32.8752],[35.9082,32.8811],[35.9128,32.8845],[35.9112,32.8912],[35.9214,32.8942],[35.9394,32.9089],[35.9433,32.9169],[35.9414,32.9269],[35.9414,32.9383],[35.9403,32.9442],[35.9322,32.9533],[35.9319,32.9578],[35.9339,32.9608],[35.9444,32.9636],[35.9672,32.9639],[35.9719,32.9608],[35.9731,32.9553],[35.9764,32.9511],[35.9831,32.9478],[35.9867,32.9486],[35.9883,32.9542],[35.9881,32.9628],[35.9847,32.9739],[35.9689,32.9903],[35.9631,33.0014],[35.9519,33.015],[35.9458,33.0281],[35.9478,33.0333],[35.9464,33.0453],[35.9506,33.0556],[35.9548,33.0774],[35.9608,33.0961],[35.9672,33.1092],[35.9781,33.1228],[35.9811,33.1294],[35.9803,33.1356],[35.9775,33.14],[35.9536,33.1544],[35.9517,33.1594],[35.9578,33.1772],[35.9578,33.1928],[35.9633,33.2117],[35.9636,33.2478],[35.9603,33.2519],[35.9536,33.2533],[35.935,33.2533],[35.9189,33.2561],[35.885,33.2847],[35.8956,33.2986],[35.8942,33.3019],[35.885,33.3081],[35.8718,33.3129],[35.8714,33.3187],[35.8295,33.3556],[35.8125,33.3629],[35.8022,33.3575],[35.7733,33.3356],[35.8132,33.317],[35.7774,33.2767],[35.784,33.2659],[35.8101,33.2513],[35.8151,33.245],[35.8172,33.2031],[35.8377,33.1931],[35.8444,33.1676],[35.818,33.1274],[35.817,33.113],[35.8364,33.1052],[35.8505,33.1024],[35.8713,32.9814],[35.895,32.9449],[35.8798,32.9265],[35.8729,32.9234],[35.8615,32.9078],[35.8511,32.8898],[35.8444,32.8702]]],[[[35.6133,32.8953],[35.6218,32.8915],[35.6296,32.884],[35.6441,32.8641],[35.6431,32.8612],[35.648,32.8528],[35.6498,32.8435],[35.6491,32.8393],[35.6442,32.8345],[35.6414,32.8341],[35.6455,32.8217],[35.644,32.8107],[35.6557,32.8084],[35.6548,32.7928],[35.6624,32.7772],[35.6555,32.754],[35.6572,32.7444],[35.6519,32.7338],[35.6522,32.7309],[35.65,32.7265],[35.651,32.7209],[35.6498,32.7146],[35.6447,32.7081],[35.6376,32.7052],[35.6385,32.7012],[35.6351,32.6919],[35.6356,32.6878],[35.6489,32.6821],[35.6526,32.6856],[35.6646,32.6875],[35.672,32.6912],[35.6713,32.6942],[35.6749,32.6965],[35.6768,32.7014],[35.6756,32.7056],[35.6796,32.7057],[35.6871,32.7091],[35.6907,32.708],[35.6982,32.7125],[35.7006,32.7123],[35.7025,32.7158],[35.7068,32.7141],[35.7107,32.7188],[35.7161,32.7153],[35.7182,32.7173],[35.7182,32.7232],[35.7234,32.7216],[35.7258,32.7269],[35.7293,32.7265],[35.7292,32.7232],[35.7328,32.7231],[35.7346,32.728],[35.7372,32.7296],[35.737,32.7343],[35.7408,32.7315],[35.7448,32.7327],[35.7481,32.7358],[35.7502,32.7407],[35.7535,32.742],[35.7826,32.7743],[35.7948,32.7819],[35.8003,32.7823],[35.8167,32.8061],[35.8377,32.8282],[35.8457,32.8531],[35.8444,32.8702],[35.8511,32.8898],[35.8615,32.9078],[35.8729,32.9234],[35.8798,32.9265],[35.895,32.9449],[35.8713,32.9814],[35.8505,33.1024],[35.8364,33.1052],[35.817,33.113],[35.818,33.1274],[35.8444,33.1676],[35.8377,33.1931],[35.8172,33.2031],[35.8151,33.245],[35.8101,33.2513],[35.784,33.2659],[35.7774,33.2767],[35.8132,33.317],[35.7733,33.3356],[35.7517,33.3292],[35.7462,33.3306],[35.7413,33.3256],[35.728,33.3298],[35.718,33.3277],[35.7119,33.3206],[35.7098,33.3108],[35.707,33.3053],[35.6932,33.2964],[35.6851,33.2938],[35.6622,33.2784],[35.6588,33.274],[35.6429,33.2805],[35.626,33.2739],[35.6243,33.2781],[35.6211,33.2782],[35.6204,33.2749],[35.6226,33.2729],[35.62,33.2704],[35.6232,33.2605],[35.6213,33.2594],[35.6213,33.2561],[35.6191,33.2557],[35.6203,33.2532],[35.6238,33.2525],[35.6228,33.2493],[35.6256,33.2458],[35.6231,33.2443],[35.625,33.2419],[35.6418,33.2449],[35.6507,33.2503],[35.6736,33.2463],[35.6811,33.2477],[35.6844,33.2427],[35.6821,33.2413],[35.6839,33.2391],[35.6831,33.2371],[35.6772,33.2329],[35.6728,33.2323],[35.6669,33.2255],[35.6675,33.2211],[35.6629,33.1901],[35.6706,33.1535],[35.6528,33.123],[35.6502,33.0871],[35.6455,33.0777],[35.6466,33.0634],[35.6405,33.0406],[35.6317,33.024],[35.629,33.0136],[35.633,33.0089],[35.6304,32.9947],[35.6331,32.9909],[35.631,32.96],[35.6289,32.9566],[35.6281,32.9374],[35.6242,32.9163],[35.6241,32.9142],[35.6273,32.9118],[35.6256,32.9088],[35.6234,32.9085],[35.6253,32.9075],[35.6228,32.9049],[35.6168,32.9051],[35.6164,32.9027],[35.6136,32.9005],[35.6146,32.8993],[35.6133,32.8953]]]]},"properties":{"province_name":"Quneitra"}},{"type":"Feature","geometry":{"type":"Polygon","coordinates":[[[35.892,32.8752],[35.885,32.8697],[35.8786,32.8591],[35.869,32.8514],[35.8523,32.8434],[35.8467,32.8365],[35.8485,32.8245],[35.806,32.7827],[35.7858,32.7746],[35.7744,32.7622],[35.7661,32.7467],[35.773,32.7461],[35.7781,32.7485],[35.7852,32.7473],[35.7887,32.7521],[35.7958,32.7563],[35.8018,32.7493],[35.7954,32.7465],[35.7941,32.7445],[35.799,32.7426],[35.8007,32.7362],[35.8038,32.7359],[35.8067,32.7408],[35.809,32.7418],[35.8107,32.7408],[35.809,32.739],[35.8104,32.7358],[35.8258,32.7341],[35.8352,32.7268],[35.841,32.7283],[35.8447,32.7319],[35.8555,32.7249],[35.8566,32.7264],[35.8529,32.7288],[35.8534,32.7322],[35.8579,32.7313],[35.8667,32.7342],[35.8765,32.7324],[35.8882,32.7181],[35.8998,32.7184],[35.905,32.7241],[35.9048,32.7194],[35.9119,32.7235],[35.9181,32.7186],[35.9197,32.7192],[35.9187,32.721],[35.9197,32.7223],[35.9227,32.7205],[35.9251,32.7226],[35.9318,32.72],[35.9346,32.7209],[35.94,32.7084],[35.9374,32.6999],[35.9401,32.6997],[35.9404,32.6968],[35.9452,32.6966],[35.9485,32.6939],[35.9495,32.6926],[35.946,32.6865],[35.9479,32.682],[35.9553,32.6764],[35.9649,32.6642],[35.9665,32.6648],[35.9682,32.6624],[35.9817,32.6605],[36.0034,32.6614],[36.0177,32.6581],[36.024,32.6583],[36.0245,32.6552],[36.0274,32.6535],[36.0281,32.6409],[36.0296,32.6376],[36.0284,32.637],[36.0248,32.6168],[36.0244,32.6132],[36.0263,32.6099],[36.025,32.6078],[36.0255,32.6039],[36.0301,32.5972],[36.0428,32.591],[36.0596,32.5792],[36.0628,32.5786],[36.0641,32.5747],[36.0695,32.5684],[36.0748,32.5486],[36.0802,32.5439],[36.0795,32.5377],[36.0766,32.533],[36.0802,32.5193],[36.0793,32.5139],[36.1223,32.5256],[36.1564,32.5243],[36.1639,32.5151],[36.1717,32.5188],[36.1919,32.5239],[36.1969,32.5276],[36.2,32.5271],[36.2001,32.529],[36.2016,32.5287],[36.2016,32.5268],[36.2048,32.5263],[36.204,32.5168],[36.2057,32.5167],[36.2034,32.5083],[36.2096,32.4941],[36.2243,32.4936],[36.2361,32.497],[36.237,32.4996],[36.2398,32.4988],[36.2451,32.4936],[36.2938,32.4655],[36.299,32.4597],[36.3058,32.4589],[36.3338,32.4321],[36.3396,32.4298],[36.3418,32.426],[36.3727,32.3986],[36.3801,32.3947],[36.3848,32.3894],[36.3977,32.3844],[36.4019,32.3784],[36.4259,32.3752],[36.4381,32.3712],[36.4507,32.3728],[36.4762,32.3707],[36.4844,32.3667],[36.4911,32.3657],[36.5008,32.3593],[36.5133,32.357],[36.5147,32.3739],[36.5217,32.398],[36.5164,32.4325],[36.5186,32.4469],[36.5261,32.468],[36.5272,32.4831],[36.5236,32.4914],[36.5014,32.5114],[36.4933,32.5225],[36.4936,32.5269],[36.4961,32.5317],[36.5083,32.5444],[36.5086,32.5525],[36.5058,32.5592],[36.495,32.5661],[36.4758,32.5642],[36.4672,32.5683],[36.4603,32.5764],[36.453,32.5769],[36.4264,32.5739],[36.4086,32.5753],[36.4,32.5772],[36.398,32.58],[36.3983,32.5839],[36.4047,32.5967],[36.4067,32.6044],[36.3964,32.6208],[36.3975,32.6264],[36.4042,32.63],[36.4208,32.6344],[36.43,32.6428],[36.4406,32.6475],[36.4464,32.6519],[36.4506,32.6622],[36.4506,32.6711],[36.4453,32.6806],[36.4386,32.6842],[36.3992,32.6878],[36.3775,32.695],[36.3656,32.6958],[36.3605,32.6983],[36.3572,32.7025],[36.3542,32.7158],[36.3553,32.7308],[36.358,32.7365],[36.3677,32.7396],[36.3692,32.7447],[36.3661,32.7561],[36.3578,32.7742],[36.3528,32.8108],[36.3625,32.8256],[36.3639,32.8314],[36.3453,32.8614],[36.3361,32.8992],[36.3367,32.9033],[36.3455,32.9186],[36.3472,32.9242],[36.3461,32.93],[36.3411,32.9394],[36.3414,32.9461],[36.3444,32.95],[36.3503,32.9544],[36.3747,32.9658],[36.3883,32.9772],[36.4158,32.9953],[36.4247,32.9994],[36.4397,33.0028],[36.4725,33.0047],[36.5339,33.0011],[36.5417,33.0014],[36.5469,33.0039],[36.5456,33.0097],[36.54,33.0164],[36.5356,33.0264],[36.5344,33.0506],[36.5314,33.0569],[36.5261,33.0594],[36.5186,33.0592],[36.4981,33.0536],[36.4922,33.0556],[36.4886,33.0592],[36.4872,33.0628],[36.4858,33.0864],[36.4767,33.1039],[36.4719,33.118],[36.475,33.1361],[36.4703,33.1506],[36.475,33.1628],[36.4819,33.1708],[36.51,33.1889],[36.5247,33.1892],[36.5408,33.1842],[36.5486,33.1839],[36.5578,33.1856],[36.5708,33.1953],[36.5678,33.2017],[36.5681,33.2208],[36.5644,33.2292],[36.5297,33.2622],[36.5253,33.2697],[36.5211,33.2822],[36.5167,33.29],[36.5117,33.2947],[36.5056,33.2964],[36.4928,33.2908],[36.4747,33.2739],[36.4289,33.2505],[36.4133,33.2406],[36.3939,33.2247],[36.3892,33.2172],[36.3875,33.2022],[36.3836,33.1986],[36.3772,33.1969],[36.3414,33.2039],[36.3328,33.2128],[36.3211,33.2189],[36.3164,33.2286],[36.3111,33.2333],[36.2872,33.2364],[36.28,33.2394],[36.2764,33.2433],[36.2736,33.2592],[36.2539,33.2703],[36.24,33.2883],[36.235,33.2911],[36.2303,33.2908],[36.2253,33.2883],[36.2222,33.2839],[36.2206,33.2742],[36.2258,33.2578],[36.2261,33.2514],[36.2122,33.2242],[36.2064,33.22],[36.1758,33.2158],[36.1661,33.2128],[36.1508,33.205],[36.1405,33.2022],[36.1255,33.2028],[36.103,33.2069],[36.0853,33.2061],[36.0681,33.2],[36.0408,33.1814],[36.0242,33.1772],[36.0133,33.1769],[35.9975,33.1797],[35.9942,33.1817],[35.9872,33.1964],[35.9703,33.2006],[35.9617,33.2047],[35.9578,33.1928],[35.9578,33.1772],[35.9517,33.1594],[35.9536,33.1544],[35.9775,33.14],[35.9803,33.1356],[35.9811,33.1294],[35.9781,33.1228],[35.9672,33.1092],[35.9608,33.0961],[35.9548,33.0774],[35.9506,33.0556],[35.9464,33.0453],[35.9478,33.0333],[35.9458,33.0281],[35.9519,33.015],[35.9631,33.0014],[35.9689,32.9903],[35.9847,32.9739],[35.9869,32.9689],[35.9883,32.9542],[35.9867,32.9486],[35.9831,32.9478],[35.9764,32.9511],[35.9731,32.9553],[35.9719,32.9608],[35.9672,32.9639],[35.9444,32.9636],[35.9339,32.9608],[35.9319,32.9578],[35.9322,32.9533],[35.9403,32.9442],[35.9414,32.9383],[35.9414,32.9269],[35.9433,32.9169],[35.9425,32.9131],[35.9394,32.9089],[35.9214,32.8942],[35.9112,32.8912],[35.9128,32.8845],[35.9082,32.8811],[35.892,32.8752]]]},"properties":{"province_name":"Dar`a"}},{"type":"Feature","geometry":{"type":"Polygon","coordinates":[[[38.5234,36.2045],[38.5445,36.2186],[38.5444,36.2335],[38.527,36.245],[38.5288,36.259],[38.534,36.2585],[38.5442,36.2878],[38.5714,36.2857],[38.5721,36.2624],[38.6314,36.2845],[38.6277,36.3053],[38.6451,36.3155],[38.6375,36.3282],[38.6465,36.3403],[38.639,36.3445],[38.6455,36.3482],[38.642,36.368],[38.6347,36.3723],[38.6411,36.3937],[38.6378,36.4008],[38.6446,36.4045],[38.6443,36.413],[38.6545,36.4126],[38.6592,36.4199],[38.6665,36.4218],[38.6657,36.4368],[38.6558,36.4477],[38.658,36.4557],[38.6717,36.4631],[38.6768,36.4781],[38.6574,36.4835],[38.6558,36.4983],[38.6692,36.5294],[38.682,36.5426],[38.6806,36.553],[38.6711,36.5621],[38.6727,36.5681],[38.6879,36.5929],[38.6941,36.623],[38.7061,36.6376],[38.7175,36.6382],[38.7203,36.6399],[38.7206,36.6434],[38.717,36.6432],[38.7131,36.6406],[38.7139,36.6532],[38.7034,36.652],[38.6788,36.6375],[38.67,36.6377],[38.6714,36.6489],[38.6346,36.6465],[38.6402,36.6345],[38.6461,36.6121],[38.6367,36.601],[38.6025,36.6153],[38.6096,36.6264],[38.6079,36.6286],[38.607,36.6416],[38.5865,36.6576],[38.5803,36.6716],[38.5874,36.6835],[38.6154,36.6739],[38.6213,36.6668],[38.6578,36.6752],[38.6677,36.6809],[38.6697,36.6859],[38.6622,36.7141],[38.6476,36.7157],[38.6435,36.7223],[38.6338,36.7312],[38.6426,36.7456],[38.6381,36.7478],[38.6342,36.7535],[38.6321,36.7603],[38.6308,36.7824],[38.5945,36.8056],[38.5905,36.8144],[38.5909,36.8227],[38.5888,36.8257],[38.5844,36.827],[38.5751,36.8241],[38.5676,36.825],[38.5592,36.8406],[38.5548,36.8444],[38.39,36.9022],[38.3401,36.8998],[38.2948,36.9075],[38.266,36.9143],[38.2556,36.9197],[38.2415,36.9239],[38.237,36.9229],[38.2136,36.9077],[38.1925,36.9095],[38.1831,36.9088],[38.1746,36.9116],[38.1673,36.9101],[38.1642,36.9078],[38.1643,36.9015],[38.1612,36.8986],[38.1435,36.8936],[38.1337,36.8948],[38.1291,36.8918],[38.1227,36.8903],[38.1123,36.8809],[38.1036,36.8804],[38.0979,36.8762],[38.0888,36.8777],[38.0793,36.8758],[38.0719,36.8708],[38.0691,36.8655],[38.0664,36.8637],[38.0556,36.8659],[38.0461,36.8645],[38.0361,36.8603],[38.0288,36.8525],[38.0288,36.8466],[38.0321,36.8396],[38.0319,36.8368],[38.0297,36.8335],[38.0188,36.8261],[38.0145,36.8257],[38.0082,36.8292],[37.9936,36.832],[37.9635,36.8208],[37.9408,36.8185],[37.9243,36.8103],[37.9032,36.7915],[37.8776,36.7874],[37.827,36.7686],[37.8003,36.7634],[37.7834,36.7494],[37.7284,36.7516],[37.7035,36.7575],[37.6975,36.7558],[37.6846,36.7445],[37.6771,36.7426],[37.6654,36.749],[37.6579,36.7489],[37.6218,36.7247],[37.5247,36.6876],[37.4968,36.6744],[37.4887,36.6672],[37.4871,36.6496],[37.4726,36.6321],[37.4701,36.634],[37.4429,36.6325],[37.4245,36.6427],[37.4064,36.6437],[37.3927,36.6489],[37.3036,36.6658],[37.296,36.6636],[37.2911,36.6659],[37.2913,36.6681],[37.283,36.67],[37.2792,36.6698],[37.2779,36.6632],[37.2553,36.6693],[37.2275,36.6717],[37.2165,36.6745],[37.1866,36.6631],[37.1793,36.6618],[37.1765,36.6591],[37.1625,36.6555],[37.159,36.6606],[37.1549,36.6611],[37.1419,36.6767],[37.1242,36.6654],[37.1206,36.6663],[37.114,36.6717],[37.1066,36.6715],[37.0999,36.6486],[37.0861,36.6342],[37.0571,36.6454],[37.057,36.655],[37.0496,36.657],[37.0349,36.6647],[37.0205,36.6651],[37.0196,36.6821],[37.0144,36.6854],[37.0146,36.6901],[37.0204,36.6985],[37.0314,36.699],[37.0399,36.7034],[37.0412,36.7104],[37.0433,36.7114],[37.0437,36.7143],[37.0466,36.7154],[37.0478,36.7204],[37.0463,36.7242],[37.0413,36.7277],[37.0364,36.736],[37.0153,36.7359],[36.9962,36.7385],[36.9957,36.7412],[36.9928,36.7423],[36.9931,36.7435],[36.9987,36.7474],[37.0001,36.7508],[36.9967,36.7548],[36.996,36.7585],[36.9985,36.7623],[36.9964,36.7647],[36.985,36.7618],[36.9705,36.7632],[36.9554,36.7699],[36.9463,36.7757],[36.9415,36.7733],[36.9387,36.7754],[36.9335,36.7739],[36.9327,36.776],[36.9348,36.7796],[36.9312,36.7802],[36.9284,36.7788],[36.9288,36.7821],[36.9228,36.7854],[36.9154,36.7843],[36.9034,36.7777],[36.8892,36.7786],[36.8846,36.7772],[36.8757,36.7806],[36.8288,36.7921],[36.8226,36.791],[36.8198,36.7889],[36.8125,36.7924],[36.7997,36.7935],[36.795,36.7968],[36.7884,36.7971],[36.77,36.8069],[36.7683,36.8062],[36.7675,36.8084],[36.763,36.8099],[36.7515,36.8193],[36.7453,36.8203],[36.7394,36.8184],[36.7336,36.8196],[36.7281,36.8212],[36.7238,36.8259],[36.716,36.828],[36.711,36.826],[36.6942,36.8272],[36.685,36.8256],[36.6699,36.829],[36.6658,36.8284],[36.6651,36.827],[36.6693,36.8242],[36.6689,36.8214],[36.6716,36.8208],[36.6675,36.816],[36.6669,36.8132],[36.6695,36.8129],[36.6713,36.8101],[36.6708,36.8073],[36.6686,36.806],[36.6707,36.8013],[36.6642,36.7979],[36.6619,36.793],[36.6581,36.7931],[36.6559,36.7891],[36.652,36.7883],[36.6507,36.7865],[36.6458,36.7864],[36.6427,36.7814],[36.6436,36.7778],[36.6394,36.7739],[36.6404,36.7694],[36.6347,36.7711],[36.6348,36.7678],[36.628,36.7668],[36.629,36.7628],[36.6254,36.762],[36.6258,36.7605],[36.6207,36.7535],[36.6128,36.7454],[36.6159,36.7417],[36.6145,36.7403],[36.6174,36.7381],[36.616,36.7358],[36.6194,36.7306],[36.6187,36.7283],[36.6255,36.7206],[36.6304,36.7199],[36.6314,36.7127],[36.6289,36.7057],[36.6235,36.7008],[36.6195,36.6941],[36.6144,36.6928],[36.6125,36.6904],[36.6124,36.6846],[36.6087,36.6815],[36.6081,36.6771],[36.6029,36.6767],[36.5999,36.6725],[36.5893,36.6689],[36.5879,36.6618],[36.5845,36.6623],[36.5778,36.6587],[36.5762,36.6596],[36.5761,36.6398],[36.5791,36.6083],[36.5847,36.6013],[36.591,36.5852],[36.5886,36.5824],[36.5839,36.5681],[36.5824,36.5563],[36.5749,36.5289],[36.5698,36.5261],[36.5669,36.5211],[36.5442,36.5018],[36.5467,36.5006],[36.5458,36.497],[36.5481,36.4974],[36.5492,36.4891],[36.5437,36.4846],[36.5451,36.481],[36.5507,36.4799],[36.554,36.4763],[36.5554,36.4738],[36.5533,36.4675],[36.562,36.4637],[36.5583,36.4588],[36.5593,36.4573],[36.5575,36.4545],[36.559,36.4534],[36.5562,36.452],[36.5576,36.4505],[36.5554,36.4476],[36.5551,36.4434],[36.5594,36.4397],[36.5616,36.4389],[36.565,36.4403],[36.5666,36.4382],[36.5638,36.4274],[36.5665,36.4193],[36.5717,36.4197],[36.5752,36.4167],[36.5806,36.4073],[36.5863,36.3919],[36.6074,36.3933],[36.6049,36.3889],[36.6061,36.3798],[36.605,36.3762],[36.6023,36.373],[36.5968,36.3725],[36.5994,36.3685],[36.6184,36.3575],[36.6116,36.3525],[36.599,36.3495],[36.6027,36.332],[36.6055,36.3268],[36.6042,36.3252],[36.6072,36.3256],[36.6052,36.3323],[36.6086,36.3324],[36.6092,36.3362],[36.6128,36.3372],[36.6188,36.3343],[36.6242,36.3385],[36.6264,36.3372],[36.6275,36.3389],[36.626,36.343],[36.6298,36.3451],[36.6374,36.3419],[36.6418,36.3358],[36.6521,36.3389],[36.6574,36.3388],[36.6597,36.334],[36.6645,36.3298],[36.6645,36.3259],[36.6764,36.324],[36.6982,36.3236],[36.7066,36.3206],[36.752,36.3193],[36.7447,36.3399],[36.7623,36.3429],[36.7713,36.3351],[36.7753,36.3172],[36.7755,36.3053],[36.7786,36.2989],[36.8056,36.2828],[36.8275,36.2553],[36.84,36.2467],[36.8436,36.2406],[36.8442,36.2328],[36.8364,36.2197],[36.8258,36.2097],[36.7994,36.2122],[36.7811,36.2055],[36.7715,36.1942],[36.7679,36.1943],[36.7661,36.1917],[36.7735,36.1857],[36.7714,36.1796],[36.7607,36.1635],[36.7559,36.1613],[36.7398,36.1627],[36.7345,36.1583],[36.7114,36.1493],[36.7033,36.14],[36.7041,36.1372],[36.7081,36.1364],[36.7144,36.1272],[36.725,36.119],[36.7361,36.1161],[36.7478,36.1072],[36.7497,36.1],[36.7494,36.0917],[36.755,36.0869],[36.7831,36.0717],[36.8442,36.0528],[36.8725,36.0392],[36.872,36.0326],[36.8641,36.0204],[36.8625,36.0108],[36.8547,35.9934],[36.8638,35.9794],[36.8676,35.9538],[36.8805,35.9352],[36.8988,35.9409],[36.9147,35.9048],[36.9403,35.9065],[36.9461,35.9003],[36.9475,35.8969],[36.943,35.8846],[36.9469,35.8813],[36.9589,35.8794],[36.9664,35.8719],[36.9692,35.8531],[36.9708,35.8503],[36.9869,35.8397],[36.9732,35.8177],[36.9789,35.8078],[37.0073,35.825],[37.0242,35.8224],[37.031,35.8412],[37.0555,35.8339],[37.0674,35.837],[37.0719,35.8355],[37.0668,35.8285],[37.0791,35.8193],[37.0983,35.8355],[37.1179,35.8334],[37.1126,35.8109],[37.144,35.8068],[37.1412,35.782],[37.1218,35.7865],[37.1039,35.7662],[37.1205,35.756],[37.0977,35.7421],[37.0753,35.741],[37.0755,35.7287],[37.1189,35.7268],[37.1077,35.7079],[37.0875,35.6989],[37.0806,35.6906],[37.081,35.6858],[37.0992,35.681],[37.1037,35.6774],[37.1208,35.6728],[37.1141,35.6598],[37.1303,35.6534],[37.124,35.6403],[37.128,35.6295],[37.1423,35.6235],[37.1162,35.6047],[37.1189,35.6006],[37.1098,35.5926],[37.1123,35.5916],[37.1261,35.5928],[37.1514,35.5842],[37.1578,35.5797],[37.1672,35.5692],[37.1813,35.5591],[37.1839,35.5633],[37.2132,35.5674],[37.2152,35.5634],[37.2125,35.5525],[37.2163,35.5513],[37.22,35.5528],[37.2221,35.5658],[37.2347,35.5677],[37.2411,35.5619],[37.2464,35.5478],[37.2511,35.5405],[37.2613,35.5377],[37.27,35.5402],[37.284,35.5397],[37.2848,35.5464],[37.3018,35.5551],[37.3046,35.5465],[37.3255,35.5486],[37.3239,35.5344],[37.3149,35.531],[37.3264,35.5232],[37.3287,35.5189],[37.3364,35.5229],[37.3473,35.5141],[37.3694,35.5221],[37.3865,35.5156],[37.3856,35.5378],[37.3841,35.5431],[37.4187,35.5625],[37.4318,35.5592],[37.4434,35.5555],[37.4849,35.5267],[37.4964,35.5062],[37.5011,35.482],[37.4991,35.4767],[37.6001,35.4685],[37.7328,35.471],[37.7327,35.4871],[37.7851,35.4872],[37.8098,35.4479],[37.9209,35.4391],[37.9538,35.444],[38.0681,35.415],[38.2131,35.3838],[38.2322,35.4345],[38.2728,35.4682],[38.2922,35.5046],[38.3172,35.5345],[38.3186,35.5699],[38.2228,35.6054],[38.2228,35.6171],[38.205,35.6517],[38.207,35.7153],[38.1646,35.7266],[38.1799,35.7855],[38.1507,35.7967],[38.1765,35.8359],[38.1493,35.8392],[38.1414,35.8317],[38.1243,35.8379],[38.1284,35.8554],[38.1377,35.8718],[38.1428,35.8849],[38.1425,35.8969],[38.1597,35.9108],[38.1639,35.9172],[38.1728,35.94],[38.1817,35.9525],[38.1828,35.9583],[38.1817,35.9683],[38.1378,35.9972],[38.1317,36.0033],[38.1225,36.0189],[38.1086,36.0328],[38.0792,36.055],[38.0639,36.0733],[38.0614,36.0814],[38.0572,36.1105],[38.0572,36.1192],[38.0608,36.1408],[38.065,36.1478],[38.0886,36.175],[38.1237,36.2441],[38.1565,36.2553],[38.1708,36.2561],[38.1856,36.26],[38.1919,36.264],[38.2036,36.277],[38.2039,36.3049],[38.2747,36.2944],[38.3123,36.2805],[38.3273,36.2817],[38.3372,36.2698],[38.3443,36.2685],[38.3493,36.2633],[38.3501,36.2585],[38.3435,36.2442],[38.3354,36.2431],[38.3311,36.2291],[38.35,36.2052],[38.3624,36.2001],[38.377,36.1757],[38.3742,36.1637],[38.3797,36.1591],[38.4062,36.1544],[38.4351,36.1607],[38.4426,36.1947],[38.4225,36.2124],[38.4202,36.2203],[38.4129,36.2318],[38.4779,36.2387],[38.5055,36.2353],[38.5097,36.2041],[38.5234,36.2045]],[[38.1055,36.8798],[38.1055,36.8798],[38.1057,36.8799],[38.1057,36.8798],[38.1058,36.8798],[38.1058,36.8798],[38.1058,36.8797],[38.1058,36.8797],[38.1058,36.8797],[38.1059,36.8793],[38.1059,36.8793],[38.1059,36.8792],[38.1059,36.8791],[38.1059,36.879],[38.1057,36.879],[38.1057,36.8791],[38.1057,36.8792],[38.1057,36.8793],[38.1057,36.8793],[38.1057,36.8796],[38.1054,36.8796],[38.1053,36.8798],[38.1055,36.8798]]]},"properties":{"province_name":"Aleppo"}},{"type":"Feature","geometry":{"type":"Polygon","coordinates":[[[36.3899,35.7175],[36.3853,35.7166],[36.3895,35.7081],[36.3796,35.7046],[36.372,35.7155],[36.3544,35.7153],[36.35,35.7167],[36.3469,35.7189],[36.3403,35.7394],[36.3362,35.7442],[36.34,35.7484],[36.3214,35.7615],[36.3152,35.7595],[36.3155,35.7462],[36.3133,35.7453],[36.296,35.7503],[36.2956,35.7372],[36.2808,35.7375],[36.2686,35.7419],[36.2617,35.7458],[36.2542,35.7536],[36.2202,35.7564],[36.234,35.7357],[36.2552,35.7154],[36.2512,35.7124],[36.2449,35.7182],[36.2411,35.7152],[36.244,35.7059],[36.2395,35.7043],[36.2383,35.6983],[36.2416,35.6924],[36.2348,35.6816],[36.2335,35.6823],[36.2361,35.6861],[36.2309,35.687],[36.2308,35.6918],[36.2278,35.6944],[36.226,35.6931],[36.2294,35.6866],[36.2287,35.6854],[36.2202,35.6814],[36.2116,35.6833],[36.2042,35.6932],[36.1966,35.687],[36.2061,35.6758],[36.2006,35.6697],[36.2131,35.6569],[36.2051,35.6538],[36.211,35.6477],[36.2189,35.6474],[36.2201,35.6405],[36.2163,35.6303],[36.2126,35.6301],[36.2177,35.5972],[36.2186,35.5699],[36.2213,35.5472],[36.2208,35.5375],[36.2073,35.4629],[36.2025,35.4467],[36.2006,35.4289],[36.2025,35.4175],[36.2119,35.3903],[36.2245,35.3695],[36.2237,35.3559],[36.2253,35.3453],[36.2297,35.3357],[36.2309,35.3281],[36.2385,35.3062],[36.2366,35.2869],[36.2217,35.2722],[36.2255,35.2595],[36.2289,35.257],[36.2515,35.2635],[36.2561,35.2477],[36.2478,35.2356],[36.2545,35.2009],[36.2539,35.1861],[36.2575,35.1553],[36.2583,35.1272],[36.2631,35.1014],[36.2705,35.0904],[36.2707,35.0839],[36.2699,35.0817],[36.2637,35.08],[36.2624,35.0778],[36.2626,35.0731],[36.2655,35.0705],[36.2664,35.0663],[36.2564,35.0425],[36.2373,35.0309],[36.2337,35.0245],[36.2301,35.0229],[36.2105,35.0219],[36.2057,35.0169],[36.1875,35.0144],[36.1753,35.0064],[36.1711,35.0056],[36.1544,35.0078],[36.1504,35.004],[36.145,34.9863],[36.1343,34.9831],[36.1364,34.9755],[36.1439,34.9753],[36.1477,34.979],[36.1541,34.9801],[36.1641,34.9801],[36.1797,34.9722],[36.1983,34.9713],[36.2086,34.9728],[36.2335,34.9725],[36.2389,34.9709],[36.2517,34.9733],[36.2565,34.9723],[36.2674,34.9591],[36.2719,34.9444],[36.2704,34.9379],[36.273,34.9279],[36.2698,34.9222],[36.2715,34.9209],[36.2788,34.9227],[36.2945,34.9208],[36.3012,34.9232],[36.304,34.9206],[36.3009,34.9175],[36.3047,34.9129],[36.305,34.9078],[36.3192,34.8969],[36.3176,34.8915],[36.3198,34.8907],[36.3224,34.8927],[36.3233,34.8916],[36.3221,34.8867],[36.3234,34.8836],[36.3272,34.887],[36.3291,34.8829],[36.3247,34.88],[36.3304,34.8643],[36.3369,34.8648],[36.3408,34.8541],[36.3451,34.8531],[36.3494,34.8555],[36.3611,34.8689],[36.3675,34.8725],[36.3722,34.873],[36.3792,34.8697],[36.3825,34.8633],[36.3909,34.8573],[36.4019,34.8604],[36.4121,34.8662],[36.4165,34.873],[36.4237,34.8912],[36.4244,34.8968],[36.4395,34.8975],[36.4505,34.8897],[36.4489,34.9039],[36.453,34.9144],[36.4594,34.9205],[36.4753,34.928],[36.4869,34.948],[36.4989,34.9544],[36.5086,34.955],[36.5211,34.9492],[36.5228,34.9461],[36.5225,34.9417],[36.5155,34.9336],[36.5139,34.9303],[36.5142,34.9258],[36.5175,34.9242],[36.5272,34.9239],[36.5328,34.9214],[36.5344,34.9183],[36.535,34.9075],[36.5386,34.9036],[36.5442,34.9014],[36.5519,34.9011],[36.5619,34.9022],[36.5897,34.9158],[36.5969,34.9167],[36.618,34.9092],[36.6489,34.9125],[36.6708,34.9255],[36.6792,34.9272],[36.6958,34.9342],[36.7153,34.9361],[36.7236,34.9408],[36.7294,34.9475],[36.7333,34.9489],[36.7375,34.9486],[36.7444,34.945],[36.7492,34.9455],[36.7536,34.9492],[36.7578,34.9503],[36.7686,34.9483],[36.795,34.9486],[36.8025,34.9517],[36.8153,34.9636],[36.8264,34.9658],[36.8414,34.965],[36.8536,34.9705],[36.8644,34.9778],[36.878,34.978],[36.8928,34.9755],[36.9106,34.9776],[36.922,34.9753],[36.941,34.9564],[36.9545,34.9256],[36.9577,34.9234],[36.9591,34.9199],[36.9559,34.9114],[36.957,34.9077],[36.9642,34.8968],[36.9711,34.892],[36.9721,34.8821],[36.9708,34.8811],[36.978,34.8546],[37.0051,34.8584],[37.0262,34.8718],[37.0451,34.8878],[37.0649,34.8858],[37.0689,34.897],[37.0706,34.8974],[37.0706,34.9043],[37.112,34.9023],[37.1107,34.91],[37.1146,34.9197],[37.1307,34.9248],[37.1492,34.9245],[37.1531,34.9169],[37.1583,34.9151],[37.1634,34.9093],[37.1734,34.912],[37.1672,34.9239],[37.1806,34.9434],[37.1913,34.9449],[37.2079,34.9394],[37.2158,34.9455],[37.2248,34.9371],[37.2278,34.9364],[37.2311,34.9308],[37.2335,34.9207],[37.2368,34.916],[37.2434,34.9161],[37.2489,34.9075],[37.2533,34.9068],[37.2566,34.9044],[37.2692,34.9075],[37.2907,34.9191],[37.2885,34.9258],[37.293,34.9272],[37.2896,34.9351],[37.2855,34.9383],[37.2906,34.9432],[37.3076,34.9469],[37.3044,34.9509],[37.3028,34.9591],[37.3108,34.9657],[37.3344,34.9663],[37.342,34.9626],[37.3486,34.9615],[37.3483,34.9629],[37.351,34.9636],[37.3503,34.971],[37.3521,34.9734],[37.3521,34.9842],[37.3619,34.9834],[37.3712,34.9708],[37.3737,34.9704],[37.395,34.9734],[37.4032,34.9728],[37.4081,34.9806],[37.4196,34.9835],[37.4325,34.9805],[37.4389,34.9814],[37.4712,34.9797],[37.4889,34.976],[37.4935,34.9729],[37.4981,34.9605],[37.5147,34.9626],[37.4964,35.0178],[37.4992,35.0355],[37.5039,35.0455],[37.5119,35.0528],[37.5369,35.0642],[37.565,35.0825],[37.5741,35.0867],[37.5894,35.0861],[37.6047,35.0883],[37.6542,35.1028],[37.6861,35.108],[37.7061,35.1147],[37.7386,35.1189],[37.7436,35.1183],[37.7525,35.1142],[37.7711,35.0972],[37.778,35.0939],[37.7875,35.0922],[37.8025,35.0925],[37.8122,35.0911],[37.8172,35.0883],[37.8267,35.0778],[37.8311,35.068],[37.84,35.0594],[37.8458,35.0414],[37.8469,35.0289],[37.8514,35.0122],[37.8639,35.0019],[37.8975,34.9814],[37.93,34.9578],[37.9447,34.9403],[37.9592,34.9269],[37.9805,34.9014],[37.9836,34.8989],[37.9903,34.8978],[38.0014,34.9022],[38.0208,34.9205],[38.0297,34.9386],[38.0303,34.9597],[38.0422,34.9805],[38.0505,34.9897],[38.0528,35.0042],[38.0769,35.0255],[38.093,35.035],[38.1733,35.0661],[38.2286,35.0817],[38.2428,35.0878],[38.243,35.0961],[38.2372,35.1292],[38.2375,35.1375],[38.2417,35.1547],[38.2503,35.1722],[38.2764,35.2033],[38.2825,35.2128],[38.295,35.2369],[38.2989,35.2489],[38.3022,35.2714],[38.3036,35.3128],[38.3017,35.348],[38.303,35.3692],[38.3013,35.3822],[38.2131,35.3838],[38.0681,35.415],[37.9538,35.444],[37.9209,35.4391],[37.8098,35.4479],[37.7851,35.4872],[37.7327,35.4871],[37.7328,35.471],[37.6001,35.4685],[37.4991,35.4767],[37.5011,35.482],[37.4964,35.5062],[37.4849,35.5267],[37.4434,35.5555],[37.4187,35.5625],[37.3841,35.5431],[37.3856,35.5378],[37.3865,35.5156],[37.3694,35.5221],[37.3473,35.5141],[37.3364,35.5229],[37.3287,35.5189],[37.3264,35.5232],[37.3149,35.531],[37.3239,35.5344],[37.3255,35.5486],[37.3046,35.5465],[37.3018,35.5551],[37.2848,35.5464],[37.284,35.5397],[37.27,35.5402],[37.2613,35.5377],[37.2511,35.5405],[37.2464,35.5478],[37.2411,35.5619],[37.2347,35.5677],[37.2221,35.5658],[37.22,35.5528],[37.2008,35.5467],[37.1944,35.5428],[37.1922,35.5397],[37.1908,35.5305],[37.1844,35.5234],[37.1685,35.5212],[37.1725,35.5075],[37.1587,35.479],[37.143,35.4657],[37.1218,35.4735],[37.117,35.4787],[37.1045,35.4752],[37.1012,35.4651],[37.1031,35.4607],[37.1029,35.4535],[37.1063,35.4488],[37.1043,35.4358],[37.0891,35.4266],[37.0797,35.4179],[37.0527,35.4174],[37.0386,35.4152],[37.0361,35.4159],[37.0347,35.4188],[37.024,35.4176],[37.0155,35.4197],[37.0119,35.4276],[37.0056,35.4348],[37.0026,35.4352],[37.0007,35.4317],[37.0018,35.4241],[36.9901,35.4207],[36.984,35.4166],[36.9636,35.4086],[36.9564,35.4014],[36.9531,35.3946],[36.9535,35.3898],[36.9479,35.3868],[36.9292,35.39],[36.9195,35.3892],[36.9175,35.3841],[36.8989,35.3775],[36.8743,35.377],[36.8744,35.3813],[36.876,35.3814],[36.8769,35.3933],[36.8429,35.4103],[36.842,35.413],[36.8348,35.4177],[36.8312,35.426],[36.8274,35.4266],[36.8086,35.4259],[36.7934,35.4188],[36.7915,35.4147],[36.7891,35.4136],[36.7447,35.409],[36.744,35.4078],[36.6772,35.3991],[36.6782,35.394],[36.6496,35.3901],[36.6501,35.3851],[36.638,35.3827],[36.6367,35.4043],[36.6238,35.4062],[36.5861,35.4058],[36.5708,35.4081],[36.5522,35.4064],[36.5287,35.4092],[36.523,35.4197],[36.527,35.4284],[36.5254,35.4341],[36.5036,35.4403],[36.5032,35.4557],[36.474,35.4621],[36.4746,35.4762],[36.4584,35.4781],[36.461,35.5049],[36.4535,35.5066],[36.4265,35.5311],[36.3975,35.5363],[36.3992,35.5589],[36.3961,35.5647],[36.3987,35.5717],[36.4014,35.6014],[36.3958,35.6139],[36.3993,35.6651],[36.3864,35.665],[36.3863,35.672],[36.4092,35.6744],[36.4142,35.6842],[36.4156,35.6975],[36.4146,35.7033],[36.3899,35.7175]]]},"properties":{"province_name":"Hamah"}},{"type":"Feature","geometry":{"type":"Polygon","coordinates":[[[36.5764,36.2314],[36.5625,36.2365],[36.5602,36.2342],[36.5617,36.2307],[36.5537,36.224],[36.543,36.2332],[36.5343,36.2442],[36.5262,36.242],[36.5194,36.2429],[36.5118,36.2424],[36.5078,36.2404],[36.5036,36.2414],[36.5008,36.2307],[36.5034,36.2262],[36.4997,36.2235],[36.4925,36.2267],[36.4912,36.23],[36.4831,36.2328],[36.4863,36.2254],[36.4844,36.2234],[36.4863,36.2185],[36.4763,36.2143],[36.4763,36.2124],[36.4721,36.2079],[36.4735,36.2017],[36.47,36.2009],[36.4699,36.1988],[36.465,36.1966],[36.4653,36.198],[36.4606,36.1989],[36.4558,36.2025],[36.4568,36.2077],[36.4459,36.2061],[36.4288,36.2074],[36.395,36.2252],[36.3893,36.2183],[36.3813,36.2165],[36.3835,36.213],[36.3863,36.2155],[36.3898,36.2151],[36.3909,36.2124],[36.3877,36.2094],[36.3877,36.2069],[36.3894,36.2069],[36.3905,36.2103],[36.3919,36.2105],[36.3969,36.2023],[36.3923,36.2042],[36.3907,36.1969],[36.3949,36.195],[36.3933,36.1981],[36.396,36.1996],[36.3954,36.1965],[36.4002,36.1927],[36.3987,36.1903],[36.3982,36.1922],[36.3966,36.1923],[36.3959,36.1879],[36.389,36.1877],[36.3871,36.1834],[36.3823,36.1853],[36.387,36.1874],[36.3871,36.1888],[36.3847,36.1893],[36.3808,36.188],[36.3805,36.1828],[36.3775,36.184],[36.3724,36.1784],[36.3681,36.1798],[36.3678,36.1779],[36.3741,36.1726],[36.3742,36.1709],[36.3729,36.1698],[36.3702,36.1714],[36.3693,36.1687],[36.3653,36.167],[36.3689,36.1659],[36.3675,36.1594],[36.3805,36.1552],[36.3801,36.1531],[36.3761,36.1528],[36.3785,36.1475],[36.3834,36.1493],[36.3889,36.146],[36.3885,36.1439],[36.3858,36.1436],[36.3879,36.1409],[36.3843,36.1402],[36.3823,36.1351],[36.3822,36.1322],[36.384,36.1307],[36.3806,36.131],[36.3748,36.1284],[36.3778,36.1253],[36.3737,36.1246],[36.3715,36.1223],[36.3774,36.1225],[36.3797,36.1158],[36.3757,36.1187],[36.3703,36.1168],[36.3744,36.1143],[36.3749,36.1094],[36.3794,36.1108],[36.3814,36.1088],[36.3812,36.1065],[36.3753,36.1059],[36.3752,36.1029],[36.3792,36.102],[36.3811,36.1052],[36.3857,36.1026],[36.3864,36.0963],[36.3853,36.0945],[36.3808,36.0994],[36.3766,36.0989],[36.3781,36.0944],[36.3901,36.082],[36.3887,36.0785],[36.386,36.0776],[36.3866,36.0748],[36.3816,36.0751],[36.3785,36.072],[36.381,36.0655],[36.379,36.0626],[36.381,36.0587],[36.3788,36.0566],[36.3871,36.0524],[36.3861,36.0495],[36.3833,36.0506],[36.3788,36.0486],[36.3797,36.0447],[36.3873,36.0435],[36.3899,36.0409],[36.3802,36.0377],[36.3805,36.0344],[36.3773,36.0318],[36.3797,36.0292],[36.3715,36.0248],[36.3735,36.0228],[36.3696,36.0196],[36.3758,36.0192],[36.3766,36.0174],[36.374,36.0143],[36.3762,36.0116],[36.3665,36.0017],[36.3453,35.9896],[36.3395,35.9882],[36.3319,35.9896],[36.32,36.0006],[36.3066,36.0043],[36.3066,36.0063],[36.3029,36.0064],[36.3005,36.0085],[36.2979,36.0071],[36.2907,36.0083],[36.2915,36.0055],[36.2866,36.0034],[36.286,36.0019],[36.2882,35.9993],[36.2855,35.9975],[36.2873,35.9943],[36.2862,35.9932],[36.2882,35.9922],[36.2881,35.9904],[36.2863,35.9901],[36.2902,35.9753],[36.2959,35.97],[36.2994,35.9638],[36.2948,35.9547],[36.288,35.9522],[36.2884,35.9505],[36.2785,35.9494],[36.2754,35.9467],[36.2699,35.9487],[36.2607,35.9611],[36.2548,35.9627],[36.2493,35.962],[36.2435,35.96],[36.244,35.9536],[36.242,35.9544],[36.2412,35.9528],[36.2409,35.9553],[36.2374,35.955],[36.2367,35.9565],[36.2329,35.9533],[36.2293,35.9564],[36.2256,35.9521],[36.2194,35.9517],[36.2176,35.95],[36.217,35.953],[36.2145,35.9513],[36.2075,35.9519],[36.2047,35.9496],[36.1986,35.9485],[36.1868,35.9389],[36.1843,35.934],[36.1813,35.9323],[36.1803,35.9255],[36.1759,35.921],[36.1742,35.9111],[36.1743,35.8933],[36.1709,35.888],[36.1722,35.888],[36.1713,35.8853],[36.1687,35.8829],[36.1729,35.8792],[36.1759,35.8682],[36.1718,35.8499],[36.1763,35.8468],[36.173,35.8401],[36.1742,35.8357],[36.1723,35.8298],[36.1732,35.8267],[36.1692,35.8261],[36.1664,35.8234],[36.1653,35.8183],[36.1667,35.8167],[36.1664,35.8126],[36.1581,35.81],[36.1525,35.8059],[36.1498,35.8087],[36.1492,35.7978],[36.1534,35.7879],[36.1617,35.7867],[36.1957,35.7667],[36.2045,35.7559],[36.2202,35.7564],[36.2542,35.7536],[36.2617,35.7458],[36.2808,35.7375],[36.2956,35.7372],[36.296,35.7503],[36.3133,35.7453],[36.3155,35.7462],[36.3152,35.7595],[36.3214,35.7615],[36.34,35.7484],[36.3362,35.7442],[36.3403,35.7394],[36.3469,35.7189],[36.35,35.7167],[36.3544,35.7153],[36.372,35.7155],[36.3796,35.7046],[36.3895,35.7081],[36.3853,35.7166],[36.3899,35.7175],[36.4146,35.7033],[36.4156,35.6975],[36.4142,35.6842],[36.4092,35.6744],[36.3863,35.672],[36.3864,35.665],[36.3993,35.6651],[36.3958,35.6139],[36.4014,35.6014],[36.3987,35.5717],[36.3961,35.5647],[36.3992,35.5589],[36.3975,35.5363],[36.4265,35.5311],[36.4535,35.5066],[36.461,35.5049],[36.4584,35.4781],[36.4746,35.4762],[36.474,35.4621],[36.5032,35.4557],[36.5036,35.4403],[36.5254,35.4341],[36.527,35.4284],[36.523,35.4197],[36.5287,35.4092],[36.5522,35.4064],[36.5708,35.4081],[36.5861,35.4058],[36.6238,35.4062],[36.6367,35.4043],[36.638,35.3827],[36.6501,35.3851],[36.6496,35.3901],[36.6782,35.394],[36.6772,35.3991],[36.744,35.4078],[36.7447,35.409],[36.7891,35.4136],[36.7915,35.4147],[36.7934,35.4188],[36.8086,35.4259],[36.8274,35.4266],[36.8312,35.426],[36.8348,35.4177],[36.842,35.413],[36.8429,35.4103],[36.8769,35.3933],[36.876,35.3814],[36.8744,35.3813],[36.8743,35.377],[36.8895,35.3768],[36.8989,35.3775],[36.9175,35.3841],[36.9195,35.3892],[36.9292,35.39],[36.9479,35.3868],[36.9535,35.3898],[36.9531,35.3946],[36.9564,35.4014],[36.9636,35.4086],[36.984,35.4166],[36.9901,35.4207],[37.0018,35.4241],[37.0007,35.4317],[37.0026,35.4352],[37.0056,35.4348],[37.0119,35.4276],[37.0155,35.4197],[37.024,35.4176],[37.0347,35.4188],[37.0361,35.4159],[37.0386,35.4152],[37.0527,35.4174],[37.0797,35.4179],[37.0891,35.4266],[37.1043,35.4358],[37.1063,35.4488],[37.1029,35.4535],[37.1031,35.4607],[37.1012,35.4651],[37.1045,35.4752],[37.117,35.4787],[37.1218,35.4735],[37.143,35.4657],[37.1587,35.479],[37.1725,35.5075],[37.1685,35.5212],[37.1844,35.5234],[37.1908,35.5305],[37.1922,35.5397],[37.1944,35.5428],[37.2008,35.5467],[37.2163,35.5513],[37.2125,35.5525],[37.2152,35.5634],[37.2132,35.5674],[37.1839,35.5633],[37.1813,35.5591],[37.1672,35.5692],[37.1578,35.5797],[37.1514,35.5842],[37.1261,35.5928],[37.1123,35.5916],[37.1098,35.5926],[37.1189,35.6006],[37.1162,35.6047],[37.1423,35.6235],[37.128,35.6295],[37.124,35.6403],[37.1303,35.6534],[37.1141,35.6598],[37.1208,35.6728],[37.1037,35.6774],[37.0992,35.681],[37.081,35.6858],[37.0806,35.6906],[37.0875,35.6989],[37.1077,35.7079],[37.1189,35.7268],[37.0755,35.7287],[37.0753,35.741],[37.0977,35.7421],[37.1205,35.756],[37.1039,35.7662],[37.1218,35.7865],[37.1412,35.782],[37.144,35.8068],[37.1126,35.8109],[37.1179,35.8334],[37.0983,35.8355],[37.0791,35.8193],[37.0668,35.8285],[37.0719,35.8355],[37.0674,35.837],[37.0555,35.8339],[37.031,35.8412],[37.0242,35.8224],[37.0073,35.825],[36.9789,35.8078],[36.9732,35.8177],[36.9869,35.8397],[36.9708,35.8503],[36.9692,35.8531],[36.9664,35.8719],[36.9589,35.8794],[36.9469,35.8813],[36.943,35.8846],[36.9475,35.8969],[36.9461,35.9003],[36.9403,35.9065],[36.9147,35.9048],[36.8988,35.9409],[36.8805,35.9352],[36.8676,35.9538],[36.8638,35.9794],[36.8547,35.9934],[36.8625,36.0108],[36.8641,36.0204],[36.872,36.0326],[36.8725,36.0392],[36.8442,36.0528],[36.7831,36.0717],[36.755,36.0869],[36.7494,36.0917],[36.7497,36.1],[36.7478,36.1072],[36.7361,36.1161],[36.725,36.119],[36.7144,36.1272],[36.7081,36.1364],[36.7041,36.1372],[36.7033,36.14],[36.7114,36.1493],[36.7345,36.1583],[36.7398,36.1627],[36.7559,36.1613],[36.7607,36.1635],[36.7714,36.1796],[36.7735,36.1857],[36.7661,36.1917],[36.7679,36.1943],[36.7715,36.1942],[36.7811,36.2055],[36.7994,36.2122],[36.8258,36.2097],[36.8364,36.2197],[36.8442,36.2328],[36.8436,36.2406],[36.84,36.2467],[36.8275,36.2553],[36.8056,36.2828],[36.7786,36.2989],[36.7755,36.3053],[36.7753,36.3172],[36.7713,36.3351],[36.7623,36.3429],[36.7447,36.3399],[36.752,36.3193],[36.7066,36.3206],[36.6982,36.3236],[36.6764,36.324],[36.6645,36.3259],[36.6619,36.3251],[36.6522,36.314],[36.6543,36.2969],[36.6698,36.2966],[36.6843,36.2924],[36.6921,36.2926],[36.6924,36.2904],[36.6889,36.2894],[36.681,36.2787],[36.6782,36.2771],[36.6808,36.2756],[36.6809,36.2712],[36.6869,36.2666],[36.6897,36.2621],[36.6971,36.2572],[36.6981,36.2532],[36.7014,36.2524],[36.6981,36.2511],[36.7044,36.2482],[36.7042,36.2433],[36.6941,36.2406],[36.6951,36.2393],[36.6833,36.238],[36.6811,36.2331],[36.6769,36.2317],[36.6731,36.2355],[36.6662,36.2347],[36.6656,36.232],[36.6672,36.2289],[36.6624,36.227],[36.6463,36.2335],[36.6413,36.2332],[36.64,36.2317],[36.6421,36.2297],[36.6392,36.229],[36.6276,36.2312],[36.6259,36.225],[36.6287,36.224],[36.6276,36.221],[36.6286,36.2191],[36.6256,36.217],[36.6248,36.2144],[36.6028,36.2202],[36.6014,36.2209],[36.6022,36.222],[36.5902,36.2268],[36.5826,36.2263],[36.5764,36.2314]]]},"properties":{"province_name":"Idlib"}},{"type":"Feature","geometry":{"type":"Polygon","coordinates":[[[36.3487,33.5195],[36.3505,33.5209],[36.3498,33.525],[36.3482,33.5268],[36.3437,33.5257],[36.3531,33.5456],[36.3559,33.5567],[36.3362,33.5589],[36.3344,33.5648],[36.3305,33.5633],[36.3304,33.5651],[36.3252,33.5641],[36.327,33.5671],[36.3236,33.5693],[36.3208,33.568],[36.3227,33.571],[36.3214,33.5718],[36.3141,33.5702],[36.3158,33.569],[36.3137,33.5674],[36.3152,33.5651],[36.2873,33.564],[36.2837,33.5624],[36.2804,33.5636],[36.2738,33.5559],[36.2699,33.5579],[36.2315,33.5419],[36.2308,33.5445],[36.2277,33.5464],[36.2253,33.5446],[36.2232,33.5451],[36.2226,33.5396],[36.2149,33.5369],[36.2124,33.5393],[36.209,33.535],[36.204,33.5339],[36.2028,33.5306],[36.2049,33.5296],[36.1971,33.5251],[36.1992,33.5146],[36.2087,33.516],[36.2102,33.4859],[36.2051,33.4856],[36.2097,33.479],[36.2059,33.4732],[36.207,33.4693],[36.2188,33.4724],[36.2223,33.4683],[36.2263,33.47],[36.2252,33.4719],[36.2299,33.4716],[36.2323,33.4733],[36.2318,33.4744],[36.238,33.4757],[36.238,33.4783],[36.2433,33.48],[36.2471,33.4761],[36.2663,33.4685],[36.272,33.47],[36.2789,33.4758],[36.2801,33.474],[36.2775,33.4652],[36.2802,33.462],[36.2832,33.4612],[36.2828,33.4586],[36.2974,33.4624],[36.2991,33.4613],[36.296,33.4651],[36.2984,33.4681],[36.3032,33.4674],[36.3037,33.4647],[36.3071,33.4652],[36.3106,33.4614],[36.3137,33.4619],[36.3154,33.4704],[36.3137,33.4716],[36.3187,33.4693],[36.3174,33.4737],[36.3214,33.474],[36.3218,33.4779],[36.3157,33.4783],[36.3145,33.4806],[36.3173,33.4808],[36.3175,33.4845],[36.3251,33.4858],[36.3238,33.49],[36.3274,33.489],[36.328,33.4933],[36.3402,33.5185],[36.3487,33.5195]]]},"properties":{"province_name":"Damascus"}},{"type":"Feature","geometry":{"type":"MultiPolygon","coordinates":[[[[35.8865,34.7828],[35.8865,34.783],[35.8865,34.7831],[35.8865,34.7832],[35.8864,34.7832],[35.8863,34.7833],[35.8863,34.7833],[35.8862,34.7834],[35.8861,34.7834],[35.886,34.7833],[35.886,34.7833],[35.8859,34.7832],[35.8859,34.7831],[35.8859,34.783],[35.8859,34.7829],[35.8859,34.7828],[35.886,34.7828],[35.8861,34.7827],[35.8862,34.7827],[35.8864,34.7827],[35.8864,34.7828],[35.8865,34.7828]]],[[[35.8864,34.7846],[35.8865,34.7847],[35.8865,34.7848],[35.8865,34.7848],[35.8865,34.7849],[35.8865,34.785],[35.8864,34.785],[35.8863,34.7851],[35.8862,34.7851],[35.8861,34.7851],[35.886,34.785],[35.886,34.785],[35.886,34.7849],[35.8861,34.7848],[35.8861,34.7847],[35.8862,34.7846],[35.8863,34.7846],[35.8864,34.7846]]],[[[35.8825,34.794],[35.8825,34.794],[35.8826,34.794],[35.8827,34.794],[35.8827,34.794],[35.8827,34.7941],[35.8827,34.7941],[35.8827,34.7941],[35.8827,34.7941],[35.8828,34.7942],[35.8828,34.7942],[35.8828,34.7943],[35.8828,34.7943],[35.8828,34.7943],[35.8828,34.7943],[35.8828,34.7943],[35.8828,34.7944],[35.8828,34.7944],[35.8828,34.7944],[35.8827,34.7944],[35.8826,34.7944],[35.8825,34.7944],[35.8824,34.7944],[35.8824,34.7944],[35.8823,34.7944],[35.8823,34.7944],[35.8822,34.7944],[35.8822,34.7944],[35.8821,34.7943],[35.8821,34.7942],[35.8821,34.7942],[35.8822,34.7941],[35.8823,34.794],[35.8824,34.794],[35.8825,34.794]]],[[[35.8821,34.7947],[35.8821,34.7947],[35.8821,34.7947],[35.882,34.7948],[35.882,34.7948],[35.8819,34.7947],[35.8819,34.7947],[35.8819,34.7947],[35.8819,34.7947],[35.8819,34.7947],[35.882,34.7946],[35.882,34.7946],[35.882,34.7946],[35.8821,34.7946],[35.8821,34.7946],[35.8821,34.7946],[35.8821,34.7946],[35.8821,34.7947],[35.8821,34.7947],[35.8821,34.7947]]],[[[35.8725,34.8225],[35.8727,34.8243],[35.8725,34.8225]]],[[[35.856,34.8583],[35.856,34.8583],[35.856,34.8584],[35.8561,34.8585],[35.8561,34.8585],[35.8561,34.8585],[35.8562,34.8586],[35.8561,34.8586],[35.856,34.8586],[35.8559,34.8586],[35.8559,34.8585],[35.8558,34.8585],[35.8557,34.8584],[35.8557,34.8584],[35.8558,34.8583],[35.8559,34.8583],[35.856,34.8583]]],[[[35.8562,34.8585],[35.8571,34.8542],[35.8621,34.8544],[35.861,34.8583],[35.8562,34.8585]]],[[[35.8699,34.9827],[35.869,34.9834],[35.8699,34.9827]]],[[[35.8907,34.9985],[35.8781,34.9892],[35.8786,34.9823],[35.8763,34.9696],[35.8728,34.9679],[35.8762,34.9685],[35.8761,34.967],[35.8751,34.9654],[35.8735,34.9659],[35.8715,34.9686],[35.8719,34.9663],[35.8745,34.9654],[35.8731,34.9652],[35.8771,34.9582],[35.8773,34.9558],[35.8759,34.9555],[35.8772,34.9556],[35.8784,34.9533],[35.8773,34.9521],[35.8787,34.9524],[35.8796,34.9489],[35.8785,34.9411],[35.8796,34.9196],[35.8745,34.9156],[35.865,34.9132],[35.8592,34.9096],[35.872,34.9148],[35.8721,34.9127],[35.8678,34.9127],[35.8681,34.9117],[35.8624,34.9088],[35.8696,34.9095],[35.8639,34.9076],[35.8631,34.9055],[35.8724,34.9076],[35.8728,34.9065],[35.8648,34.9044],[35.865,34.9028],[35.8734,34.905],[35.868,34.9021],[35.8709,34.9026],[35.8726,34.8993],[35.8689,34.8987],[35.8588,34.9013],[35.8543,34.9101],[35.8576,34.9019],[35.871,34.8977],[35.8711,34.8957],[35.8732,34.8953],[35.8717,34.8943],[35.8743,34.8931],[35.8754,34.8901],[35.8765,34.8905],[35.8759,34.8893],[35.8747,34.8902],[35.8809,34.878],[35.8792,34.8769],[35.8805,34.8753],[35.8788,34.8753],[35.878,34.8776],[35.8781,34.8755],[35.8829,34.8724],[35.8829,34.8709],[35.8804,34.87],[35.8825,34.8675],[35.884,34.8679],[35.8921,34.8538],[35.9031,34.8291],[35.9271,34.7837],[35.9315,34.759],[35.929,34.7564],[35.9316,34.7504],[35.9305,34.7479],[35.9256,34.7478],[35.9298,34.7469],[35.9354,34.7282],[35.9516,34.6932],[35.9755,34.6339],[35.9781,34.6353],[35.9758,34.6431],[35.9812,34.6446],[35.9805,34.6495],[35.9864,34.6482],[35.9902,34.6506],[35.9912,34.6494],[35.9895,34.6464],[35.9899,34.6434],[35.9924,34.6427],[35.9932,34.6446],[35.9965,34.6425],[36.0077,34.6454],[36.006,34.642],[36.0235,34.6351],[36.0249,34.6318],[36.0284,34.6297],[36.0344,34.631],[36.0327,34.6286],[36.0335,34.6274],[36.0429,34.6298],[36.0524,34.6277],[36.0542,34.6321],[36.059,34.6326],[36.063,34.6358],[36.0648,34.6353],[36.0651,34.6314],[36.0673,34.6338],[36.0727,34.6321],[36.0736,34.628],[36.0762,34.6286],[36.079,34.6342],[36.0804,34.634],[36.0809,34.6304],[36.0856,34.6321],[36.0894,34.6291],[36.0918,34.6305],[36.0919,34.6288],[36.0948,34.6308],[36.0942,34.632],[36.0975,34.6327],[36.0967,34.6348],[36.0984,34.6365],[36.1009,34.6344],[36.1033,34.6355],[36.1091,34.6333],[36.1142,34.6336],[36.107,34.6401],[36.1054,34.6441],[36.109,34.6505],[36.1317,34.6703],[36.126,34.6862],[36.1284,34.6885],[36.1442,34.6943],[36.146,34.7319],[36.1432,34.735],[36.1455,34.7366],[36.1518,34.7367],[36.1551,34.7431],[36.1619,34.746],[36.1636,34.7522],[36.177,34.7579],[36.1845,34.7672],[36.2045,34.7792],[36.2174,34.7829],[36.2253,34.8],[36.2347,34.8061],[36.2361,34.8117],[36.24,34.8178],[36.2516,34.8191],[36.27,34.826],[36.275,34.8301],[36.2804,34.8394],[36.3114,34.8562],[36.3243,34.8648],[36.3238,34.8694],[36.3195,34.871],[36.3072,34.8639],[36.2986,34.8567],[36.2898,34.8562],[36.2761,34.8616],[36.273,34.8664],[36.275,34.8814],[36.2836,34.8917],[36.2893,34.9021],[36.2945,34.9208],[36.2788,34.9227],[36.2715,34.9209],[36.2698,34.9222],[36.273,34.9279],[36.2704,34.9379],[36.2719,34.9444],[36.2674,34.9591],[36.2565,34.9723],[36.2517,34.9733],[36.2389,34.9709],[36.2335,34.9725],[36.2086,34.9728],[36.1983,34.9713],[36.1797,34.9722],[36.1641,34.9801],[36.1541,34.9801],[36.1477,34.979],[36.1439,34.9753],[36.1364,34.9755],[36.1343,34.9831],[36.145,34.9863],[36.1504,35.004],[36.1544,35.0078],[36.1711,35.0056],[36.1753,35.0064],[36.1875,35.0144],[36.2057,35.0169],[36.2105,35.0219],[36.2301,35.0229],[36.2337,35.0245],[36.2373,35.0309],[36.2539,35.04],[36.258,35.0461],[36.2664,35.0663],[36.2655,35.0705],[36.2626,35.0731],[36.2618,35.0761],[36.2637,35.08],[36.2699,35.0817],[36.2705,35.0904],[36.2631,35.1014],[36.2583,35.1272],[36.2575,35.1553],[36.2539,35.1861],[36.2545,35.2009],[36.2478,35.2356],[36.2561,35.2477],[36.2515,35.2635],[36.219,35.2541],[36.1945,35.2361],[36.1801,35.2301],[36.1637,35.2261],[36.1359,35.2237],[36.0651,35.2237],[36.0309,35.2167],[36.0221,35.2183],[35.9887,35.2423],[35.9739,35.2497],[35.9583,35.2561],[35.9337,35.2575],[35.9318,35.255],[35.9369,35.2501],[35.9484,35.2274],[35.9484,35.2243],[35.9463,35.2232],[35.9488,35.2241],[35.9496,35.2211],[35.9484,35.2224],[35.9468,35.2215],[35.9452,35.2237],[35.9499,35.2191],[35.9499,35.214],[35.9476,35.2135],[35.9498,35.2135],[35.9527,35.2045],[35.9529,35.1933],[35.9503,35.1889],[35.9425,35.1872],[35.9439,35.186],[35.9424,35.1839],[35.94,35.1854],[35.942,35.188],[35.9395,35.1856],[35.9406,35.1836],[35.9316,35.1804],[35.9257,35.1747],[35.9258,35.1731],[35.924,35.1734],[35.9232,35.1722],[35.9246,35.1706],[35.9227,35.1711],[35.9253,35.1695],[35.9272,35.1564],[35.9241,35.1538],[35.9228,35.1501],[35.9162,35.1488],[35.9173,35.1453],[35.9134,35.1414],[35.911,35.1342],[35.9071,35.1289],[35.9077,35.1269],[35.9046,35.1195],[35.8999,35.1178],[35.8964,35.1189],[35.8934,35.1098],[35.8877,35.1059],[35.887,35.099],[35.8911,35.0895],[35.8925,35.081],[35.8909,35.0742],[35.8854,35.0643],[35.8854,35.0613],[35.8838,35.0611],[35.8859,35.06],[35.8864,35.0544],[35.8926,35.0419],[35.8963,35.0284],[35.8947,35.0278],[35.8969,35.0211],[35.8952,35.0203],[35.8968,35.0184],[35.8983,35.0094],[35.8968,35.0042],[35.8907,34.9985]]]]},"properties":{"province_name":"Tartus"}},{"type":"Feature","geometry":{"type":"MultiPolygon","coordinates":[[[[35.8857,35.9049],[35.887,35.9038],[35.8857,35.9049]]],[[[35.9395,35.2579],[35.9583,35.2561],[35.9739,35.2497],[35.9887,35.2423],[36.0159,35.2225],[36.0253,35.2173],[36.0309,35.2167],[36.0651,35.2237],[36.1359,35.2237],[36.1637,35.2261],[36.1801,35.2301],[36.1945,35.2361],[36.219,35.2541],[36.2289,35.257],[36.2255,35.2595],[36.2217,35.2722],[36.2366,35.2869],[36.2385,35.3062],[36.2309,35.3281],[36.2297,35.3357],[36.2253,35.3453],[36.2237,35.3559],[36.2245,35.3695],[36.2119,35.3903],[36.2025,35.4175],[36.2006,35.4289],[36.2025,35.4467],[36.2073,35.4629],[36.2208,35.5375],[36.2213,35.5472],[36.2186,35.5699],[36.2177,35.5972],[36.2126,35.6301],[36.2163,35.6303],[36.2201,35.6405],[36.2189,35.6474],[36.211,35.6477],[36.2051,35.6538],[36.2131,35.6569],[36.2006,35.6697],[36.2061,35.6758],[36.1966,35.687],[36.2042,35.6932],[36.2116,35.6833],[36.2202,35.6814],[36.2287,35.6854],[36.2294,35.6866],[36.226,35.6931],[36.2278,35.6944],[36.2308,35.6918],[36.2309,35.687],[36.2361,35.6861],[36.2335,35.6823],[36.2348,35.6816],[36.2416,35.6924],[36.2383,35.6983],[36.2395,35.7043],[36.244,35.7059],[36.2411,35.7152],[36.2449,35.7182],[36.2512,35.7124],[36.2552,35.7154],[36.234,35.7357],[36.2202,35.7564],[36.2045,35.7559],[36.1957,35.7667],[36.1617,35.7867],[36.1534,35.7879],[36.1492,35.7978],[36.1493,35.8096],[36.143,35.8102],[36.1384,35.8148],[36.139,35.8216],[36.1365,35.8236],[36.1391,35.8282],[36.137,35.829],[36.1381,35.8338],[36.137,35.8369],[36.1298,35.8471],[36.1207,35.8531],[36.1203,35.8547],[36.1155,35.855],[36.1151,35.8601],[36.1071,35.862],[36.1001,35.8668],[36.0949,35.8636],[36.0901,35.8646],[36.0883,35.8673],[36.0783,35.8687],[36.0709,35.8674],[36.0685,35.8684],[36.0662,35.8657],[36.065,35.8702],[36.0568,35.875],[36.055,35.8731],[36.0475,35.8744],[36.0408,35.8717],[36.0311,35.8769],[36.0299,35.8807],[36.0265,35.8822],[35.9993,35.8806],[35.9979,35.8847],[36.0007,35.8864],[36.0075,35.9023],[36.0103,35.9049],[36.0097,35.9083],[36.0175,35.9205],[36.0057,35.9403],[35.995,35.9385],[35.9932,35.9405],[35.9901,35.9389],[35.9816,35.9384],[35.9754,35.9348],[35.9741,35.932],[35.9706,35.9325],[35.9596,35.9273],[35.9576,35.9287],[35.9467,35.9279],[35.9492,35.9249],[35.9331,35.9238],[35.9336,35.9215],[35.9314,35.9205],[35.9235,35.9215],[35.918,35.9286],[35.9138,35.9287],[35.9107,35.9241],[35.9004,35.9214],[35.8949,35.9152],[35.8922,35.906],[35.888,35.9034],[35.8868,35.9001],[35.8854,35.8891],[35.8806,35.8755],[35.8737,35.8665],[35.8708,35.8652],[35.8658,35.8661],[35.8575,35.858],[35.8426,35.8501],[35.8295,35.8497],[35.8247,35.8533],[35.8235,35.8515],[35.8203,35.8525],[35.8201,35.8546],[35.82,35.8531],[35.8182,35.8529],[35.8158,35.8554],[35.8207,35.8556],[35.8148,35.8555],[35.8138,35.8575],[35.8089,35.855],[35.8087,35.8535],[35.8019,35.8551],[35.7997,35.8533],[35.8034,35.8507],[35.8118,35.8493],[35.8123,35.8475],[35.8103,35.846],[35.809,35.8429],[35.8099,35.841],[35.807,35.8358],[35.812,35.8348],[35.813,35.8304],[35.8199,35.8294],[35.8201,35.8267],[35.8225,35.825],[35.8216,35.8226],[35.8229,35.8188],[35.8217,35.8178],[35.8236,35.8164],[35.8204,35.8128],[35.8264,35.8095],[35.8297,35.8047],[35.829,35.8022],[35.8319,35.8006],[35.8322,35.7974],[35.8296,35.7945],[35.8338,35.7932],[35.8409,35.7761],[35.8396,35.7723],[35.841,35.769],[35.8404,35.7645],[35.8428,35.7624],[35.8453,35.7503],[35.8442,35.7415],[35.8432,35.7401],[35.8345,35.738],[35.8353,35.7358],[35.8332,35.7341],[35.8297,35.7145],[35.818,35.7111],[35.816,35.7096],[35.8155,35.7079],[35.8171,35.7073],[35.8155,35.7046],[35.8114,35.7046],[35.8114,35.7031],[35.8055,35.7007],[35.807,35.6956],[35.8004,35.692],[35.7994,35.6904],[35.8008,35.6877],[35.7987,35.685],[35.7956,35.6855],[35.792,35.682],[35.7889,35.6821],[35.7903,35.6837],[35.7874,35.6828],[35.7886,35.6816],[35.7814,35.6816],[35.7771,35.6794],[35.7722,35.6756],[35.7682,35.6697],[35.7679,35.6649],[35.77,35.6644],[35.7681,35.657],[35.7728,35.6561],[35.778,35.6512],[35.7803,35.6371],[35.785,35.6329],[35.7816,35.63],[35.7832,35.6275],[35.7793,35.625],[35.7773,35.6178],[35.7749,35.6171],[35.7736,35.6184],[35.7722,35.617],[35.7728,35.6144],[35.776,35.6121],[35.7756,35.6083],[35.772,35.607],[35.7693,35.6088],[35.7685,35.6077],[35.7668,35.6094],[35.77,35.6121],[35.7665,35.6095],[35.7639,35.61],[35.7621,35.605],[35.7636,35.6032],[35.7621,35.604],[35.7589,35.5988],[35.7607,35.5969],[35.7578,35.5969],[35.7592,35.5953],[35.7583,35.5927],[35.7559,35.5916],[35.7543,35.5934],[35.7514,35.5932],[35.7521,35.5907],[35.7494,35.5889],[35.7431,35.5895],[35.7416,35.5908],[35.742,35.593],[35.7276,35.5847],[35.7166,35.586],[35.718,35.5839],[35.7197,35.5845],[35.7177,35.5825],[35.7203,35.5823],[35.721,35.5786],[35.7368,35.5843],[35.742,35.5817],[35.7448,35.5784],[35.7455,35.5739],[35.7418,35.5734],[35.7425,35.5721],[35.7411,35.5709],[35.7397,35.5723],[35.7406,35.5687],[35.7334,35.5634],[35.7329,35.561],[35.739,35.5605],[35.7387,35.5572],[35.7416,35.5577],[35.7426,35.5557],[35.7437,35.5563],[35.7515,35.5506],[35.7564,35.5515],[35.7567,35.5486],[35.7541,35.5492],[35.7543,35.5477],[35.752,35.5475],[35.7531,35.5447],[35.7528,35.546],[35.7554,35.547],[35.757,35.5439],[35.7599,35.5465],[35.7642,35.5443],[35.763,35.5418],[35.7645,35.544],[35.766,35.5436],[35.7645,35.5417],[35.766,35.54],[35.7617,35.5413],[35.7635,35.5394],[35.7681,35.54],[35.772,35.5364],[35.772,35.5327],[35.7655,35.5276],[35.7663,35.5256],[35.7699,35.5283],[35.7709,35.5274],[35.7672,35.5162],[35.7685,35.5143],[35.772,35.5143],[35.7686,35.5113],[35.7685,35.5133],[35.7662,35.5145],[35.7617,35.5081],[35.7596,35.5109],[35.763,35.5182],[35.7548,35.5324],[35.7622,35.5186],[35.7594,35.5097],[35.7636,35.5057],[35.7699,35.5044],[35.7787,35.4962],[35.7822,35.4989],[35.7837,35.5058],[35.7877,35.5068],[35.8024,35.5042],[35.8168,35.4964],[35.8727,35.4588],[35.9027,35.4326],[35.9141,35.4193],[35.9152,35.4145],[35.9116,35.414],[35.9111,35.4112],[35.9168,35.4006],[35.9156,35.4007],[35.9166,35.395],[35.9186,35.3944],[35.9164,35.3932],[35.9177,35.3892],[35.9199,35.3889],[35.9186,35.3875],[35.9206,35.3857],[35.9187,35.3837],[35.9206,35.3834],[35.9214,35.3813],[35.9205,35.3789],[35.9175,35.3784],[35.9176,35.3702],[35.9195,35.3647],[35.9188,35.3606],[35.9211,35.3599],[35.9179,35.3607],[35.9201,35.3582],[35.9192,35.3557],[35.9206,35.3526],[35.9189,35.352],[35.92,35.3475],[35.9227,35.3456],[35.9193,35.3431],[35.9196,35.3338],[35.9202,35.3307],[35.9233,35.3295],[35.9224,35.3271],[35.9248,35.3263],[35.9262,35.3273],[35.9251,35.326],[35.9201,35.3279],[35.9195,35.3267],[35.9207,35.3215],[35.9198,35.3191],[35.9219,35.3178],[35.9202,35.3166],[35.9212,35.316],[35.9198,35.3148],[35.9195,35.3104],[35.9235,35.3078],[35.9209,35.3069],[35.9212,35.3048],[35.9233,35.3038],[35.9212,35.3038],[35.9201,35.3014],[35.9236,35.2934],[35.921,35.2899],[35.9217,35.2849],[35.9202,35.2788],[35.9259,35.2638],[35.9241,35.2635],[35.9251,35.2614],[35.928,35.2631],[35.9337,35.2575],[35.9395,35.2579]]]]},"properties":{"province_name":"Lattakia"}},{"type":"Feature","geometry":{"type":"Polygon","coordinates":[[[40.5249,35.8196],[40.576,35.7804],[40.7103,35.6717],[40.7375,35.6567],[40.7561,35.6355],[40.808,35.61],[40.825,35.6039],[40.8447,35.5994],[40.8825,35.5942],[40.9425,35.5772],[41.0017,35.5689],[41.0689,35.5647],[41.1528,35.5639],[41.1714,35.5656],[41.2055,35.5653],[41.2986,35.5539],[41.3238,35.5536],[41.382,35.6253],[41.3694,35.8436],[41.2558,36.06],[41.2729,36.1828],[41.2845,36.2963],[41.2841,36.321],[41.2865,36.3349],[41.2935,36.3455],[41.297,36.3464],[41.2957,36.3484],[41.2964,36.3502],[41.3003,36.3498],[41.3002,36.3556],[41.2965,36.3577],[41.2962,36.3611],[41.2941,36.3629],[41.2949,36.3668],[41.3919,36.5126],[41.4022,36.5242],[41.8172,36.5877],[41.8857,36.6366],[41.9417,36.6866],[41.9682,36.6992],[41.9703,36.7006],[41.9724,36.7065],[41.9757,36.7079],[41.9786,36.7068],[41.9796,36.7102],[41.9998,36.7386],[42.3365,37.0382],[42.3569,37.0557],[42.3686,37.0607],[42.369,37.0648],[42.3745,37.0744],[42.3741,37.0765],[42.3691,37.08],[42.3532,37.0852],[42.3504,37.0891],[42.3526,37.0959],[42.3483,37.1097],[42.3549,37.122],[42.3541,37.1302],[42.3517,37.1336],[42.3453,37.1368],[42.3302,37.1544],[42.3306,37.1655],[42.3237,37.1755],[42.3202,37.1847],[42.3219,37.1901],[42.332,37.204],[42.3378,37.21],[42.3479,37.2143],[42.3469,37.2172],[42.34,37.2214],[42.3431,37.2299],[42.3409,37.2353],[42.3378,37.2381],[42.3309,37.239],[42.3166,37.2464],[42.3106,37.2565],[42.3066,37.2598],[42.2916,37.262],[42.2891,37.2658],[42.2875,37.2762],[42.2831,37.2821],[42.28,37.2816],[42.2692,37.2739],[42.2606,37.2713],[42.237,37.2827],[42.2181,37.2773],[42.2111,37.2776],[42.205,37.2802],[42.2081,37.284],[42.2076,37.2907],[42.2094,37.2942],[42.2152,37.3012],[42.2247,37.3088],[42.2257,37.3124],[42.2249,37.316],[42.222,37.3182],[42.2071,37.3185],[42.206,37.3163],[42.2014,37.3149],[42.1994,37.3112],[42.1965,37.3112],[42.1948,37.3061],[42.1916,37.3031],[42.191,37.2996],[42.1923,37.298],[42.185,37.2873],[42.0986,37.2239],[42.0928,37.216],[42.0892,37.2075],[42.0775,37.207],[42.0566,37.198],[42.0426,37.1863],[42.0346,37.1818],[42.0079,37.1797],[42.0033,37.1814],[41.9952,37.1754],[41.9789,37.1703],[41.9656,37.1615],[41.9519,37.1576],[41.9237,37.157],[41.8747,37.1448],[41.8242,37.1378],[41.8159,37.1348],[41.8064,37.1338],[41.7935,37.1279],[41.6944,37.1141],[41.6606,37.1182],[41.6368,37.1142],[41.6302,37.1085],[41.6185,37.1101],[41.6041,37.1071],[41.5948,37.102],[41.5854,37.0996],[41.5737,37.0934],[41.5535,37.0864],[41.5234,37.0832],[41.5175,37.0777],[41.4745,37.0797],[41.3792,37.079],[41.3704,37.0753],[41.3516,37.0789],[41.2943,37.0808],[41.2725,37.0785],[41.2671,37.0797],[41.2317,37.0738],[41.2214,37.0697],[41.2229,37.0679],[41.2182,37.062],[41.1981,37.0638],[41.1981,37.0802],[41.1731,37.0898],[41.1679,37.0882],[41.1682,37.0925],[41.1629,37.0947],[41.1454,37.0975],[41.1347,37.0947],[41.127,37.0971],[41.12,37.0942],[41.11,37.0962],[41.1059,37.0945],[41.1047,37.0952],[41.1054,37.0975],[41.0945,37.1007],[41.0921,37.1011],[41.0923,37.099],[41.0895,37.0992],[41.0865,37.1018],[41.0139,37.1153],[40.9821,37.1158],[40.9155,37.1313],[40.9036,37.1315],[40.889,37.1278],[40.8727,37.1288],[40.8494,37.1224],[40.8457,37.1194],[40.8428,37.1105],[40.8346,37.1065],[40.8214,37.1111],[40.8117,37.1256],[40.8085,37.1256],[40.7982,37.119],[40.7759,37.1225],[40.7696,37.1272],[40.7653,37.1274],[40.7625,37.1254],[40.7564,37.1123],[40.7533,37.1097],[40.7421,37.1108],[40.7224,37.1079],[40.7124,37.104],[40.6955,37.1032],[40.6778,37.092],[40.6322,37.0726],[40.6185,37.0642],[40.5893,37.0618],[40.5712,37.0492],[40.53,37.0279],[40.4192,37.0163],[40.4196,37.0119],[40.4161,37.0117],[40.4155,37.0157],[40.4131,37.0151],[40.3987,37.008],[40.383,36.9915],[40.3791,36.9796],[40.3575,36.9632],[40.3383,36.958],[40.307,36.9394],[40.2671,36.9216],[40.2385,36.9149],[40.2231,36.9024],[40.1961,36.8876],[40.1843,36.878],[40.1453,36.8695],[40.1119,36.8674],[40.0787,36.8584],[40.0621,36.856],[40.0592,36.8539],[40.0526,36.8427],[40.0313,36.8266],[39.9992,36.8223],[39.9297,36.7969],[39.8558,36.7767],[39.8473,36.7719],[39.8371,36.7632],[39.821,36.7566],[39.7151,36.7503],[39.6405,36.7246],[39.5966,36.723],[39.545,36.7136],[39.4916,36.7002],[39.439,36.6968],[39.4428,36.6814],[39.4608,36.6519],[39.4633,36.6372],[39.4692,36.6244],[39.4919,36.6019],[39.5164,36.5719],[39.5344,36.5586],[39.5461,36.5536],[39.5678,36.5508],[39.5817,36.5519],[39.5944,36.5544],[39.6097,36.5597],[39.6233,36.5611],[39.6375,36.5572],[39.6694,36.5433],[39.7206,36.5292],[39.7589,36.5155],[39.7789,36.5033],[39.7936,36.4919],[39.8017,36.4806],[39.8043,36.4635],[39.8094,36.4492],[39.8197,36.4311],[39.8425,36.4],[39.8586,36.3814],[39.8747,36.3542],[39.8917,36.3322],[39.9086,36.318],[39.9197,36.305],[39.9325,36.2955],[39.9995,36.2178],[40.0055,36.199],[40.0035,36.1934],[40.1689,36.1078],[40.3917,35.9294],[40.5249,35.8196]]]},"properties":{"province_name":"Al \u1e24asakah"}},{"type":"Feature","geometry":{"type":"Polygon","coordinates":[[[41.2086,35.1428],[41.2176,35.2002],[41.2196,35.259],[41.2657,35.3838],[41.2557,35.4181],[41.2611,35.4549],[41.2674,35.467],[41.268,35.485],[41.3238,35.5536],[41.2986,35.5539],[41.2055,35.5653],[41.1714,35.5656],[41.1528,35.5639],[41.0689,35.5647],[41.0017,35.5689],[40.9639,35.5739],[40.9228,35.5819],[40.8825,35.5942],[40.8447,35.5994],[40.825,35.6039],[40.808,35.61],[40.7561,35.6355],[40.7375,35.6567],[40.7103,35.6717],[40.576,35.7804],[40.5249,35.8196],[40.3917,35.9294],[40.1689,36.1078],[40.0035,36.1934],[40.0055,36.199],[39.9995,36.2178],[39.9325,36.2955],[39.9197,36.305],[39.9086,36.318],[39.8917,36.3322],[39.8805,36.3456],[39.8586,36.3814],[39.8425,36.4],[39.8197,36.4311],[39.8094,36.4492],[39.8043,36.4635],[39.6853,36.21],[39.6251,36.0904],[39.69,35.8143],[39.6777,35.7883],[39.6828,35.773],[39.6714,35.7706],[39.6588,35.7656],[39.6517,35.7652],[39.6192,35.7382],[39.4375,35.5141],[39.242,35.2493],[39.2933,35.2211],[39.3142,35.2056],[39.3506,35.1831],[39.36,35.1739],[39.4433,35.0303],[39.4328,34.9506],[39.9055,34.3928],[40.0,34.2796],[40.1624,34.0764],[40.6401,34.3152],[40.9155,34.3829],[40.927,34.39],[40.9367,34.3905],[40.9511,34.3942],[40.9654,34.395],[40.978,34.398],[40.9836,34.4126],[41.0034,34.4366],[41.0142,34.4459],[41.0162,34.4459],[41.1228,34.6543],[41.2143,34.7632],[41.2208,34.7752],[41.2274,34.7785],[41.2257,34.7924],[41.2286,34.8059],[41.2246,34.8264],[41.2086,35.1428]]]},"properties":{"province_name":"Dayr Az Zawr"}},{"type":"Feature","geometry":{"type":"Polygon","coordinates":[[[39.6517,35.7652],[39.6588,35.7656],[39.6714,35.7706],[39.6828,35.773],[39.6777,35.7883],[39.69,35.8143],[39.6251,36.0904],[39.6853,36.21],[39.8043,36.4635],[39.8028,36.4772],[39.7936,36.4919],[39.7789,36.5033],[39.7589,36.5155],[39.7206,36.5292],[39.6694,36.5433],[39.6375,36.5572],[39.618,36.5614],[39.5944,36.5544],[39.5678,36.5508],[39.5461,36.5536],[39.5344,36.5586],[39.5164,36.5719],[39.4919,36.6019],[39.4692,36.6244],[39.4633,36.6372],[39.4608,36.6519],[39.4428,36.6814],[39.439,36.6968],[39.3878,36.6924],[39.3618,36.6919],[39.2636,36.6748],[39.2124,36.6689],[39.1282,36.6866],[39.0655,36.705],[39.0212,36.7105],[38.9536,36.7045],[38.9271,36.7044],[38.8924,36.7005],[38.7458,36.7067],[38.7312,36.7111],[38.691,36.7346],[38.6308,36.7824],[38.6321,36.7603],[38.6342,36.7535],[38.6381,36.7478],[38.6426,36.7456],[38.6338,36.7312],[38.6435,36.7223],[38.6476,36.7157],[38.6622,36.7141],[38.6697,36.6859],[38.6677,36.6809],[38.6578,36.6752],[38.6213,36.6668],[38.6154,36.6739],[38.5874,36.6835],[38.5803,36.6716],[38.5865,36.6576],[38.607,36.6416],[38.6079,36.6286],[38.6096,36.6264],[38.6025,36.6153],[38.6367,36.601],[38.6461,36.6121],[38.6402,36.6345],[38.6346,36.6465],[38.6714,36.6489],[38.67,36.6377],[38.6788,36.6375],[38.7034,36.652],[38.7139,36.6532],[38.7131,36.6406],[38.717,36.6432],[38.7206,36.6434],[38.7203,36.6399],[38.7175,36.6382],[38.7061,36.6376],[38.6941,36.623],[38.6879,36.5929],[38.6727,36.5681],[38.6711,36.5621],[38.6806,36.553],[38.682,36.5426],[38.6692,36.5294],[38.6558,36.4983],[38.6574,36.4835],[38.6768,36.4781],[38.6717,36.4631],[38.658,36.4557],[38.6558,36.4477],[38.6657,36.4368],[38.6665,36.4218],[38.6592,36.4199],[38.6545,36.4126],[38.6443,36.413],[38.6446,36.4045],[38.6378,36.4008],[38.6411,36.3937],[38.6347,36.3723],[38.642,36.368],[38.6455,36.3482],[38.639,36.3445],[38.6465,36.3403],[38.6375,36.3282],[38.6451,36.3155],[38.6277,36.3053],[38.6314,36.2845],[38.5721,36.2624],[38.5714,36.2857],[38.5442,36.2878],[38.534,36.2585],[38.5288,36.259],[38.527,36.245],[38.5444,36.2335],[38.5445,36.2186],[38.5234,36.2045],[38.5097,36.2041],[38.5055,36.2353],[38.4779,36.2387],[38.4129,36.2318],[38.4202,36.2203],[38.4225,36.2124],[38.4426,36.1947],[38.4351,36.1607],[38.4062,36.1544],[38.3797,36.1591],[38.3742,36.1637],[38.377,36.1757],[38.3624,36.2001],[38.35,36.2052],[38.3311,36.2291],[38.3354,36.2431],[38.3435,36.2442],[38.3501,36.2585],[38.3493,36.2633],[38.3443,36.2685],[38.3372,36.2698],[38.3273,36.2817],[38.3123,36.2805],[38.2747,36.2944],[38.2039,36.3049],[38.2036,36.277],[38.1919,36.264],[38.1856,36.26],[38.1708,36.2561],[38.1565,36.2553],[38.1237,36.2441],[38.0886,36.175],[38.065,36.1478],[38.0608,36.1408],[38.0592,36.1342],[38.0572,36.1105],[38.0614,36.0814],[38.0639,36.0733],[38.0792,36.055],[38.1086,36.0328],[38.1225,36.0189],[38.1317,36.0033],[38.1378,35.9972],[38.1817,35.9683],[38.1828,35.9636],[38.1817,35.9525],[38.1728,35.94],[38.1639,35.9172],[38.1597,35.9108],[38.1425,35.8969],[38.1428,35.8849],[38.1377,35.8718],[38.1284,35.8554],[38.1243,35.8379],[38.1414,35.8317],[38.1493,35.8392],[38.1765,35.8359],[38.1507,35.7967],[38.1799,35.7855],[38.1646,35.7266],[38.207,35.7153],[38.205,35.6517],[38.2228,35.6171],[38.2228,35.6054],[38.3186,35.5699],[38.3172,35.5345],[38.2922,35.5046],[38.2728,35.4682],[38.2322,35.4345],[38.2131,35.3838],[38.3047,35.3819],[38.3219,35.3853],[38.3708,35.3903],[38.4556,35.3908],[38.5228,35.3881],[38.5711,35.3819],[38.6828,35.3728],[38.7286,35.3642],[38.7758,35.3586],[38.8508,35.3436],[38.8975,35.3372],[38.9214,35.3311],[38.9597,35.3183],[39.0194,35.3028],[39.0689,35.2975],[39.125,35.2869],[39.1555,35.2781],[39.1696,35.2808],[39.1828,35.278],[39.1968,35.274],[39.2007,35.2667],[39.2002,35.2607],[39.242,35.2493],[39.4375,35.5141],[39.6192,35.7382],[39.6517,35.7652]]]},"properties":{"province_name":"Ar Raqqah"}}]}