{"type":"FeatureCollection","features":[{"type":"Feature","properties":{},"geometry":{"type":"MultiPolygon","coordinates":[[[[35.6133,32.8953],[35.6146,32.8993],[35.6136,32.9005],[35.6164,32.9027],[35.6172,32.9041],[35.6168,32.9051],[35.6228,32.9049],[35.6253,32.9075],[35.6234,32.9085],[35.6256,32.9088],[35.6254,32.9102],[35.6273,32.9119],[35.6258,32.9138],[35.6242,32.9142],[35.6242,32.9163],[35.6281,32.9374],[35.6289,32.9566],[35.631,32.96],[35.6331,32.9909],[35.6304,32.9947],[35.633,33.0089],[35.6309,33.0123],[35.629,33.0136],[35.63,33.0145],[35.6317,33.0241],[35.6405,33.0406],[35.6466,33.0634],[35.6455,33.0777],[35.6502,33.0871],[35.6528,33.123],[35.6706,33.1535],[35.6629,33.1901],[35.6675,33.2211],[35.6669,33.2255],[35.6728,33.2323],[35.6772,33.2329],[35.6831,33.2371],[35.6839,33.2391],[35.6821,33.2413],[35.6844,33.2427],[35.6843,33.2446],[35.6811,33.2477],[35.6763,33.2475],[35.6736,33.2463],[35.6698,33.2473],[35.6613,33.2475],[35.6577,33.2493],[35.6507,33.2503],[35.6418,33.245],[35.6358,33.2448],[35.6314,33.243],[35.625,33.2419],[35.6231,33.2443],[35.6257,33.2458],[35.6228,33.2493],[35.6238,33.2525],[35.6225,33.2533],[35.6203,33.2531],[35.6191,33.2557],[35.6213,33.2561],[35.6213,33.2594],[35.6232,33.2605],[35.6217,33.2621],[35.6226,33.2647],[35.62,33.2704],[35.6226,33.2729],[35.6204,33.2749],[35.6211,33.2782],[35.6243,33.2781],[35.626,33.2739],[35.6373,33.2776],[35.6429,33.2805],[35.6588,33.274],[35.6609,33.2758],[35.6622,33.2784],[35.6782,33.2881],[35.6851,33.2938],[35.6932,33.2964],[35.707,33.3053],[35.7098,33.3108],[35.7119,33.3206],[35.7153,33.3257],[35.718,33.3277],[35.722,33.3293],[35.728,33.3298],[35.7413,33.3256],[35.7431,33.3266],[35.7462,33.3306],[35.7518,33.3292],[35.7634,33.3325],[35.7659,33.3345],[35.7733,33.3356],[35.7914,33.3494],[35.7942,33.3506],[35.8022,33.3575],[35.8106,33.3608],[35.8133,33.3639],[35.8161,33.3708],[35.8189,33.3889],[35.8217,33.3969],[35.8244,33.4022],[35.8269,33.405],[35.8325,33.4089],[35.8544,33.4189],[35.8764,33.4258],[35.8875,33.4314],[35.8931,33.4353],[35.9067,33.4478],[35.9342,33.4667],[35.9481,33.4806],[35.9533,33.4881],[35.9553,33.5],[35.9525,33.5064],[35.9417,33.5161],[35.9389,33.5208],[35.9411,33.5278],[35.9547,33.535],[35.9575,33.5358],[35.9667,33.5358],[35.9685,33.5371],[35.9695,33.5402],[35.9714,33.5419],[35.9767,33.5425],[35.9906,33.5381],[35.9958,33.5381],[36.0125,33.5464],[36.0233,33.5475],[36.0289,33.5492],[36.0344,33.5533],[36.0483,33.5694],[36.0592,33.5794],[36.0611,33.5878],[36.054,33.5912],[36.0466,33.5879],[36.0398,33.5881],[36.0351,33.5899],[36.035,33.5934],[36.0311,33.5939],[36.0258,33.5976],[36.0228,33.6082],[36.0191,33.6137],[36.0149,33.6166],[36.0012,33.6187],[35.9947,33.6211],[35.989,33.618],[35.9842,33.6195],[35.9816,33.623],[35.9735,33.6306],[35.9723,33.6375],[35.9733,33.6417],[35.9708,33.6422],[35.9653,33.6414],[35.9514,33.6369],[35.9458,33.6375],[35.9406,33.6408],[35.935,33.6461],[35.9339,33.6547],[35.9394,33.6628],[35.9586,33.6786],[35.9601,33.6795],[35.9639,33.6794],[35.967,33.6815],[35.9719,33.6933],[35.9694,33.7014],[35.9683,33.715],[35.9739,33.7214],[35.985,33.7267],[35.9931,33.7342],[36.0006,33.7503],[36.0117,33.7633],[36.0084,33.7665],[36.0101,33.7694],[36.0127,33.7708],[36.0207,33.7695],[36.0256,33.7719],[36.0311,33.7708],[36.0339,33.7714],[36.0367,33.7731],[36.0558,33.8008],[36.0617,33.815],[36.0655,33.82],[36.0703,33.8237],[36.0763,33.8267],[36.0808,33.8261],[36.0864,33.8209],[36.0892,33.8197],[36.0947,33.8209],[36.1028,33.8244],[36.1076,33.8295],[36.1111,33.8347],[36.1136,33.8365],[36.1168,33.8375],[36.1361,33.8389],[36.1389,33.84],[36.1414,33.8419],[36.1469,33.85],[36.1525,33.8553],[36.1553,33.8564],[36.1581,33.8564],[36.1636,33.8533],[36.1717,33.8417],[36.1744,33.8389],[36.1883,33.8347],[36.1992,33.8331],[36.2019,33.8331],[36.2075,33.8356],[36.2131,33.8356],[36.2158,33.8364],[36.2186,33.8403],[36.2214,33.8417],[36.2297,33.8425],[36.235,33.8439],[36.2381,33.8525],[36.2408,33.8564],[36.2449,33.8544],[36.2467,33.8544],[36.2517,33.8583],[36.2572,33.8547],[36.2656,33.8561],[36.2711,33.8556],[36.2764,33.8519],[36.2875,33.8408],[36.2983,33.8439],[36.3094,33.8408],[36.3147,33.8372],[36.3231,33.8331],[36.3342,33.8328],[36.3515,33.8292],[36.3603,33.8293],[36.369,33.8324],[36.3718,33.8325],[36.3779,33.8314],[36.3833,33.829],[36.3875,33.8286],[36.3898,33.8303],[36.3935,33.8306],[36.3964,33.8336],[36.3898,33.8451],[36.3911,33.8544],[36.3886,33.8586],[36.3858,33.8611],[36.3722,33.8678],[36.3667,33.8775],[36.3611,33.8803],[36.3558,33.8814],[36.3475,33.8806],[36.3336,33.8778],[36.3253,33.8789],[36.32,33.8828],[36.3144,33.8914],[36.3092,33.8964],[36.3008,33.9011],[36.2844,33.9075],[36.2817,33.9108],[36.2833,33.9178],[36.2917,33.9261],[36.3,33.9367],[36.3056,33.9458],[36.3083,33.9522],[36.3222,33.9681],[36.3281,33.9778],[36.3336,33.9819],[36.3503,33.9972],[36.3697,34.0081],[36.3806,34.0153],[36.3864,34.0206],[36.3892,34.0244],[36.3919,34.0308],[36.3975,34.0339],[36.4031,34.0342],[36.4047,34.0389],[36.4042,34.0492],[36.4069,34.0508],[36.4181,34.0506],[36.4208,34.0517],[36.4292,34.0586],[36.4347,34.0597],[36.4403,34.0586],[36.4483,34.0519],[36.4539,34.0486],[36.4675,34.0483],[36.4758,34.0506],[36.4842,34.0575],[36.4925,34.0592],[36.4953,34.0633],[36.4981,34.0636],[36.5008,34.0628],[36.5036,34.0636],[36.5064,34.0667],[36.5092,34.0725],[36.5083,34.0944],[36.5111,34.1017],[36.5169,34.1072],[36.5253,34.1106],[36.5308,34.1147],[36.5336,34.1175],[36.5392,34.1264],[36.5419,34.1294],[36.5503,34.1331],[36.5642,34.1347],[36.5669,34.1367],[36.5697,34.1419],[36.5725,34.1569],[36.5836,34.1625],[36.5864,34.1647],[36.5894,34.1719],[36.595,34.1894],[36.5978,34.1914],[36.6006,34.1914],[36.6033,34.1925],[36.6061,34.1964],[36.6117,34.1956],[36.6219,34.1983],[36.6232,34.1992],[36.625,34.2039],[36.6142,34.2125],[36.6033,34.225],[36.6006,34.2267],[36.595,34.2269],[36.5922,34.2294],[36.5869,34.2519],[36.5844,34.2594],[36.5817,34.2647],[36.5806,34.2775],[36.5836,34.2814],[36.6003,34.2944],[36.6031,34.3019],[36.6006,34.3094],[36.595,34.315],[36.5922,34.3158],[36.5783,34.315],[36.5728,34.3183],[36.5672,34.3181],[36.5644,34.3186],[36.5619,34.3203],[36.5592,34.3232],[36.5594,34.3251],[36.5584,34.327],[36.5533,34.3278],[36.5545,34.331],[36.5503,34.3332],[36.5472,34.3364],[36.5465,34.3383],[36.543,34.3428],[36.5388,34.3562],[36.5367,34.3583],[36.5331,34.3597],[36.5285,34.3696],[36.537,34.3753],[36.5391,34.3787],[36.5507,34.3858],[36.5655,34.4008],[36.5719,34.4051],[36.5678,34.4064],[36.5647,34.4087],[36.5553,34.4132],[36.5496,34.4183],[36.5484,34.4175],[36.5462,34.4202],[36.5455,34.4224],[36.5419,34.4218],[36.541,34.4229],[36.5386,34.4236],[36.5365,34.4258],[36.5326,34.4266],[36.5336,34.4299],[36.5317,34.4307],[36.531,34.4323],[36.5288,34.4331],[36.5269,34.4306],[36.5273,34.4284],[36.5241,34.4267],[36.5237,34.4299],[36.5224,34.4306],[36.522,34.4348],[36.517,34.4369],[36.5159,34.4352],[36.5162,34.4343],[36.515,34.434],[36.5146,34.4355],[36.5127,34.436],[36.5141,34.4362],[36.5144,34.4377],[36.512,34.4392],[36.5129,34.4406],[36.5112,34.441],[36.5094,34.4393],[36.5096,34.4412],[36.513,34.4425],[36.5139,34.4438],[36.508,34.4492],[36.5054,34.4495],[36.5019,34.4484],[36.4978,34.4488],[36.4953,34.45],[36.4877,34.457],[36.4799,34.4596],[36.4776,34.4596],[36.4763,34.4607],[36.4697,34.4629],[36.4617,34.4692],[36.4598,34.4794],[36.4562,34.4832],[36.4548,34.4885],[36.4493,34.4954],[36.4486,34.5002],[36.4497,34.5035],[36.4486,34.5069],[36.4423,34.5076],[36.4389,34.507],[36.4348,34.5087],[36.4338,34.5076],[36.4285,34.5086],[36.421,34.5083],[36.4139,34.5097],[36.4077,34.5043],[36.4056,34.5033],[36.4042,34.5012],[36.402,34.5004],[36.3967,34.5003],[36.3932,34.4994],[36.3852,34.502],[36.3835,34.5035],[36.3808,34.5039],[36.3796,34.5038],[36.3766,34.4994],[36.3738,34.499],[36.3738,34.5005],[36.3728,34.5013],[36.3636,34.4999],[36.3598,34.498],[36.3556,34.5],[36.3522,34.5006],[36.351,34.5018],[36.3455,34.502],[36.3428,34.5028],[36.342,34.502],[36.3352,34.5025],[36.3365,34.5072],[36.3358,34.5114],[36.3367,34.5127],[36.3364,34.5147],[36.3348,34.5155],[36.3338,34.5185],[36.3349,34.52],[36.3351,34.5232],[36.336,34.5241],[36.3548,34.5282],[36.3642,34.5311],[36.369,34.5335],[36.3698,34.5354],[36.3748,34.5396],[36.3809,34.5397],[36.3883,34.5419],[36.3905,34.5427],[36.3936,34.5463],[36.4009,34.5482],[36.4052,34.5509],[36.4075,34.5507],[36.4087,34.5545],[36.4111,34.5553],[36.4129,34.5575],[36.4148,34.558],[36.4151,34.5598],[36.4135,34.5626],[36.4102,34.564],[36.4068,34.567],[36.4061,34.5686],[36.4051,34.5682],[36.4018,34.5707],[36.402,34.5716],[36.3992,34.5744],[36.4002,34.5762],[36.3983,34.5777],[36.3998,34.5802],[36.4024,34.582],[36.4019,34.583],[36.4032,34.5871],[36.4023,34.588],[36.402,34.5921],[36.403,34.5948],[36.4072,34.6006],[36.4038,34.6035],[36.4048,34.6052],[36.4037,34.6075],[36.4072,34.6091],[36.4084,34.6108],[36.4107,34.6103],[36.4147,34.6114],[36.4145,34.6059],[36.4195,34.6062],[36.4238,34.6041],[36.4256,34.6044],[36.4256,34.6033],[36.4306,34.5997],[36.4316,34.5928],[36.4323,34.5921],[36.4359,34.5913],[36.4437,34.5926],[36.4472,34.5923],[36.4491,34.5913],[36.4522,34.5917],[36.4531,34.5941],[36.454,34.5944],[36.4541,34.5969],[36.4551,34.5971],[36.456,34.5988],[36.4575,34.5988],[36.4588,34.6045],[36.4577,34.6054],[36.4607,34.6111],[36.4586,34.6135],[36.4605,34.616],[36.4593,34.6169],[36.4596,34.6182],[36.4586,34.6196],[36.4574,34.6195],[36.4569,34.6208],[36.4573,34.6244],[36.4587,34.6262],[36.4611,34.6261],[36.4594,34.6301],[36.4606,34.6301],[36.4617,34.634],[36.4649,34.6365],[36.4584,34.638],[36.4504,34.6369],[36.4386,34.6317],[36.4338,34.6275],[36.4301,34.6276],[36.4256,34.6255],[36.4171,34.6265],[36.4141,34.6288],[36.4107,34.6299],[36.4095,34.6324],[36.4054,34.6346],[36.402,34.6377],[36.4001,34.6368],[36.3996,34.6356],[36.3954,34.6326],[36.3922,34.6316],[36.3914,34.6301],[36.3889,34.6318],[36.3836,34.6321],[36.3807,34.6336],[36.3779,34.6368],[36.3731,34.6389],[36.371,34.6417],[36.3655,34.6425],[36.3618,34.6474],[36.3609,34.6478],[36.3597,34.6472],[36.3595,34.6493],[36.3569,34.6536],[36.3548,34.655],[36.355,34.6575],[36.3527,34.6584],[36.3505,34.6606],[36.3493,34.6637],[36.3513,34.6662],[36.3507,34.6684],[36.3512,34.6694],[36.3502,34.671],[36.3548,34.6744],[36.3553,34.677],[36.3537,34.6795],[36.3553,34.6807],[36.3556,34.6832],[36.3536,34.6844],[36.3517,34.6839],[36.3501,34.6844],[36.3468,34.6865],[36.344,34.6896],[36.3406,34.6885],[36.3393,34.692],[36.3351,34.6921],[36.3345,34.6911],[36.3299,34.6904],[36.329,34.6891],[36.3214,34.6897],[36.3201,34.6889],[36.3196,34.6866],[36.3167,34.6855],[36.3166,34.6834],[36.3111,34.6828],[36.3104,34.6805],[36.3086,34.6786],[36.3088,34.6776],[36.3071,34.6755],[36.306,34.6709],[36.303,34.6678],[36.3051,34.6609],[36.3087,34.6553],[36.3053,34.6527],[36.3048,34.6479],[36.3011,34.6405],[36.2984,34.6391],[36.2976,34.635],[36.2919,34.6336],[36.2887,34.6303],[36.2873,34.6302],[36.2852,34.6325],[36.2837,34.6325],[36.2821,34.6319],[36.2798,34.6292],[36.2768,34.628],[36.2753,34.6298],[36.2715,34.6297],[36.2674,34.6272],[36.2652,34.6269],[36.2619,34.6303],[36.2592,34.63],[36.255,34.6326],[36.2471,34.6332],[36.2437,34.6362],[36.2408,34.6315],[36.2395,34.6313],[36.2376,34.6326],[36.2367,34.6322],[36.2378,34.6294],[36.2374,34.6273],[36.2277,34.6297],[36.2268,34.6294],[36.227,34.6263],[36.2262,34.6257],[36.2237,34.6265],[36.2227,34.6284],[36.2192,34.6304],[36.2134,34.6304],[36.2103,34.6313],[36.2049,34.6356],[36.1996,34.6371],[36.1955,34.6359],[36.1924,34.6372],[36.1894,34.6374],[36.1879,34.6362],[36.1769,34.6329],[36.1766,34.6305],[36.1751,34.6288],[36.1708,34.6285],[36.1619,34.6335],[36.1494,34.633],[36.1464,34.6355],[36.1428,34.6354],[36.1401,34.6344],[36.1369,34.636],[36.1351,34.6382],[36.1284,34.6397],[36.1269,34.6422],[36.1218,34.6417],[36.1138,34.6335],[36.1091,34.6333],[36.1033,34.6355],[36.1009,34.6344],[36.0999,34.635],[36.0998,34.6363],[36.0981,34.6364],[36.0967,34.6348],[36.0975,34.6327],[36.0941,34.6319],[36.0948,34.6308],[36.0922,34.6289],[36.0918,34.6305],[36.0894,34.6291],[36.0856,34.632],[36.0821,34.6314],[36.0822,34.6307],[36.0809,34.6304],[36.0811,34.6321],[36.0804,34.634],[36.0794,34.6342],[36.0782,34.6336],[36.0762,34.6286],[36.0736,34.628],[36.0736,34.6307],[36.0727,34.6321],[36.0673,34.6338],[36.0661,34.6334],[36.0651,34.6313],[36.0645,34.632],[36.0648,34.6353],[36.063,34.6358],[36.061,34.6353],[36.059,34.6326],[36.0575,34.6332],[36.0542,34.6321],[36.0524,34.6277],[36.0465,34.6298],[36.0442,34.6288],[36.0429,34.6298],[36.0378,34.6283],[36.0368,34.6289],[36.035,34.6274],[36.0335,34.6274],[36.0327,34.6286],[36.0343,34.6295],[36.0344,34.631],[36.0284,34.6297],[36.0249,34.6318],[36.0235,34.6352],[36.0189,34.6359],[36.0112,34.6395],[36.0086,34.6416],[36.0059,34.642],[36.0057,34.643],[36.0078,34.6445],[36.0077,34.6454],[36.0027,34.6448],[35.9965,34.6425],[35.9945,34.6429],[35.9932,34.6446],[35.9924,34.6427],[35.9899,34.6434],[35.9895,34.6464],[35.9912,34.6494],[35.9902,34.6506],[35.9872,34.6494],[35.9864,34.6482],[35.9841,34.6494],[35.9805,34.6495],[35.9812,34.6446],[35.9769,34.6442],[35.9758,34.6431],[35.978,34.6348],[35.9771,34.6341],[35.9752,34.6343],[35.9678,34.654],[35.955,34.6835],[35.9516,34.6932],[35.9492,34.6982],[35.9482,34.6988],[35.9422,34.7146],[35.9354,34.7282],[35.9315,34.7389],[35.9298,34.7469],[35.9294,34.7477],[35.9258,34.7475],[35.9256,34.7478],[35.9305,34.7479],[35.9316,34.7505],[35.9307,34.7538],[35.929,34.7564],[35.9315,34.759],[35.9297,34.7742],[35.9271,34.7837],[35.9085,34.8207],[35.9031,34.8291],[35.892,34.8538],[35.884,34.8679],[35.8825,34.8676],[35.883,34.868],[35.8826,34.8691],[35.8812,34.8691],[35.8804,34.87],[35.8805,34.8708],[35.8812,34.87],[35.8829,34.8709],[35.8829,34.8724],[35.882,34.874],[35.8793,34.8743],[35.878,34.8758],[35.8779,34.8776],[35.8788,34.8753],[35.8802,34.8751],[35.8806,34.8763],[35.8792,34.8769],[35.8809,34.8778],[35.8798,34.8793],[35.8802,34.8802],[35.8788,34.8841],[35.8777,34.8861],[35.8762,34.8869],[35.876,34.8891],[35.8747,34.8902],[35.8759,34.8893],[35.8768,34.8897],[35.8765,34.8905],[35.8754,34.8901],[35.8756,34.8911],[35.8743,34.8931],[35.8735,34.8929],[35.8717,34.8943],[35.8732,34.8953],[35.8711,34.8957],[35.8717,34.897],[35.871,34.8977],[35.8598,34.9005],[35.8576,34.9019],[35.8564,34.9037],[35.8542,34.9102],[35.8569,34.9032],[35.8588,34.9013],[35.8689,34.8987],[35.8726,34.8993],[35.8727,34.9009],[35.8704,34.9018],[35.8709,34.9026],[35.868,34.9021],[35.8736,34.9043],[35.8734,34.905],[35.865,34.9028],[35.8648,34.9044],[35.8728,34.9065],[35.8724,34.9076],[35.8631,34.9055],[35.8639,34.9076],[35.8696,34.9095],[35.8691,34.9104],[35.8624,34.9088],[35.8635,34.9105],[35.8681,34.9117],[35.8678,34.9127],[35.8683,34.9117],[35.8721,34.9127],[35.872,34.9148],[35.8648,34.9129],[35.8592,34.9096],[35.865,34.9132],[35.8745,34.9156],[35.8777,34.9175],[35.8797,34.9199],[35.8798,34.9333],[35.8785,34.9411],[35.8796,34.9489],[35.8787,34.9524],[35.8773,34.9521],[35.8783,34.9525],[35.8784,34.9533],[35.8772,34.9556],[35.8759,34.9555],[35.8773,34.9558],[35.8771,34.9582],[35.8753,34.9609],[35.8746,34.9645],[35.8731,34.9652],[35.8745,34.9654],[35.8719,34.9663],[35.8715,34.9686],[35.8725,34.9663],[35.8731,34.9661],[35.8735,34.9669],[35.8735,34.9659],[35.8751,34.9654],[35.8758,34.9659],[35.8761,34.9676],[35.8754,34.9675],[35.8753,34.9677],[35.8761,34.9677],[35.8762,34.9685],[35.8728,34.9679],[35.876,34.9687],[35.8763,34.9696],[35.8768,34.9747],[35.8779,34.9773],[35.8777,34.9804],[35.8786,34.9823],[35.8781,34.9892],[35.8795,34.99],[35.8799,34.9917],[35.8822,34.9921],[35.8904,34.9988],[35.8918,34.9988],[35.8938,35.0005],[35.8947,35.003],[35.8968,35.0042],[35.8983,35.0094],[35.8968,35.0184],[35.8958,35.0186],[35.8952,35.0202],[35.8963,35.0202],[35.8969,35.0211],[35.8947,35.0279],[35.8963,35.0284],[35.8954,35.0285],[35.8926,35.0419],[35.8894,35.0479],[35.889,35.0504],[35.8864,35.0544],[35.8859,35.06],[35.8838,35.0611],[35.8854,35.0613],[35.8854,35.0643],[35.8909,35.0742],[35.8925,35.081],[35.8911,35.0894],[35.8869,35.099],[35.8877,35.1059],[35.891,35.1088],[35.8923,35.1088],[35.8934,35.1099],[35.8935,35.1128],[35.8956,35.1157],[35.895,35.1173],[35.8964,35.1189],[35.8999,35.1178],[35.9046,35.1195],[35.9066,35.1244],[35.9063,35.1258],[35.9077,35.1269],[35.9071,35.1289],[35.9085,35.1305],[35.9089,35.1325],[35.911,35.1341],[35.9134,35.1414],[35.9155,35.1431],[35.9153,35.1444],[35.9173,35.1453],[35.9173,35.1474],[35.9162,35.1488],[35.9171,35.1482],[35.9165,35.1493],[35.9192,35.1504],[35.9214,35.1496],[35.9228,35.1501],[35.9238,35.1514],[35.9241,35.1538],[35.9272,35.1564],[35.9275,35.1585],[35.9253,35.1695],[35.9227,35.1711],[35.9246,35.1706],[35.9247,35.1714],[35.9234,35.1713],[35.9237,35.1731],[35.9258,35.1731],[35.9263,35.1739],[35.9257,35.1747],[35.9265,35.1747],[35.928,35.1775],[35.9316,35.1804],[35.9406,35.1836],[35.9395,35.1856],[35.942,35.188],[35.9428,35.188],[35.9401,35.1861],[35.941,35.1838],[35.9438,35.1848],[35.9427,35.1851],[35.9438,35.1853],[35.9428,35.1858],[35.9439,35.1864],[35.9426,35.1872],[35.9442,35.187],[35.9465,35.1885],[35.9503,35.1889],[35.9529,35.1933],[35.9534,35.1993],[35.9527,35.2045],[35.9498,35.2135],[35.9476,35.2135],[35.9499,35.214],[35.9492,35.2145],[35.9502,35.2162],[35.9499,35.2191],[35.9495,35.2206],[35.9467,35.2212],[35.9455,35.2225],[35.9452,35.2237],[35.9468,35.2215],[35.9481,35.2213],[35.9484,35.2224],[35.9487,35.2212],[35.9496,35.2211],[35.9488,35.2241],[35.9463,35.2232],[35.9484,35.2243],[35.9484,35.2274],[35.9466,35.2292],[35.9465,35.231],[35.9369,35.2501],[35.9349,35.2519],[35.9342,35.254],[35.9318,35.255],[35.9337,35.2564],[35.9329,35.259],[35.9309,35.2614],[35.9282,35.263],[35.9259,35.2627],[35.9257,35.2612],[35.9242,35.2628],[35.9244,35.2637],[35.9259,35.2638],[35.9247,35.2648],[35.9248,35.2669],[35.9237,35.267],[35.9228,35.272],[35.9202,35.2788],[35.9207,35.284],[35.9217,35.2849],[35.921,35.2899],[35.9223,35.2902],[35.9228,35.2912],[35.9222,35.2928],[35.9236,35.2934],[35.9227,35.2939],[35.9231,35.295],[35.9201,35.3014],[35.9212,35.3038],[35.9218,35.3032],[35.9233,35.3038],[35.9222,35.3051],[35.9212,35.3048],[35.9209,35.3068],[35.9231,35.3069],[35.9235,35.3078],[35.9223,35.3086],[35.9212,35.3082],[35.9194,35.3104],[35.9198,35.3148],[35.9206,35.315],[35.9201,35.3159],[35.9212,35.316],[35.9211,35.3168],[35.9202,35.3166],[35.9206,35.3176],[35.9219,35.3178],[35.9198,35.3191],[35.9207,35.3215],[35.9199,35.3225],[35.9195,35.3267],[35.9201,35.3279],[35.9251,35.3259],[35.9262,35.3274],[35.9248,35.3263],[35.9224,35.3271],[35.9233,35.3295],[35.9202,35.3307],[35.9196,35.3338],[35.9199,35.341],[35.9192,35.3421],[35.9199,35.3425],[35.9193,35.3431],[35.9199,35.3432],[35.9204,35.3451],[35.9227,35.3456],[35.92,35.3475],[35.9198,35.3513],[35.9189,35.352],[35.9206,35.3526],[35.9197,35.3528],[35.9199,35.3551],[35.9192,35.3557],[35.9201,35.3582],[35.9197,35.3591],[35.9182,35.3594],[35.9179,35.3607],[35.9187,35.3595],[35.9209,35.359],[35.9211,35.3599],[35.9188,35.3606],[35.9195,35.3613],[35.9195,35.3647],[35.9192,35.3681],[35.9176,35.3702],[35.9185,35.3752],[35.9175,35.3784],[35.9205,35.3789],[35.9214,35.3813],[35.9207,35.3818],[35.9206,35.3834],[35.9187,35.3837],[35.9205,35.3857],[35.9186,35.3875],[35.9185,35.3883],[35.9199,35.3889],[35.9177,35.3892],[35.9164,35.3932],[35.9171,35.3944],[35.9186,35.3944],[35.9166,35.395],[35.9156,35.4007],[35.9168,35.4006],[35.9163,35.4017],[35.9157,35.4009],[35.9135,35.4086],[35.9111,35.4112],[35.9116,35.414],[35.9132,35.4134],[35.9152,35.4145],[35.9148,35.4177],[35.9088,35.4262],[35.9027,35.4326],[35.8899,35.4445],[35.8727,35.4588],[35.8451,35.4785],[35.8168,35.4964],[35.8024,35.5042],[35.7945,35.5063],[35.7877,35.5068],[35.7837,35.5058],[35.7828,35.5017],[35.7816,35.5008],[35.7822,35.4989],[35.7816,35.4981],[35.7809,35.4986],[35.7801,35.4968],[35.7787,35.4962],[35.7771,35.4973],[35.7766,35.4991],[35.7699,35.5044],[35.7679,35.5045],[35.7663,35.5057],[35.7636,35.5057],[35.7628,35.5073],[35.7606,35.5084],[35.7594,35.5097],[35.7593,35.5111],[35.7622,35.5187],[35.7548,35.5324],[35.7554,35.5325],[35.763,35.5183],[35.7596,35.5109],[35.7599,35.5095],[35.7617,35.5081],[35.7662,35.5145],[35.7685,35.5134],[35.7677,35.5115],[35.7686,35.5113],[35.7691,35.5125],[35.7708,35.5121],[35.7719,35.5143],[35.7685,35.5143],[35.7672,35.5162],[35.7709,35.5274],[35.7699,35.5283],[35.7663,35.5256],[35.7655,35.5276],[35.772,35.5327],[35.772,35.5364],[35.7681,35.54],[35.7645,35.539],[35.7635,35.5394],[35.7618,35.5414],[35.7638,35.5397],[35.766,35.54],[35.7654,35.5419],[35.7645,35.5417],[35.766,35.5436],[35.7645,35.544],[35.763,35.5418],[35.7642,35.5443],[35.7599,35.5465],[35.7583,35.5462],[35.757,35.5439],[35.7554,35.5449],[35.7563,35.5455],[35.7554,35.547],[35.7541,35.5456],[35.7528,35.546],[35.7531,35.5447],[35.752,35.5475],[35.7529,35.5478],[35.7535,35.5472],[35.7546,35.5479],[35.7541,35.5492],[35.7559,35.5482],[35.7567,35.5485],[35.7563,35.5515],[35.7545,35.5518],[35.7545,35.5511],[35.753,35.551],[35.7531,35.5501],[35.7515,35.5506],[35.7472,35.5541],[35.744,35.5554],[35.7437,35.5562],[35.7426,35.5557],[35.7431,35.5566],[35.7416,35.5577],[35.7399,35.5568],[35.7386,35.5573],[35.7381,35.558],[35.7396,35.5595],[35.739,35.5605],[35.7362,35.5616],[35.7347,35.5601],[35.7328,35.561],[35.7334,35.5634],[35.7406,35.5686],[35.7409,35.5706],[35.7397,35.5711],[35.7394,35.5718],[35.7397,35.5723],[35.7399,35.5712],[35.7411,35.5709],[35.7425,35.5721],[35.7418,35.5734],[35.7428,35.5729],[35.7455,35.5739],[35.7458,35.5754],[35.7448,35.5784],[35.742,35.5817],[35.7368,35.5843],[35.7246,35.5804],[35.7238,35.5789],[35.724,35.58],[35.7227,35.5799],[35.721,35.5786],[35.7202,35.5793],[35.7203,35.5823],[35.7183,35.5819],[35.7177,35.5825],[35.7197,35.5845],[35.7186,35.585],[35.718,35.5838],[35.7166,35.586],[35.7172,35.5864],[35.7197,35.5851],[35.7207,35.5857],[35.7206,35.5863],[35.725,35.5848],[35.7257,35.5857],[35.7276,35.5847],[35.7302,35.586],[35.7302,35.5865],[35.7291,35.5863],[35.732,35.588],[35.7338,35.5881],[35.742,35.593],[35.7416,35.5908],[35.7424,35.59],[35.7432,35.5904],[35.7433,35.5903],[35.7426,35.5899],[35.7431,35.5895],[35.7446,35.5896],[35.7442,35.5891],[35.7458,35.5887],[35.7475,35.5888],[35.7473,35.5896],[35.7476,35.5889],[35.7494,35.5889],[35.7521,35.5907],[35.7514,35.5932],[35.7543,35.5934],[35.7559,35.5916],[35.7583,35.5928],[35.7591,35.5954],[35.7578,35.5969],[35.7604,35.5966],[35.76,35.5984],[35.7587,35.5981],[35.7589,35.5988],[35.7621,35.604],[35.7636,35.6032],[35.7621,35.605],[35.7639,35.61],[35.7665,35.6095],[35.7684,35.6112],[35.77,35.6121],[35.7668,35.6094],[35.7686,35.6089],[35.7685,35.6077],[35.7693,35.6076],[35.7694,35.6088],[35.772,35.6069],[35.7756,35.6083],[35.776,35.6099],[35.775,35.6108],[35.776,35.6113],[35.776,35.6121],[35.7747,35.614],[35.7728,35.6144],[35.7722,35.617],[35.7736,35.6183],[35.7749,35.6171],[35.7773,35.6178],[35.7794,35.6215],[35.7801,35.6242],[35.7794,35.625],[35.7811,35.6258],[35.7818,35.6273],[35.7832,35.6275],[35.7828,35.6295],[35.7816,35.63],[35.7832,35.6303],[35.785,35.6329],[35.7845,35.634],[35.783,35.6338],[35.7821,35.6364],[35.7803,35.6371],[35.7792,35.647],[35.778,35.6512],[35.7728,35.6561],[35.7708,35.6557],[35.7681,35.657],[35.77,35.6644],[35.7679,35.6649],[35.7683,35.6697],[35.7722,35.6756],[35.7771,35.6795],[35.7792,35.6798],[35.7822,35.6817],[35.7827,35.6811],[35.7886,35.6816],[35.7874,35.6828],[35.7903,35.6837],[35.7906,35.683],[35.7888,35.6827],[35.7889,35.6821],[35.7919,35.682],[35.7953,35.6842],[35.7948,35.685],[35.7956,35.6855],[35.7959,35.6848],[35.7987,35.685],[35.7994,35.6869],[35.8008,35.6877],[35.8003,35.688],[35.8007,35.6893],[35.7994,35.6904],[35.8004,35.692],[35.8024,35.6922],[35.8039,35.6934],[35.8046,35.6951],[35.807,35.6956],[35.8057,35.6973],[35.8065,35.6989],[35.8055,35.7007],[35.8069,35.7005],[35.8084,35.7015],[35.8078,35.7018],[35.8083,35.7026],[35.8095,35.7023],[35.8102,35.7026],[35.8099,35.7032],[35.8114,35.7031],[35.8114,35.7046],[35.8128,35.7038],[35.8155,35.7046],[35.8171,35.7073],[35.8154,35.7079],[35.8164,35.7083],[35.816,35.7096],[35.818,35.7111],[35.8203,35.7124],[35.8218,35.7118],[35.8224,35.7126],[35.8264,35.7127],[35.8297,35.7145],[35.8319,35.7212],[35.8335,35.7315],[35.8332,35.7341],[35.8353,35.7358],[35.8345,35.738],[35.8368,35.7395],[35.8432,35.7401],[35.8442,35.7415],[35.8453,35.7459],[35.8453,35.7503],[35.8428,35.7624],[35.8415,35.7642],[35.8404,35.7645],[35.8413,35.7659],[35.84,35.7676],[35.841,35.769],[35.8396,35.7723],[35.8409,35.7761],[35.8356,35.7894],[35.834,35.7901],[35.8338,35.7932],[35.8296,35.7945],[35.831,35.7952],[35.8322,35.7974],[35.8314,35.7987],[35.8319,35.8006],[35.8289,35.8022],[35.8297,35.8047],[35.8281,35.8054],[35.8279,35.8079],[35.8265,35.8085],[35.8264,35.8095],[35.8252,35.8092],[35.8204,35.8128],[35.8236,35.8164],[35.8235,35.8172],[35.8217,35.8178],[35.8229,35.8188],[35.8221,35.8203],[35.8223,35.8224],[35.8216,35.8226],[35.8225,35.825],[35.8213,35.8248],[35.8212,35.8262],[35.8201,35.8267],[35.8209,35.8272],[35.8199,35.8294],[35.813,35.8304],[35.8118,35.8317],[35.812,35.8348],[35.807,35.8358],[35.8099,35.841],[35.809,35.8429],[35.8102,35.8441],[35.8103,35.846],[35.8123,35.8475],[35.8118,35.8493],[35.8034,35.8507],[35.8001,35.8522],[35.7997,35.8533],[35.8019,35.8551],[35.8037,35.8543],[35.8064,35.8549],[35.8087,35.8535],[35.8089,35.855],[35.8116,35.8556],[35.8138,35.8575],[35.8148,35.8555],[35.8194,35.856],[35.8207,35.8556],[35.8206,35.855],[35.8196,35.8558],[35.8158,35.8554],[35.8182,35.8529],[35.82,35.8531],[35.8201,35.8546],[35.8203,35.8525],[35.8235,35.8515],[35.8247,35.8533],[35.8272,35.8518],[35.8277,35.8503],[35.8295,35.8497],[35.8426,35.8501],[35.8482,35.852],[35.8531,35.856],[35.8575,35.858],[35.8658,35.8661],[35.8708,35.8652],[35.8737,35.8665],[35.878,35.8708],[35.8806,35.8755],[35.8854,35.889],[35.8868,35.9001],[35.888,35.9009],[35.888,35.9034],[35.8896,35.9041],[35.8897,35.9051],[35.8918,35.9055],[35.8947,35.9123],[35.8947,35.9149],[35.8973,35.9169],[35.8972,35.918],[35.9004,35.9214],[35.9029,35.922],[35.9026,35.9214],[35.9033,35.9214],[35.9037,35.9223],[35.9049,35.9218],[35.9054,35.9226],[35.9072,35.9228],[35.9072,35.9235],[35.9087,35.9232],[35.9109,35.9242],[35.9111,35.9258],[35.9122,35.9266],[35.9118,35.9274],[35.9138,35.9287],[35.9162,35.9278],[35.9178,35.9287],[35.9199,35.9271],[35.9235,35.9215],[35.9276,35.9218],[35.9314,35.9205],[35.9335,35.9215],[35.9331,35.9238],[35.9424,35.9237],[35.9492,35.9249],[35.9485,35.9256],[35.9489,35.9267],[35.9467,35.9279],[35.9527,35.929],[35.9552,35.9282],[35.9576,35.9288],[35.9596,35.9273],[35.9642,35.9295],[35.9673,35.9299],[35.9706,35.9325],[35.9742,35.9321],[35.9753,35.9348],[35.9816,35.9384],[35.986,35.9385],[35.9884,35.9394],[35.9901,35.9389],[35.9932,35.9405],[35.9939,35.9389],[35.995,35.9385],[35.9989,35.9397],[35.9992,35.9385],[36.0006,35.94],[36.0058,35.9402],[36.0175,35.9205],[36.0146,35.9152],[36.013,35.9136],[36.0124,35.9116],[36.0097,35.9083],[36.0103,35.9049],[36.0075,35.9023],[36.005,35.8953],[36.0018,35.8912],[36.0018,35.8895],[36.0001,35.8871],[36.0007,35.8864],[35.9979,35.8847],[35.9992,35.8806],[36.0004,35.8801],[36.0036,35.8812],[36.0142,35.8807],[36.0177,35.8818],[36.0207,35.8809],[36.0233,35.882],[36.0265,35.8822],[36.0299,35.8807],[36.0311,35.8769],[36.0332,35.8765],[36.0408,35.8717],[36.0424,35.8717],[36.0429,35.8729],[36.0452,35.873],[36.0476,35.8744],[36.055,35.8731],[36.0568,35.875],[36.0586,35.8731],[36.061,35.873],[36.0649,35.8703],[36.0662,35.8657],[36.0669,35.8676],[36.0685,35.8684],[36.071,35.8674],[36.0786,35.8687],[36.0809,35.8676],[36.0883,35.8673],[36.0901,35.8646],[36.0949,35.8636],[36.1001,35.8668],[36.1035,35.8651],[36.1071,35.862],[36.115,35.8601],[36.1155,35.855],[36.1172,35.8544],[36.1204,35.8547],[36.1206,35.8532],[36.1221,35.8532],[36.1229,35.8516],[36.1248,35.8512],[36.1298,35.8471],[36.1336,35.8428],[36.1349,35.8395],[36.137,35.8369],[36.138,35.8337],[36.1367,35.8317],[36.1375,35.8307],[36.137,35.829],[36.1392,35.8282],[36.1388,35.827],[36.1373,35.8264],[36.138,35.8251],[36.1365,35.8236],[36.1384,35.823],[36.139,35.8216],[36.1395,35.8174],[36.1384,35.8149],[36.1392,35.8135],[36.1412,35.8126],[36.1433,35.8101],[36.1474,35.8105],[36.1492,35.8097],[36.1503,35.8077],[36.1527,35.806],[36.1566,35.8078],[36.158,35.8099],[36.1665,35.8126],[36.166,35.8141],[36.1667,35.8167],[36.1653,35.8183],[36.1667,35.8207],[36.1664,35.8233],[36.1681,35.8243],[36.1691,35.8261],[36.1713,35.8259],[36.1732,35.8267],[36.1723,35.8298],[36.1742,35.8357],[36.173,35.8401],[36.1763,35.8468],[36.1718,35.8499],[36.1742,35.859],[36.1742,35.8629],[36.1759,35.8681],[36.1748,35.8727],[36.1727,35.877],[36.1729,35.8792],[36.1705,35.8806],[36.1705,35.8818],[36.1687,35.8828],[36.169,35.884],[36.1713,35.8853],[36.1722,35.888],[36.1709,35.888],[36.1743,35.8933],[36.1748,35.9037],[36.1742,35.9111],[36.1759,35.921],[36.1777,35.9239],[36.1803,35.9255],[36.1797,35.9271],[36.1818,35.9299],[36.1813,35.9323],[36.1843,35.934],[36.1866,35.9369],[36.1868,35.9389],[36.1906,35.941],[36.1986,35.9485],[36.2006,35.9483],[36.2035,35.9498],[36.2047,35.9496],[36.2075,35.9519],[36.2145,35.9513],[36.2169,35.953],[36.2167,35.9507],[36.2176,35.95],[36.2193,35.9517],[36.2217,35.9511],[36.2231,35.9522],[36.2256,35.9521],[36.2259,35.953],[36.2278,35.9535],[36.2285,35.9547],[36.2278,35.9559],[36.2293,35.9564],[36.2302,35.9563],[36.233,35.9533],[36.2367,35.9565],[36.2373,35.955],[36.2409,35.9553],[36.2412,35.9528],[36.242,35.9544],[36.2439,35.9535],[36.2446,35.9559],[36.2435,35.96],[36.2493,35.962],[36.2547,35.9627],[36.2607,35.9611],[36.2663,35.9551],[36.2673,35.9517],[36.2688,35.9511],[36.2699,35.9487],[36.2754,35.9467],[36.2785,35.9494],[36.283,35.9495],[36.2854,35.9508],[36.2883,35.9505],[36.288,35.9522],[36.2912,35.954],[36.2948,35.9547],[36.2992,35.9616],[36.2994,35.9638],[36.2959,35.97],[36.2931,35.9713],[36.2902,35.9753],[36.2899,35.9791],[36.2869,35.9852],[36.2876,35.9883],[36.2863,35.9901],[36.2881,35.9904],[36.2882,35.9922],[36.2875,35.9933],[36.2862,35.9932],[36.2873,35.9942],[36.2855,35.9975],[36.2882,35.9993],[36.286,36.0019],[36.2866,36.0034],[36.2889,36.0034],[36.2915,36.0055],[36.2903,36.0077],[36.2907,36.0083],[36.294,36.0085],[36.2978,36.0071],[36.3005,36.0085],[36.3029,36.0064],[36.3066,36.0063],[36.3075,36.0055],[36.3064,36.0047],[36.3068,36.0042],[36.3118,36.0025],[36.3149,36.0025],[36.32,36.0006],[36.3237,35.9974],[36.3238,35.9963],[36.3319,35.9896],[36.3396,35.9881],[36.3453,35.9896],[36.346,35.9909],[36.3665,36.0017],[36.3728,36.007],[36.3762,36.0116],[36.374,36.0143],[36.3766,36.0174],[36.3758,36.0192],[36.3696,36.0196],[36.3699,36.0204],[36.3722,36.0206],[36.3735,36.0228],[36.3715,36.0248],[36.3797,36.0292],[36.3794,36.0305],[36.3773,36.0318],[36.3805,36.0344],[36.3796,36.0365],[36.3804,36.0378],[36.3892,36.0397],[36.3899,36.0409],[36.3894,36.0422],[36.3873,36.0435],[36.3804,36.0438],[36.3797,36.0447],[36.3788,36.0486],[36.3815,36.0492],[36.3833,36.0506],[36.3861,36.0495],[36.3871,36.0524],[36.3788,36.0566],[36.381,36.0587],[36.379,36.0626],[36.3809,36.0655],[36.3791,36.0683],[36.38,36.0706],[36.3785,36.072],[36.3815,36.075],[36.383,36.0752],[36.3845,36.0741],[36.3866,36.0748],[36.3872,36.0762],[36.386,36.0776],[36.3887,36.0785],[36.3901,36.082],[36.3781,36.0944],[36.3766,36.0989],[36.378,36.0998],[36.3808,36.0994],[36.3837,36.0951],[36.3853,36.0945],[36.3864,36.0963],[36.3857,36.1026],[36.3811,36.1052],[36.3801,36.1046],[36.3792,36.102],[36.3752,36.1029],[36.3746,36.1044],[36.3753,36.1059],[36.3778,36.1068],[36.3811,36.1065],[36.3814,36.1088],[36.3794,36.1108],[36.3749,36.1094],[36.3754,36.1109],[36.3744,36.1143],[36.3703,36.1168],[36.3727,36.1184],[36.3757,36.1187],[36.3773,36.118],[36.3785,36.1154],[36.3797,36.1158],[36.3796,36.1179],[36.3782,36.119],[36.3774,36.1225],[36.3721,36.1214],[36.3715,36.1223],[36.3737,36.1246],[36.3779,36.1253],[36.3747,36.1278],[36.375,36.1285],[36.3806,36.131],[36.3841,36.1307],[36.3822,36.1322],[36.3828,36.1332],[36.3823,36.1353],[36.3842,36.1376],[36.3843,36.1402],[36.3879,36.1409],[36.3858,36.1436],[36.3865,36.1444],[36.3885,36.1439],[36.3889,36.1459],[36.3857,36.1472],[36.3835,36.1493],[36.3814,36.1487],[36.3798,36.1471],[36.3785,36.1475],[36.376,36.1528],[36.3798,36.153],[36.3806,36.1537],[36.3805,36.1552],[36.3762,36.1574],[36.3728,36.1569],[36.3704,36.1588],[36.3675,36.1594],[36.3689,36.1658],[36.3653,36.167],[36.366,36.1682],[36.3682,36.168],[36.3693,36.1687],[36.3702,36.1714],[36.3716,36.1713],[36.3729,36.1698],[36.3742,36.1709],[36.3741,36.1726],[36.3678,36.1779],[36.368,36.1798],[36.3706,36.18],[36.3725,36.1784],[36.3742,36.1808],[36.3768,36.1822],[36.3775,36.184],[36.3805,36.1828],[36.3816,36.1841],[36.3808,36.188],[36.3847,36.1893],[36.3871,36.1889],[36.387,36.1874],[36.383,36.1863],[36.3823,36.1853],[36.3871,36.1834],[36.3883,36.1846],[36.388,36.1864],[36.389,36.1877],[36.3916,36.1883],[36.3959,36.1879],[36.3969,36.1895],[36.3966,36.1923],[36.3984,36.1921],[36.3986,36.1903],[36.3997,36.1908],[36.4002,36.1927],[36.3997,36.1943],[36.3954,36.1965],[36.396,36.1996],[36.394,36.1993],[36.3933,36.1981],[36.3949,36.1951],[36.3936,36.1951],[36.3907,36.1968],[36.3909,36.1984],[36.3923,36.1997],[36.3913,36.2022],[36.3923,36.2042],[36.394,36.2042],[36.3962,36.2017],[36.3969,36.2023],[36.3941,36.2083],[36.3919,36.2105],[36.3907,36.2105],[36.3894,36.2069],[36.3877,36.2069],[36.3877,36.2094],[36.3898,36.2106],[36.3909,36.2124],[36.3898,36.2151],[36.3868,36.2157],[36.3834,36.213],[36.3812,36.2156],[36.3819,36.2171],[36.3847,36.2181],[36.3893,36.2183],[36.3893,36.2193],[36.395,36.2252],[36.4288,36.2074],[36.4367,36.2062],[36.446,36.2061],[36.4568,36.2077],[36.4556,36.2048],[36.4558,36.2025],[36.4606,36.1989],[36.4653,36.198],[36.465,36.1966],[36.4675,36.1971],[36.4699,36.1988],[36.47,36.2009],[36.4735,36.2017],[36.4737,36.2038],[36.4721,36.2079],[36.4763,36.2124],[36.4763,36.2143],[36.4863,36.2185],[36.485,36.2202],[36.4844,36.2234],[36.4863,36.2254],[36.4831,36.2328],[36.4912,36.23],[36.4925,36.2267],[36.4997,36.2235],[36.5034,36.2262],[36.5012,36.2285],[36.5008,36.2307],[36.5018,36.2318],[36.502,36.2358],[36.5036,36.2414],[36.5078,36.2404],[36.5118,36.2424],[36.5194,36.2429],[36.5238,36.2429],[36.5262,36.242],[36.5343,36.2442],[36.543,36.2332],[36.5491,36.2272],[36.5534,36.2241],[36.5581,36.2272],[36.5617,36.2307],[36.5602,36.2342],[36.5633,36.2366],[36.575,36.2322],[36.5826,36.2263],[36.5848,36.2257],[36.5902,36.2268],[36.6022,36.222],[36.6014,36.2209],[36.6028,36.2202],[36.615,36.2159],[36.6245,36.2144],[36.6256,36.217],[36.6286,36.2188],[36.6276,36.221],[36.6287,36.224],[36.6269,36.224],[36.626,36.225],[36.6276,36.2312],[36.6304,36.2312],[36.6392,36.229],[36.6421,36.2297],[36.64,36.2317],[36.6413,36.2332],[36.6463,36.2335],[36.6532,36.2309],[36.6578,36.2278],[36.6624,36.227],[36.6672,36.2289],[36.6656,36.232],[36.6662,36.2347],[36.6731,36.2355],[36.6743,36.2334],[36.6769,36.2317],[36.6789,36.2332],[36.6811,36.233],[36.6823,36.2372],[36.6833,36.238],[36.6951,36.2393],[36.694,36.2405],[36.7042,36.2433],[36.7049,36.2453],[36.7045,36.2482],[36.6981,36.2511],[36.7003,36.2514],[36.7014,36.2524],[36.6981,36.2532],[36.6971,36.2572],[36.6897,36.2621],[36.6869,36.2666],[36.6809,36.2712],[36.6808,36.2756],[36.6782,36.2771],[36.6809,36.2786],[36.6838,36.284],[36.6871,36.2865],[36.6889,36.2894],[36.6924,36.2904],[36.692,36.2927],[36.6843,36.2924],[36.6699,36.2966],[36.6575,36.2963],[36.6538,36.2976],[36.6521,36.3138],[36.6564,36.3196],[36.6619,36.3251],[36.6643,36.3257],[36.6646,36.3266],[36.6645,36.3298],[36.6623,36.3328],[36.6597,36.334],[36.6574,36.3388],[36.6521,36.3389],[36.6418,36.3359],[36.6374,36.3419],[36.631,36.3449],[36.6291,36.345],[36.626,36.343],[36.6273,36.3413],[36.6275,36.3389],[36.6263,36.3372],[36.6242,36.3385],[36.6229,36.3365],[36.6188,36.3343],[36.6172,36.3344],[36.6158,36.336],[36.6128,36.3372],[36.6092,36.3362],[36.608,36.3346],[36.6086,36.3324],[36.6052,36.3323],[36.6051,36.3304],[36.6072,36.3256],[36.6042,36.3252],[36.6055,36.3268],[36.6027,36.332],[36.5996,36.3436],[36.599,36.3495],[36.6047,36.35],[36.6116,36.3525],[36.6185,36.3575],[36.6029,36.3672],[36.5994,36.3685],[36.5968,36.3725],[36.6023,36.373],[36.605,36.3762],[36.6061,36.3799],[36.6051,36.3817],[36.6049,36.3889],[36.606,36.3922],[36.6074,36.3933],[36.5863,36.3919],[36.5806,36.4073],[36.5794,36.4083],[36.5752,36.4167],[36.5729,36.4178],[36.5717,36.4198],[36.5665,36.4193],[36.5638,36.4274],[36.5656,36.4313],[36.5666,36.4382],[36.565,36.4404],[36.5616,36.4389],[36.5594,36.4397],[36.5577,36.442],[36.5551,36.4433],[36.5554,36.4476],[36.5576,36.4505],[36.5562,36.452],[36.559,36.4533],[36.5575,36.4545],[36.5593,36.4573],[36.5583,36.4589],[36.562,36.4637],[36.5553,36.4659],[36.5532,36.4675],[36.5554,36.4739],[36.5507,36.4798],[36.5452,36.4808],[36.5436,36.4843],[36.5463,36.4874],[36.5492,36.4891],[36.5477,36.4947],[36.5481,36.4974],[36.5458,36.497],[36.5455,36.4997],[36.5466,36.4998],[36.5467,36.5007],[36.5442,36.5018],[36.5508,36.5085],[36.5634,36.5179],[36.568,36.5222],[36.5698,36.5261],[36.5747,36.5287],[36.5757,36.5303],[36.5824,36.5562],[36.5839,36.568],[36.5887,36.5825],[36.591,36.5852],[36.5868,36.5932],[36.5846,36.6014],[36.5823,36.6033],[36.5791,36.6083],[36.5761,36.6398],[36.5763,36.6597],[36.5778,36.6587],[36.5819,36.6601],[36.5845,36.6623],[36.5879,36.6618],[36.588,36.6649],[36.5892,36.6666],[36.5893,36.6689],[36.5918,36.6691],[36.5936,36.6711],[36.5956,36.6708],[36.5999,36.6725],[36.6028,36.6767],[36.6081,36.6771],[36.6089,36.6786],[36.6087,36.6815],[36.6103,36.6822],[36.6123,36.6846],[36.6118,36.6861],[36.6132,36.6885],[36.6125,36.6904],[36.6144,36.6928],[36.6195,36.694],[36.6196,36.6957],[36.6235,36.7008],[36.629,36.7056],[36.6314,36.7128],[36.6302,36.7158],[36.6304,36.7199],[36.6281,36.7194],[36.6256,36.7206],[36.6213,36.7266],[36.6187,36.7282],[36.6194,36.7306],[36.6161,36.7358],[36.6174,36.7381],[36.6145,36.7403],[36.6159,36.7417],[36.6129,36.7438],[36.6128,36.7455],[36.6207,36.7535],[36.6214,36.7559],[36.6258,36.7605],[36.6254,36.762],[36.629,36.7628],[36.628,36.7647],[36.628,36.7668],[36.6349,36.7678],[36.6346,36.7711],[36.6377,36.7708],[36.6392,36.7694],[36.6404,36.7694],[36.6394,36.7739],[36.6436,36.7778],[36.6438,36.7792],[36.6425,36.78],[36.6427,36.7814],[36.6459,36.7864],[36.6486,36.7863],[36.649,36.787],[36.6508,36.7865],[36.6518,36.787],[36.6519,36.7883],[36.6558,36.7891],[36.6581,36.7931],[36.6619,36.7929],[36.6629,36.7944],[36.6626,36.7952],[36.6643,36.7958],[36.6642,36.7979],[36.6669,36.7984],[36.6671,36.8003],[36.6707,36.8013],[36.6694,36.8027],[36.6699,36.805],[36.6686,36.806],[36.6709,36.8074],[36.6706,36.8091],[36.6713,36.8101],[36.6695,36.8129],[36.6681,36.8122],[36.6669,36.8132],[36.668,36.8143],[36.6675,36.816],[36.6711,36.8193],[36.6716,36.8208],[36.6712,36.8215],[36.669,36.8214],[36.6688,36.8224],[36.6696,36.8228],[36.6693,36.8242],[36.6651,36.8269],[36.6653,36.8282],[36.6674,36.8277],[36.6699,36.829],[36.6779,36.8276],[36.6795,36.8261],[36.6827,36.8265],[36.685,36.8256],[36.6894,36.8258],[36.6942,36.8272],[36.6976,36.8272],[36.7012,36.826],[36.7032,36.8267],[36.7045,36.826],[36.711,36.826],[36.7161,36.828],[36.7238,36.8259],[36.7263,36.8242],[36.7261,36.8227],[36.728,36.8213],[36.733,36.8206],[36.7336,36.8196],[36.7371,36.8197],[36.7393,36.8184],[36.7453,36.8203],[36.7516,36.8193],[36.7613,36.8125],[36.763,36.8099],[36.7675,36.8084],[36.7683,36.8062],[36.7702,36.8068],[36.7884,36.7971],[36.791,36.7973],[36.7931,36.7963],[36.795,36.7968],[36.7983,36.7954],[36.7981,36.7945],[36.7997,36.7935],[36.8125,36.7924],[36.8174,36.7908],[36.8198,36.7889],[36.8203,36.7901],[36.8227,36.791],[36.8288,36.7921],[36.8678,36.7824],[36.8713,36.7809],[36.8757,36.7806],[36.8845,36.7772],[36.8892,36.7786],[36.8972,36.7771],[36.9034,36.7777],[36.907,36.7791],[36.9095,36.7813],[36.9141,36.7838],[36.9228,36.7854],[36.9288,36.7821],[36.9284,36.7788],[36.9301,36.7787],[36.9312,36.7802],[36.9348,36.7796],[36.9327,36.776],[36.9335,36.7739],[36.9352,36.7737],[36.9387,36.7754],[36.9415,36.7734],[36.9464,36.7757],[36.9554,36.7699],[36.9617,36.7678],[36.9705,36.7632],[36.981,36.7617],[36.9851,36.7618],[36.9964,36.7647],[36.9986,36.7623],[36.996,36.7585],[36.9967,36.7548],[37.0001,36.7507],[36.9988,36.7474],[36.993,36.7435],[36.9928,36.7423],[36.9958,36.7412],[36.9962,36.7385],[37.0019,36.7369],[37.0152,36.7359],[37.022,36.7369],[37.0364,36.736],[37.0409,36.7302],[37.0413,36.7277],[37.0463,36.7242],[37.0478,36.7204],[37.0463,36.7173],[37.0466,36.7154],[37.0437,36.7143],[37.0433,36.7113],[37.0412,36.7103],[37.0416,36.7082],[37.0399,36.7034],[37.0314,36.699],[37.0205,36.6986],[37.0173,36.6954],[37.0172,36.6932],[37.0146,36.6901],[37.0138,36.6865],[37.0144,36.6855],[37.0196,36.682],[37.0205,36.6651],[37.0349,36.6647],[37.0496,36.657],[37.0571,36.655],[37.0571,36.6454],[37.0859,36.6343],[37.1,36.6488],[37.1065,36.6714],[37.114,36.6717],[37.1206,36.6664],[37.1242,36.6654],[37.1344,36.6712],[37.142,36.6767],[37.1441,36.6731],[37.1526,36.6645],[37.1549,36.6611],[37.1576,36.6613],[37.159,36.6606],[37.1603,36.6576],[37.1625,36.6555],[37.1707,36.6582],[37.1765,36.6591],[37.1766,36.6602],[37.1793,36.6618],[37.1866,36.6631],[37.2103,36.6727],[37.215,36.6731],[37.2165,36.6745],[37.2201,36.674],[37.2238,36.6722],[37.2256,36.673],[37.2275,36.6717],[37.2312,36.6723],[37.2379,36.6715],[37.241,36.6701],[37.2469,36.6703],[37.2553,36.6693],[37.2584,36.6677],[37.2652,36.6672],[37.2779,36.6632],[37.2792,36.6698],[37.2829,36.67],[37.2912,36.6682],[37.2911,36.6658],[37.296,36.6636],[37.3036,36.6658],[37.3255,36.6615],[37.3551,36.6568],[37.3589,36.6554],[37.3927,36.6489],[37.4063,36.6438],[37.4244,36.6428],[37.4429,36.6325],[37.452,36.6322],[37.4585,36.634],[37.4701,36.634],[37.4721,36.6334],[37.4726,36.6321],[37.4741,36.6331],[37.4871,36.6496],[37.4881,36.6532],[37.4887,36.6672],[37.4905,36.6699],[37.4969,36.6745],[37.5247,36.6876],[37.5612,36.7008],[37.5804,36.709],[37.6092,36.7193],[37.6218,36.7247],[37.6579,36.7489],[37.6626,36.7496],[37.6654,36.749],[37.6717,36.7446],[37.6771,36.7426],[37.6848,36.7446],[37.6975,36.7558],[37.7035,36.7575],[37.728,36.7516],[37.7789,36.7489],[37.7833,36.7494],[37.7878,36.7519],[37.7962,36.7609],[37.8,36.7633],[37.827,36.7686],[37.8776,36.7874],[37.9032,36.7915],[37.9058,36.7931],[37.9243,36.8103],[37.9409,36.8186],[37.9635,36.8208],[37.9936,36.832],[38.0082,36.8292],[38.0145,36.8257],[38.0189,36.8261],[38.0296,36.8335],[38.0321,36.8372],[38.0322,36.8395],[38.0287,36.847],[38.0288,36.8522],[38.0296,36.8542],[38.0358,36.8602],[38.0412,36.8616],[38.0455,36.8642],[38.0564,36.8659],[38.0625,36.8635],[38.0662,36.8637],[38.069,36.8654],[38.072,36.8709],[38.0793,36.8758],[38.0886,36.8777],[38.0945,36.876],[38.0977,36.8761],[38.1038,36.8804],[38.11,36.8802],[38.1123,36.8809],[38.116,36.8849],[38.1201,36.8867],[38.1227,36.8903],[38.1294,36.8919],[38.1337,36.8948],[38.1365,36.8952],[38.1435,36.8936],[38.1557,36.8976],[38.161,36.8985],[38.1632,36.8998],[38.1643,36.9015],[38.1642,36.9079],[38.1673,36.9101],[38.1746,36.9116],[38.1829,36.9089],[38.1925,36.9095],[38.1985,36.9082],[38.2136,36.9077],[38.2181,36.9097],[38.2225,36.9136],[38.2286,36.9163],[38.2315,36.9193],[38.237,36.9229],[38.2418,36.9239],[38.2556,36.9197],[38.2625,36.9156],[38.266,36.9143],[38.2948,36.9075],[38.3401,36.8998],[38.3496,36.8995],[38.3833,36.9026],[38.3923,36.9017],[38.5542,36.8447],[38.5592,36.8406],[38.5675,36.8251],[38.5744,36.8241],[38.5837,36.8269],[38.5885,36.8259],[38.5909,36.8227],[38.5902,36.8168],[38.5906,36.8139],[38.5931,36.8075],[38.5958,36.8045],[38.6048,36.7999],[38.6118,36.7936],[38.6369,36.7784],[38.6442,36.7713],[38.691,36.7346],[38.7306,36.7114],[38.7385,36.7081],[38.7494,36.7064],[38.8924,36.7005],[38.9281,36.7045],[38.9536,36.7045],[38.9552,36.7052],[39.0212,36.7105],[39.0655,36.705],[39.1282,36.6866],[39.1495,36.6829],[39.2084,36.6693],[39.2127,36.6689],[39.2632,36.6747],[39.3625,36.6919],[39.3772,36.6929],[39.3878,36.6924],[39.398,36.6942],[39.4913,36.7001],[39.5451,36.7136],[39.5956,36.7229],[39.6405,36.7246],[39.6836,36.7385],[39.7088,36.749],[39.7151,36.7503],[39.8207,36.7565],[39.828,36.7601],[39.8372,36.7632],[39.8473,36.7719],[39.852,36.7739],[39.8558,36.7767],[39.876,36.7832],[39.9296,36.7968],[39.9992,36.8223],[40.0313,36.8266],[40.0526,36.8427],[40.0565,36.8477],[40.0592,36.8539],[40.0621,36.856],[40.0787,36.8584],[40.1119,36.8674],[40.1453,36.8695],[40.1843,36.8781],[40.1961,36.8876],[40.2231,36.9025],[40.2387,36.915],[40.2618,36.9197],[40.2671,36.9216],[40.307,36.9394],[40.3383,36.958],[40.3431,36.9595],[40.3511,36.9606],[40.3565,36.9626],[40.3791,36.9796],[40.3812,36.9841],[40.383,36.9915],[40.3987,37.008],[40.4134,37.0152],[40.4155,37.0157],[40.4161,37.0117],[40.4196,37.0119],[40.4192,37.0163],[40.53,37.0279],[40.5712,37.0492],[40.5893,37.0618],[40.5936,37.0627],[40.6153,37.0635],[40.6185,37.0642],[40.6321,37.0726],[40.6773,37.0917],[40.6955,37.1032],[40.7006,37.1041],[40.7124,37.104],[40.7224,37.1079],[40.7421,37.1108],[40.7493,37.1092],[40.7533,37.1097],[40.7564,37.1123],[40.7625,37.1253],[40.7653,37.1274],[40.7696,37.1272],[40.7759,37.1225],[40.7982,37.119],[40.8014,37.1199],[40.8085,37.1255],[40.8117,37.1256],[40.816,37.1209],[40.8196,37.1131],[40.8214,37.1112],[40.8322,37.1068],[40.8346,37.1065],[40.8372,37.1072],[40.8428,37.1105],[40.8442,37.1126],[40.8457,37.1194],[40.8494,37.1224],[40.8727,37.1288],[40.889,37.1278],[40.9036,37.1315],[40.9089,37.132],[40.9154,37.1313],[40.9821,37.1158],[41.0123,37.1155],[41.0866,37.1018],[41.0895,37.0992],[41.0923,37.099],[41.0921,37.1011],[41.0945,37.1007],[41.1054,37.0975],[41.1047,37.0953],[41.1059,37.0945],[41.11,37.0962],[41.1174,37.0941],[41.12,37.0942],[41.127,37.0971],[41.1347,37.0947],[41.1447,37.0975],[41.1629,37.0947],[41.1682,37.0925],[41.1679,37.0881],[41.1699,37.0877],[41.1731,37.0898],[41.1798,37.0862],[41.1892,37.0839],[41.1981,37.0802],[41.1981,37.0638],[41.2182,37.062],[41.2229,37.0678],[41.223,37.0686],[41.2214,37.0697],[41.2315,37.0737],[41.2375,37.0758],[41.2669,37.0797],[41.2724,37.0785],[41.2796,37.0802],[41.2943,37.0808],[41.3516,37.0789],[41.3599,37.0767],[41.3703,37.0753],[41.373,37.0759],[41.3752,37.0779],[41.3792,37.079],[41.4746,37.0797],[41.5175,37.0777],[41.5192,37.0789],[41.5217,37.0824],[41.5234,37.0832],[41.5484,37.0849],[41.5535,37.0864],[41.5738,37.0935],[41.5854,37.0996],[41.5947,37.102],[41.6038,37.1071],[41.6185,37.1101],[41.6231,37.1102],[41.6302,37.1085],[41.6368,37.1142],[41.6609,37.1182],[41.6772,37.1157],[41.6944,37.1141],[41.7935,37.1279],[41.8064,37.1338],[41.8162,37.1349],[41.8242,37.1378],[41.8577,37.1415],[41.8747,37.1448],[41.9237,37.157],[41.9304,37.158],[41.9444,37.1571],[41.9519,37.1576],[41.9656,37.1615],[41.9789,37.1703],[41.9889,37.1726],[41.9952,37.1754],[42.0033,37.1814],[42.0052,37.1815],[42.0079,37.1797],[42.0346,37.1818],[42.0429,37.1865],[42.0566,37.198],[42.0772,37.2069],[42.0795,37.2075],[42.0881,37.2069],[42.0892,37.2075],[42.0911,37.2103],[42.0928,37.216],[42.0986,37.2239],[42.1217,37.242],[42.1294,37.2459],[42.1542,37.2653],[42.1849,37.2872],[42.1923,37.298],[42.191,37.2996],[42.1916,37.3031],[42.1948,37.3061],[42.1964,37.3112],[42.1995,37.3113],[42.2012,37.3133],[42.2014,37.3149],[42.2031,37.3161],[42.206,37.3163],[42.2071,37.3185],[42.222,37.3182],[42.2249,37.316],[42.2257,37.3127],[42.2247,37.3088],[42.2204,37.3062],[42.214,37.3001],[42.2095,37.2945],[42.2076,37.2905],[42.2081,37.284],[42.2052,37.2814],[42.205,37.2802],[42.2109,37.2776],[42.2179,37.2772],[42.2237,37.2785],[42.2338,37.2825],[42.237,37.2827],[42.2444,37.2798],[42.2573,37.2722],[42.2606,37.2713],[42.2681,37.2734],[42.28,37.2816],[42.2831,37.2821],[42.2846,37.2811],[42.2875,37.2762],[42.2891,37.2658],[42.2916,37.262],[42.2935,37.2612],[42.2997,37.2614],[42.3066,37.2598],[42.3106,37.2565],[42.3166,37.2464],[42.3309,37.239],[42.3378,37.2381],[42.3424,37.2332],[42.3431,37.2299],[42.3404,37.2247],[42.34,37.2214],[42.342,37.2196],[42.3469,37.2172],[42.3479,37.2143],[42.3378,37.21],[42.332,37.204],[42.3219,37.1901],[42.3202,37.1847],[42.3237,37.1755],[42.3306,37.1655],[42.3309,37.1636],[42.3295,37.1594],[42.3302,37.1544],[42.3453,37.1368],[42.3476,37.1351],[42.3517,37.1336],[42.3541,37.1302],[42.3548,37.122],[42.3506,37.116],[42.3483,37.1097],[42.3508,37.1041],[42.3526,37.0959],[42.3505,37.0891],[42.3532,37.0852],[42.3696,37.0798],[42.3741,37.0765],[42.3745,37.0744],[42.369,37.0648],[42.3687,37.0607],[42.365,37.0595],[42.3621,37.057],[42.3569,37.0557],[42.3365,37.0382],[42.3247,37.027],[41.9998,36.7386],[41.9796,36.7102],[41.9786,36.7068],[41.9757,36.7079],[41.9752,36.7067],[41.9724,36.7066],[41.9703,36.7006],[41.9682,36.6992],[41.9417,36.6866],[41.8857,36.6366],[41.8172,36.5876],[41.4022,36.5241],[41.3998,36.5225],[41.3919,36.5126],[41.2949,36.3668],[41.2939,36.3648],[41.2941,36.3629],[41.2962,36.3611],[41.2966,36.3577],[41.3002,36.3556],[41.3003,36.3498],[41.2998,36.349],[41.298,36.3504],[41.2964,36.3502],[41.2957,36.3484],[41.297,36.3464],[41.2935,36.3455],[41.2892,36.3396],[41.2891,36.3374],[41.2865,36.3349],[41.2863,36.3283],[41.2841,36.321],[41.2845,36.2963],[41.2729,36.1828],[41.2558,36.06],[41.3694,35.8436],[41.3784,35.7051],[41.382,35.6253],[41.268,35.485],[41.2674,35.467],[41.2611,35.4549],[41.2601,35.4419],[41.2557,35.4181],[41.2657,35.3838],[41.2196,35.2591],[41.2176,35.2002],[41.2137,35.1714],[41.2086,35.1428],[41.2212,34.9082],[41.2246,34.8263],[41.2257,34.8193],[41.2277,34.8143],[41.2286,34.8059],[41.2281,34.801],[41.2257,34.7924],[41.2274,34.7785],[41.2222,34.7767],[41.2208,34.7752],[41.219,34.7721],[41.2194,34.7709],[41.2159,34.7673],[41.2143,34.7632],[41.1228,34.6543],[41.0195,34.4544],[41.0162,34.4459],[41.0142,34.4459],[41.0034,34.4366],[41.0028,34.435],[40.9943,34.4243],[40.9836,34.4126],[40.978,34.398],[40.9654,34.395],[40.9608,34.3956],[40.9511,34.3942],[40.9367,34.3905],[40.9323,34.3908],[40.927,34.39],[40.9189,34.3856],[40.9155,34.3829],[40.6401,34.3152],[40.2358,34.1136],[40.0164,34.0031],[39.6765,33.8315],[39.6388,33.8112],[39.5001,33.7408],[39.1398,33.5548],[39.066,33.5175],[39.0518,33.5094],[39.0331,33.5005],[38.7936,33.3751],[38.7926,33.3745],[38.793,33.3734],[38.7868,33.3702],[38.7683,33.3572],[38.7603,33.3567],[38.7582,33.3559],[38.7282,33.3377],[38.701,33.3244],[38.6921,33.3189],[38.6816,33.3146],[38.6719,33.3083],[38.5905,33.2665],[38.5756,33.2578],[38.4276,33.1801],[38.4143,33.1745],[38.397,33.1695],[38.3758,33.1668],[38.3633,33.1631],[38.3503,33.1416],[38.3131,33.12],[38.2728,33.0978],[38.2298,33.0775],[38.2104,33.0656],[38.0927,33.0017],[38.0529,32.9814],[38.0426,32.9749],[38.0284,32.9679],[37.943,32.9219],[37.9001,32.8977],[37.888,32.8939],[37.8788,32.888],[37.852,32.8739],[37.8472,32.8733],[37.8419,32.8685],[37.8191,32.8552],[37.7972,32.8436],[37.7934,32.8378],[37.7855,32.8128],[37.7783,32.8015],[37.7729,32.791],[37.7643,32.7803],[37.7636,32.7785],[37.7526,32.7743],[37.7492,32.7714],[37.7461,32.7659],[37.7402,32.7617],[37.7326,32.7616],[37.7271,32.7601],[37.7242,32.7603],[37.7176,32.7576],[37.7075,32.7579],[37.7035,32.755],[37.6984,32.7533],[37.6869,32.7475],[37.6818,32.7478],[37.6578,32.7435],[37.646,32.7443],[37.6359,32.7418],[37.615,32.7396],[37.5939,32.7352],[37.578,32.7331],[37.5667,32.7332],[37.5624,32.7268],[37.5627,32.7245],[37.5622,32.7243],[37.55,32.7243],[37.5336,32.7215],[37.5205,32.7176],[37.5094,32.7013],[37.5043,32.6971],[37.4854,32.6896],[37.4767,32.675],[37.4733,32.6658],[37.4672,32.6607],[37.4652,32.6581],[37.4623,32.6571],[37.4594,32.6546],[37.4566,32.654],[37.4475,32.6446],[37.4444,32.6433],[37.444,32.6362],[37.4412,32.6331],[37.4245,32.607],[37.4183,32.6037],[37.3917,32.5971],[37.3795,32.5921],[37.3768,32.5897],[37.3703,32.5795],[37.3679,32.5772],[37.3661,32.5705],[37.3618,32.5633],[37.341,32.5643],[37.3342,32.5624],[37.3326,32.5646],[37.3302,32.5649],[37.3255,32.5621],[37.3234,32.5585],[37.3141,32.558],[37.302,32.5654],[37.2943,32.5645],[37.2892,32.5655],[37.2855,32.5646],[37.2822,32.5654],[37.2779,32.5643],[37.2696,32.5647],[37.2687,32.5667],[37.2651,32.5678],[37.2614,32.5707],[37.2557,32.5719],[37.2475,32.5683],[37.2362,32.5657],[37.2237,32.5611],[37.2155,32.5604],[37.2067,32.5581],[37.1897,32.5401],[37.184,32.5304],[37.1796,32.527],[37.1686,32.5215],[37.1609,32.5157],[37.1487,32.5009],[37.1354,32.4875],[37.1237,32.4732],[37.1111,32.4605],[37.102,32.4527],[37.0996,32.452],[37.0952,32.448],[37.0906,32.4461],[37.085,32.4413],[37.0841,32.4395],[37.0806,32.4381],[37.0768,32.4353],[37.0769,32.4337],[37.0743,32.4335],[37.0704,32.4306],[37.0635,32.4285],[37.0372,32.4283],[37.0202,32.4251],[36.937,32.3783],[36.9282,32.3785],[36.9258,32.3777],[36.919,32.3719],[36.915,32.3668],[36.8685,32.3405],[36.8393,32.3118],[36.7855,32.3207],[36.7603,32.3199],[36.7523,32.3212],[36.7407,32.3211],[36.735,32.3184],[36.7238,32.3157],[36.7216,32.3131],[36.7081,32.3161],[36.7045,32.318],[36.7016,32.3219],[36.6928,32.3252],[36.6899,32.3342],[36.6889,32.3349],[36.6825,32.3353],[36.6648,32.3391],[36.6591,32.3392],[36.6322,32.3448],[36.5936,32.3491],[36.5858,32.3478],[36.5464,32.3552],[36.5192,32.3573],[36.5109,32.3571],[36.5008,32.3593],[36.4943,32.3625],[36.4911,32.3657],[36.4856,32.367],[36.4844,32.3667],[36.4812,32.3689],[36.4762,32.3707],[36.4507,32.3728],[36.4381,32.3712],[36.4366,32.3727],[36.4296,32.374],[36.4283,32.3734],[36.4263,32.3741],[36.4259,32.3752],[36.405,32.3775],[36.4011,32.379],[36.3977,32.3843],[36.3914,32.3859],[36.3848,32.3894],[36.3801,32.3947],[36.3727,32.3986],[36.3578,32.4117],[36.3543,32.416],[36.349,32.4199],[36.3456,32.4237],[36.3418,32.426],[36.3396,32.4298],[36.3338,32.4321],[36.3311,32.4356],[36.3167,32.449],[36.3131,32.4512],[36.3129,32.4526],[36.3058,32.4589],[36.299,32.4597],[36.2938,32.4655],[36.2884,32.4675],[36.2869,32.4698],[36.2851,32.4702],[36.2727,32.478],[36.245,32.4936],[36.242,32.4956],[36.2421,32.4973],[36.2398,32.4988],[36.237,32.4996],[36.2362,32.4971],[36.233,32.497],[36.2298,32.4952],[36.2243,32.4936],[36.2122,32.4944],[36.2116,32.4942],[36.2116,32.4931],[36.2098,32.4939],[36.2074,32.5006],[36.2035,32.508],[36.2035,32.5106],[36.2051,32.5118],[36.2057,32.5167],[36.204,32.5168],[36.2048,32.5263],[36.2016,32.5269],[36.2017,32.5287],[36.2001,32.5291],[36.2,32.5271],[36.197,32.5276],[36.1919,32.5239],[36.1894,32.5236],[36.1807,32.5201],[36.1717,32.5188],[36.1639,32.5151],[36.159,32.5203],[36.1576,32.5237],[36.1564,32.5243],[36.154,32.5235],[36.1475,32.5247],[36.1315,32.5245],[36.1223,32.5256],[36.1113,32.522],[36.0968,32.5196],[36.0934,32.5175],[36.0793,32.5139],[36.079,32.5163],[36.0802,32.5193],[36.0781,32.5235],[36.0784,32.5278],[36.0766,32.533],[36.0795,32.5377],[36.0802,32.5439],[36.0764,32.5461],[36.0748,32.5486],[36.0728,32.5535],[36.0731,32.5585],[36.0695,32.5684],[36.0641,32.5746],[36.0628,32.5786],[36.0595,32.5792],[36.0539,32.5835],[36.0489,32.586],[36.0429,32.5909],[36.0301,32.5972],[36.0285,32.6005],[36.0255,32.6039],[36.025,32.6078],[36.0263,32.6099],[36.0244,32.6133],[36.0248,32.6168],[36.0284,32.637],[36.0296,32.6376],[36.0292,32.6402],[36.0281,32.6409],[36.0274,32.6535],[36.0245,32.6552],[36.0244,32.6579],[36.0227,32.6589],[36.0214,32.658],[36.0177,32.6581],[36.0033,32.6614],[35.9817,32.6605],[35.9685,32.6623],[35.9674,32.6627],[35.967,32.6647],[35.9648,32.6643],[35.961,32.6677],[35.9553,32.6764],[35.9479,32.682],[35.946,32.6865],[35.9463,32.6878],[35.9479,32.6888],[35.9481,32.6918],[35.9495,32.6926],[35.9485,32.6939],[35.9452,32.6966],[35.9404,32.6968],[35.9401,32.6997],[35.9383,32.6994],[35.9374,32.6999],[35.9392,32.7047],[35.9385,32.7069],[35.94,32.7084],[35.9373,32.7123],[35.9375,32.7153],[35.9365,32.7167],[35.9366,32.7185],[35.9346,32.7209],[35.9318,32.72],[35.9308,32.7214],[35.925,32.7225],[35.9227,32.7205],[35.9197,32.7223],[35.9187,32.7209],[35.9197,32.7192],[35.9181,32.7186],[35.9149,32.72],[35.913,32.723],[35.9119,32.7235],[35.9048,32.7194],[35.9044,32.7205],[35.9059,32.7233],[35.905,32.7242],[35.9017,32.7219],[35.9016,32.7204],[35.8998,32.7184],[35.8882,32.7181],[35.8864,32.7191],[35.8765,32.7324],[35.8745,32.7337],[35.8667,32.7342],[35.8579,32.7313],[35.8534,32.7322],[35.8525,32.7306],[35.8529,32.7288],[35.8565,32.7265],[35.8555,32.7249],[35.8541,32.7249],[35.8483,32.7303],[35.8447,32.7319],[35.8421,32.7308],[35.841,32.7283],[35.8352,32.7268],[35.8339,32.7283],[35.83,32.7299],[35.8258,32.7341],[35.8208,32.7353],[35.8101,32.7359],[35.809,32.739],[35.8107,32.7408],[35.809,32.7418],[35.8067,32.7408],[35.8056,32.7378],[35.8038,32.7359],[35.8007,32.7362],[35.8003,32.74],[35.799,32.7426],[35.7949,32.7437],[35.794,32.7452],[35.7958,32.7468],[35.8016,32.7488],[35.8018,32.7502],[35.7989,32.7541],[35.7955,32.7563],[35.7887,32.752],[35.7879,32.7495],[35.785,32.7473],[35.7796,32.7476],[35.7781,32.7485],[35.7709,32.7458],[35.7664,32.7465],[35.7642,32.7478],[35.7593,32.7469],[35.7555,32.745],[35.7533,32.7419],[35.7502,32.7407],[35.7481,32.7358],[35.7432,32.7318],[35.7407,32.7315],[35.7372,32.7346],[35.7363,32.7331],[35.7371,32.7296],[35.7346,32.728],[35.7326,32.723],[35.7292,32.7232],[35.7293,32.7265],[35.7258,32.7269],[35.7243,32.7256],[35.7243,32.7227],[35.7234,32.7216],[35.7218,32.7216],[35.7201,32.7231],[35.7182,32.7232],[35.7177,32.721],[35.7182,32.7173],[35.7159,32.7153],[35.7133,32.7179],[35.7107,32.7188],[35.7097,32.7165],[35.7068,32.7141],[35.7025,32.7158],[35.7011,32.7147],[35.7006,32.7123],[35.6982,32.7124],[35.6966,32.7107],[35.6924,32.7094],[35.6907,32.708],[35.6871,32.7091],[35.6797,32.7057],[35.6756,32.7056],[35.675,32.7047],[35.6764,32.704],[35.6768,32.7014],[35.6749,32.6965],[35.6713,32.6942],[35.6711,32.693],[35.672,32.6912],[35.6646,32.6875],[35.6615,32.687],[35.66,32.6876],[35.6592,32.6865],[35.6525,32.6856],[35.6503,32.6826],[35.6489,32.6822],[35.6439,32.6833],[35.6394,32.6869],[35.6356,32.6878],[35.6351,32.6919],[35.6385,32.7012],[35.6376,32.7052],[35.6447,32.7081],[35.6498,32.7146],[35.6498,32.7179],[35.651,32.7209],[35.6499,32.7241],[35.65,32.7265],[35.6516,32.7284],[35.6522,32.7309],[35.6519,32.7338],[35.6548,32.7393],[35.6559,32.7432],[35.6572,32.7444],[35.6555,32.754],[35.6618,32.773],[35.6624,32.7772],[35.6549,32.7929],[35.6557,32.8084],[35.644,32.8107],[35.6452,32.8153],[35.6455,32.8217],[35.6447,32.8258],[35.6414,32.8341],[35.6442,32.8345],[35.6454,32.8366],[35.6469,32.837],[35.6491,32.8393],[35.6498,32.8435],[35.648,32.8528],[35.6431,32.8612],[35.6441,32.8641],[35.6427,32.867],[35.6359,32.8762],[35.6299,32.8818],[35.6296,32.8839],[35.6218,32.8915],[35.6133,32.8953]],[[38.1057,36.8796],[38.1058,36.8798],[38.1053,36.8798],[38.1057,36.8796]]],[[[35.8865,34.783],[35.8859,34.7831],[35.8862,34.7834],[35.8865,34.783]]],[[[35.8863,34.7846],[35.8862,34.7851],[35.8865,34.7848],[35.8863,34.7846]]],[[[35.8826,34.794],[35.8822,34.7944],[35.8828,34.7944],[35.8826,34.794]]],[[[35.8821,34.7947],[35.8819,34.7948],[35.8821,34.7947]]],[[[35.8723,34.8228],[35.8722,34.824],[35.8728,34.8242],[35.8731,34.8229],[35.8723,34.8228]]],[[[35.8585,34.8591],[35.8611,34.8582],[35.8623,34.8564],[35.8621,34.8544],[35.8583,34.8536],[35.8565,34.8547],[35.8558,34.8568],[35.8563,34.8585],[35.8585,34.8591]]],[[[35.856,34.8583],[35.8559,34.8586],[35.8561,34.8586],[35.856,34.8583]]],[[[35.87,34.983],[35.8693,34.9826],[35.8691,34.9834],[35.87,34.983]]],[[[35.8859,35.9049],[35.887,35.9038],[35.8855,35.9046],[35.8859,35.9049]]]]}}]}